country_id	city_id	country_name	city_name	city_name_url_encoded	country_name_url_encoded	city_url_full	city_url	country_url_full	country_url_part
25	511	Bermuda	Hamilton	Hamilton	Hamilton	https://www.numbeo.com/cost-of-living/city_result.jsp?country=Bermuda&city=Hamilton	city_result.jsp?country=Bermuda&city=Hamilton	https://www.numbeo.com/cost-of-living/country_result.jsp?country=Bermuda	country_result.jsp?country=Bermuda
203	5327	Switzerland	Basel	Basel	Basel	https://www.numbeo.com/cost-of-living/city_result.jsp?country=Switzerland&city=Basel	city_result.jsp?country=Switzerland&city=Basel	https://www.numbeo.com/cost-of-living/country_result.jsp?country=Switzerland	country_result.jsp?country=Switzerland
203	5398	Switzerland	Zurich	Zurich	Zurich	https://www.numbeo.com/cost-of-living/city_result.jsp?country=Switzerland&city=Zurich	city_result.jsp?country=Switzerland&city=Zurich	https://www.numbeo.com/cost-of-living/country_result.jsp?country=Switzerland	country_result.jsp?country=Switzerland
203	5354	Switzerland	Lausanne	Lausanne	Lausanne	https://www.numbeo.com/cost-of-living/city_result.jsp?country=Switzerland&city=Lausanne	city_result.jsp?country=Switzerland&city=Lausanne	https://www.numbeo.com/cost-of-living/country_result.jsp?country=Switzerland	country_result.jsp?country=Switzerland
203	5343	Switzerland	Geneva	Geneva	Geneva	https://www.numbeo.com/cost-of-living/city_result.jsp?country=Switzerland&city=Geneva	city_result.jsp?country=Switzerland&city=Geneva	https://www.numbeo.com/cost-of-living/country_result.jsp?country=Switzerland	country_result.jsp?country=Switzerland
203	5358	Switzerland	Lugano	Lugano	Lugano	https://www.numbeo.com/cost-of-living/city_result.jsp?country=Switzerland&city=Lugano	city_result.jsp?country=Switzerland&city=Lugano	https://www.numbeo.com/cost-of-living/country_result.jsp?country=Switzerland	country_result.jsp?country=Switzerland
203	5329	Switzerland	Bern	Bern	Bern	https://www.numbeo.com/cost-of-living/city_result.jsp?country=Switzerland&city=Bern	city_result.jsp?country=Switzerland&city=Bern	https://www.numbeo.com/cost-of-living/country_result.jsp?country=Switzerland	country_result.jsp?country=Switzerland
157	4032	Norway	Tromso	Tromso	Tromso	https://www.numbeo.com/cost-of-living/city_result.jsp?country=Norway&city=Tromso	city_result.jsp?country=Norway&city=Tromso	https://www.numbeo.com/cost-of-living/country_result.jsp?country=Norway	country_result.jsp?country=Norway
157	4028	Norway	Stavanger	Stavanger	Stavanger	https://www.numbeo.com/cost-of-living/city_result.jsp?country=Norway&city=Stavanger	city_result.jsp?country=Norway&city=Stavanger	https://www.numbeo.com/cost-of-living/country_result.jsp?country=Norway	country_result.jsp?country=Norway
157	4033	Norway	Trondheim	Trondheim	Trondheim	https://www.numbeo.com/cost-of-living/city_result.jsp?country=Norway&city=Trondheim	city_result.jsp?country=Norway&city=Trondheim	https://www.numbeo.com/cost-of-living/country_result.jsp?country=Norway	country_result.jsp?country=Norway
157	4018	Norway	Oslo	Oslo	Oslo	https://www.numbeo.com/cost-of-living/city_result.jsp?country=Norway&city=Oslo	city_result.jsp?country=Norway&city=Oslo	https://www.numbeo.com/cost-of-living/country_result.jsp?country=Norway	country_result.jsp?country=Norway
157	3985	Norway	Bergen	Bergen	Bergen	https://www.numbeo.com/cost-of-living/city_result.jsp?country=Norway&city=Bergen	city_result.jsp?country=Norway&city=Bergen	https://www.numbeo.com/cost-of-living/country_result.jsp?country=Norway	country_result.jsp?country=Norway
222	6924	United States	New York, NY	New%20York%2C%20NY	New%20York%2C%20NY	https://www.numbeo.com/cost-of-living/city_result.jsp?country=United%20States&city=New%20York%2C%20NY	city_result.jsp?country=United%20States&city=New%20York%2C%20NY	https://www.numbeo.com/cost-of-living/country_result.jsp?country=United%20States	country_result.jsp?country=United%20States
95	2257	Iceland	Reykjavik	Reykjavik	Reykjavik	https://www.numbeo.com/cost-of-living/city_result.jsp?country=Iceland&city=Reykjavik	city_result.jsp?country=Iceland&city=Reykjavik	https://www.numbeo.com/cost-of-living/country_result.jsp?country=Iceland	country_result.jsp?country=Iceland
106	3054	Japan	Nagoya	Nagoya	Nagoya	https://www.numbeo.com/cost-of-living/city_result.jsp?country=Japan&city=Nagoya	city_result.jsp?country=Japan&city=Nagoya	https://www.numbeo.com/cost-of-living/country_result.jsp?country=Japan	country_result.jsp?country=Japan
56	1427	Denmark	Copenhagen	Copenhagen	Copenhagen	https://www.numbeo.com/cost-of-living/city_result.jsp?country=Denmark&city=Copenhagen	city_result.jsp?country=Denmark&city=Copenhagen	https://www.numbeo.com/cost-of-living/country_result.jsp?country=Denmark	country_result.jsp?country=Denmark
222	6622	United States	Honolulu, HI	Honolulu%2C%20HI	Honolulu%2C%20HI	https://www.numbeo.com/cost-of-living/city_result.jsp?country=United%20States&city=Honolulu%2C%20HI	city_result.jsp?country=United%20States&city=Honolulu%2C%20HI	https://www.numbeo.com/cost-of-living/country_result.jsp?country=United%20States	country_result.jsp?country=United%20States
56	1421	Denmark	Arhus	Arhus	Arhus	https://www.numbeo.com/cost-of-living/city_result.jsp?country=Denmark&city=Arhus	city_result.jsp?country=Denmark&city=Arhus	https://www.numbeo.com/cost-of-living/country_result.jsp?country=Denmark	country_result.jsp?country=Denmark
71	1788	France	Paris	Paris	Paris	https://www.numbeo.com/cost-of-living/city_result.jsp?country=France&city=Paris	city_result.jsp?country=France&city=Paris	https://www.numbeo.com/cost-of-living/country_result.jsp?country=France	country_result.jsp?country=France
102	2749	Israel	Tel Aviv-Yafo	Tel%20Aviv-Yafo	Tel%20Aviv-Yafo	https://www.numbeo.com/cost-of-living/city_result.jsp?country=Israel&city=Tel%20Aviv-Yafo	city_result.jsp?country=Israel&city=Tel%20Aviv-Yafo	https://www.numbeo.com/cost-of-living/country_result.jsp?country=Israel	country_result.jsp?country=Israel
222	7153	United States	San Francisco, CA	San%20Francisco%2C%20CA	San%20Francisco%2C%20CA	https://www.numbeo.com/cost-of-living/city_result.jsp?country=United%20States&city=San%20Francisco%2C%20CA	city_result.jsp?country=United%20States&city=San%20Francisco%2C%20CA	https://www.numbeo.com/cost-of-living/country_result.jsp?country=United%20States	country_result.jsp?country=United%20States
56	1420	Denmark	Aalborg	Aalborg	Aalborg	https://www.numbeo.com/cost-of-living/city_result.jsp?country=Denmark&city=Aalborg	city_result.jsp?country=Denmark&city=Aalborg	https://www.numbeo.com/cost-of-living/country_result.jsp?country=Denmark	country_result.jsp?country=Denmark
222	6088	United States	Anchorage, AK	Anchorage%2C%20AK	Anchorage%2C%20AK	https://www.numbeo.com/cost-of-living/city_result.jsp?country=United%20States&city=Anchorage%2C%20AK	city_result.jsp?country=United%20States&city=Anchorage%2C%20AK	https://www.numbeo.com/cost-of-living/country_result.jsp?country=United%20States	country_result.jsp?country=United%20States
106	3079	Japan	Tokyo	Tokyo	Tokyo	https://www.numbeo.com/cost-of-living/city_result.jsp?country=Japan&city=Tokyo	city_result.jsp?country=Japan&city=Tokyo	https://www.numbeo.com/cost-of-living/country_result.jsp?country=Japan	country_result.jsp?country=Japan
122	3346	Luxembourg	Luxembourg	Luxembourg	Luxembourg	https://www.numbeo.com/cost-of-living/city_result.jsp?country=Luxembourg&city=Luxembourg	city_result.jsp?country=Luxembourg&city=Luxembourg	https://www.numbeo.com/cost-of-living/country_result.jsp?country=Luxembourg	country_result.jsp?country=Luxembourg
222	6958	United States	Oakland, CA	Oakland%2C%20CA	Oakland%2C%20CA	https://www.numbeo.com/cost-of-living/city_result.jsp?country=United%20States&city=Oakland%2C%20CA	city_result.jsp?country=United%20States&city=Oakland%2C%20CA	https://www.numbeo.com/cost-of-living/country_result.jsp?country=United%20States	country_result.jsp?country=United%20States
222	7188	United States	Seattle, WA	Seattle%2C%20WA	Seattle%2C%20WA	https://www.numbeo.com/cost-of-living/city_result.jsp?country=United%20States&city=Seattle%2C%20WA	city_result.jsp?country=United%20States&city=Seattle%2C%20WA	https://www.numbeo.com/cost-of-living/country_result.jsp?country=United%20States	country_result.jsp?country=United%20States
222	6207	United States	Boston, MA	Boston%2C%20MA	Boston%2C%20MA	https://www.numbeo.com/cost-of-living/city_result.jsp?country=United%20States&city=Boston%2C%20MA	city_result.jsp?country=United%20States&city=Boston%2C%20MA	https://www.numbeo.com/cost-of-living/country_result.jsp?country=United%20States	country_result.jsp?country=United%20States
14	199	Australia	Darwin	Darwin	Darwin	https://www.numbeo.com/cost-of-living/city_result.jsp?country=Australia&city=Darwin	city_result.jsp?country=Australia&city=Darwin	https://www.numbeo.com/cost-of-living/country_result.jsp?country=Australia	country_result.jsp?country=Australia
14	279	Australia	Sydney	Sydney	Sydney	https://www.numbeo.com/cost-of-living/city_result.jsp?country=Australia&city=Sydney	city_result.jsp?country=Australia&city=Sydney	https://www.numbeo.com/cost-of-living/country_result.jsp?country=Australia	country_result.jsp?country=Australia
17	355	Bahamas	Nassau	Nassau	Nassau	https://www.numbeo.com/cost-of-living/city_result.jsp?country=Bahamas&city=Nassau	city_result.jsp?country=Bahamas&city=Nassau	https://www.numbeo.com/cost-of-living/country_result.jsp?country=Bahamas	country_result.jsp?country=Bahamas
195	5040	South Korea	Seoul	Seoul	Seoul	https://www.numbeo.com/cost-of-living/city_result.jsp?country=South%20Korea&city=Seoul	city_result.jsp?country=South%20Korea&city=Seoul	https://www.numbeo.com/cost-of-living/country_result.jsp?country=South%20Korea	country_result.jsp?country=South%20Korea
222	7068	United States	Queens, NY	Queens%2C%20NY	Queens%2C%20NY	https://www.numbeo.com/cost-of-living/city_result.jsp?country=United%20States&city=Queens%2C%20NY	city_result.jsp?country=United%20States&city=Queens%2C%20NY	https://www.numbeo.com/cost-of-living/country_result.jsp?country=United%20States	country_result.jsp?country=United%20States
202	5300	Sweden	Stockholm	Stockholm	Stockholm	https://www.numbeo.com/cost-of-living/city_result.jsp?country=Sweden&city=Stockholm	city_result.jsp?country=Sweden&city=Stockholm	https://www.numbeo.com/cost-of-living/country_result.jsp?country=Sweden	country_result.jsp?country=Sweden
129	3485	Malta	Valletta	Valletta	Valletta	https://www.numbeo.com/cost-of-living/city_result.jsp?country=Malta&city=Valletta	city_result.jsp?country=Malta&city=Valletta	https://www.numbeo.com/cost-of-living/country_result.jsp?country=Malta	country_result.jsp?country=Malta
147	3777	Netherlands	Amsterdam	Amsterdam	Amsterdam	https://www.numbeo.com/cost-of-living/city_result.jsp?country=Netherlands&city=Amsterdam	city_result.jsp?country=Netherlands&city=Amsterdam	https://www.numbeo.com/cost-of-living/country_result.jsp?country=Netherlands	country_result.jsp?country=Netherlands
221	5917	United Kingdom	London	London	London	https://www.numbeo.com/cost-of-living/city_result.jsp?country=United%20Kingdom&city=London	city_result.jsp?country=United%20Kingdom&city=London	https://www.numbeo.com/cost-of-living/country_result.jsp?country=United%20Kingdom	country_result.jsp?country=United%20Kingdom
14	253	Australia	Newcastle	Newcastle	Newcastle	https://www.numbeo.com/cost-of-living/city_result.jsp?country=Australia&city=Newcastle	city_result.jsp?country=Australia&city=Newcastle	https://www.numbeo.com/cost-of-living/country_result.jsp?country=Australia	country_result.jsp?country=Australia
100	2665	Ireland	Dublin	Dublin	Dublin	https://www.numbeo.com/cost-of-living/city_result.jsp?country=Ireland&city=Dublin	city_result.jsp?country=Ireland&city=Dublin	https://www.numbeo.com/cost-of-living/country_result.jsp?country=Ireland	country_result.jsp?country=Ireland
100	2660	Ireland	Cork	Cork	Cork	https://www.numbeo.com/cost-of-living/city_result.jsp?country=Ireland&city=Cork	city_result.jsp?country=Ireland&city=Cork	https://www.numbeo.com/cost-of-living/country_result.jsp?country=Ireland	country_result.jsp?country=Ireland
188	4848	Singapore	Singapore	Singapore	Singapore	https://www.numbeo.com/cost-of-living/city_result.jsp?country=Singapore&city=Singapore	city_result.jsp?country=Singapore&city=Singapore	https://www.numbeo.com/cost-of-living/country_result.jsp?country=Singapore	country_result.jsp?country=Singapore
106	3066	Japan	Osaka	Osaka	Osaka	https://www.numbeo.com/cost-of-living/city_result.jsp?country=Japan&city=Osaka	city_result.jsp?country=Japan&city=Osaka	https://www.numbeo.com/cost-of-living/country_result.jsp?country=Japan	country_result.jsp?country=Japan
71	1704	France	Antibes	Antibes	Antibes	https://www.numbeo.com/cost-of-living/city_result.jsp?country=France&city=Antibes	city_result.jsp?country=France&city=Antibes	https://www.numbeo.com/cost-of-living/country_result.jsp?country=France	country_result.jsp?country=France
56	1454	Denmark	Odense	Odense	Odense	https://www.numbeo.com/cost-of-living/city_result.jsp?country=Denmark&city=Odense	city_result.jsp?country=Denmark&city=Odense	https://www.numbeo.com/cost-of-living/country_result.jsp?country=Denmark	country_result.jsp?country=Denmark
202	5309	Sweden	Uppsala	Uppsala	Uppsala	https://www.numbeo.com/cost-of-living/city_result.jsp?country=Sweden&city=Uppsala	city_result.jsp?country=Sweden&city=Uppsala	https://www.numbeo.com/cost-of-living/country_result.jsp?country=Sweden	country_result.jsp?country=Sweden
102	2718	Israel	Haifa	Haifa	Haifa	https://www.numbeo.com/cost-of-living/city_result.jsp?country=Israel&city=Haifa	city_result.jsp?country=Israel&city=Haifa	https://www.numbeo.com/cost-of-living/country_result.jsp?country=Israel	country_result.jsp?country=Israel
149	3845	New Zealand	Auckland	Auckland	Auckland	https://www.numbeo.com/cost-of-living/city_result.jsp?country=New%20Zealand&city=Auckland	city_result.jsp?country=New%20Zealand&city=Auckland	https://www.numbeo.com/cost-of-living/country_result.jsp?country=New%20Zealand	country_result.jsp?country=New%20Zealand
14	179	Australia	Brisbane	Brisbane	Brisbane	https://www.numbeo.com/cost-of-living/city_result.jsp?country=Australia&city=Brisbane	city_result.jsp?country=Australia&city=Brisbane	https://www.numbeo.com/cost-of-living/country_result.jsp?country=Australia	country_result.jsp?country=Australia
14	262	Australia	Perth	Perth	Perth	https://www.numbeo.com/cost-of-living/city_result.jsp?country=Australia&city=Perth	city_result.jsp?country=Australia&city=Perth	https://www.numbeo.com/cost-of-living/country_result.jsp?country=Australia	country_result.jsp?country=Australia
14	190	Australia	Canberra	Canberra	Canberra	https://www.numbeo.com/cost-of-living/city_result.jsp?country=Australia&city=Canberra	city_result.jsp?country=Australia&city=Canberra	https://www.numbeo.com/cost-of-living/country_result.jsp?country=Australia	country_result.jsp?country=Australia
222	7372	United States	Washington, DC	Washington%2C%20DC	Washington%2C%20DC	https://www.numbeo.com/cost-of-living/city_result.jsp?country=United%20States&city=Washington%2C%20DC	city_result.jsp?country=United%20States&city=Washington%2C%20DC	https://www.numbeo.com/cost-of-living/country_result.jsp?country=United%20States	country_result.jsp?country=United%20States
51	1282	Croatia	Dubrovnik	Dubrovnik	Dubrovnik	https://www.numbeo.com/cost-of-living/city_result.jsp?country=Croatia&city=Dubrovnik	city_result.jsp?country=Croatia&city=Dubrovnik	https://www.numbeo.com/cost-of-living/country_result.jsp?country=Croatia	country_result.jsp?country=Croatia
147	3825	Netherlands	Utrecht	Utrecht	Utrecht	https://www.numbeo.com/cost-of-living/city_result.jsp?country=Netherlands&city=Utrecht	city_result.jsp?country=Netherlands&city=Utrecht	https://www.numbeo.com/cost-of-living/country_result.jsp?country=Netherlands	country_result.jsp?country=Netherlands
102	2722	Israel	Jerusalem	Jerusalem	Jerusalem	https://www.numbeo.com/cost-of-living/city_result.jsp?country=Israel&city=Jerusalem	city_result.jsp?country=Israel&city=Jerusalem	https://www.numbeo.com/cost-of-living/country_result.jsp?country=Israel	country_result.jsp?country=Israel
100	2670	Ireland	Galway	Galway	Galway	https://www.numbeo.com/cost-of-living/city_result.jsp?country=Ireland&city=Galway	city_result.jsp?country=Ireland&city=Galway	https://www.numbeo.com/cost-of-living/country_result.jsp?country=Ireland	country_result.jsp?country=Ireland
103	2880	Italy	Milan	Milan	Milan	https://www.numbeo.com/cost-of-living/city_result.jsp?country=Italy&city=Milan	city_result.jsp?country=Italy&city=Milan	https://www.numbeo.com/cost-of-living/country_result.jsp?country=Italy	country_result.jsp?country=Italy
116	3237	Lebanon	Beirut	Beirut	Beirut	https://www.numbeo.com/cost-of-living/city_result.jsp?country=Lebanon&city=Beirut	city_result.jsp?country=Lebanon&city=Beirut	https://www.numbeo.com/cost-of-living/country_result.jsp?country=Lebanon	country_result.jsp?country=Lebanon
222	6665	United States	Jersey City, NJ	Jersey%20City%2C%20NJ	Jersey%20City%2C%20NJ	https://www.numbeo.com/cost-of-living/city_result.jsp?country=United%20States&city=Jersey%20City%2C%20NJ	city_result.jsp?country=United%20States&city=Jersey%20City%2C%20NJ	https://www.numbeo.com/cost-of-living/country_result.jsp?country=United%20States	country_result.jsp?country=United%20States
14	217	Australia	Gold Coast	Gold%20Coast	Gold%20Coast	https://www.numbeo.com/cost-of-living/city_result.jsp?country=Australia&city=Gold%20Coast	city_result.jsp?country=Australia&city=Gold%20Coast	https://www.numbeo.com/cost-of-living/country_result.jsp?country=Australia	country_result.jsp?country=Australia
147	3783	Netherlands	Breda	Breda	Breda	https://www.numbeo.com/cost-of-living/city_result.jsp?country=Netherlands&city=Breda	city_result.jsp?country=Netherlands&city=Breda	https://www.numbeo.com/cost-of-living/country_result.jsp?country=Netherlands	country_result.jsp?country=Netherlands
222	6173	United States	Bend, OR	Bend%2C%20OR	Bend%2C%20OR	https://www.numbeo.com/cost-of-living/city_result.jsp?country=United%20States&city=Bend%2C%20OR	city_result.jsp?country=United%20States&city=Bend%2C%20OR	https://www.numbeo.com/cost-of-living/country_result.jsp?country=United%20States	country_result.jsp?country=United%20States
147	3791	Netherlands	Eindhoven	Eindhoven	Eindhoven	https://www.numbeo.com/cost-of-living/city_result.jsp?country=Netherlands&city=Eindhoven	city_result.jsp?country=Netherlands&city=Eindhoven	https://www.numbeo.com/cost-of-living/country_result.jsp?country=Netherlands	country_result.jsp?country=Netherlands
222	6859	United States	Minneapolis, MN	Minneapolis%2C%20MN	Minneapolis%2C%20MN	https://www.numbeo.com/cost-of-living/city_result.jsp?country=United%20States&city=Minneapolis%2C%20MN	city_result.jsp?country=United%20States&city=Minneapolis%2C%20MN	https://www.numbeo.com/cost-of-living/country_result.jsp?country=United%20States	country_result.jsp?country=United%20States
14	242	Australia	Melbourne	Melbourne	Melbourne	https://www.numbeo.com/cost-of-living/city_result.jsp?country=Australia&city=Melbourne	city_result.jsp?country=Australia&city=Melbourne	https://www.numbeo.com/cost-of-living/country_result.jsp?country=Australia	country_result.jsp?country=Australia
71	1768	France	Lyon	Lyon	Lyon	https://www.numbeo.com/cost-of-living/city_result.jsp?country=France&city=Lyon	city_result.jsp?country=France&city=Lyon	https://www.numbeo.com/cost-of-living/country_result.jsp?country=France	country_result.jsp?country=France
71	1784	France	Nice	Nice	Nice	https://www.numbeo.com/cost-of-living/city_result.jsp?country=France&city=Nice	city_result.jsp?country=France&city=Nice	https://www.numbeo.com/cost-of-living/country_result.jsp?country=France	country_result.jsp?country=France
71	1801	France	Strasbourg	Strasbourg	Strasbourg	https://www.numbeo.com/cost-of-living/city_result.jsp?country=France&city=Strasbourg	city_result.jsp?country=France&city=Strasbourg	https://www.numbeo.com/cost-of-living/country_result.jsp?country=France	country_result.jsp?country=France
78	1946	Germany	Munich	Munich	Munich	https://www.numbeo.com/cost-of-living/city_result.jsp?country=Germany&city=Munich	city_result.jsp?country=Germany&city=Munich	https://www.numbeo.com/cost-of-living/country_result.jsp?country=Germany	country_result.jsp?country=Germany
222	6781	United States	Los Angeles, CA	Los%20Angeles%2C%20CA	Los%20Angeles%2C%20CA	https://www.numbeo.com/cost-of-living/city_result.jsp?country=United%20States&city=Los%20Angeles%2C%20CA	city_result.jsp?country=United%20States&city=Los%20Angeles%2C%20CA	https://www.numbeo.com/cost-of-living/country_result.jsp?country=United%20States	country_result.jsp?country=United%20States
222	6507	United States	Fremont, CA	Fremont%2C%20CA	Fremont%2C%20CA	https://www.numbeo.com/cost-of-living/city_result.jsp?country=United%20States&city=Fremont%2C%20CA	city_result.jsp?country=United%20States&city=Fremont%2C%20CA	https://www.numbeo.com/cost-of-living/country_result.jsp?country=United%20States	country_result.jsp?country=United%20States
70	1655	Finland	Helsinki	Helsinki	Helsinki	https://www.numbeo.com/cost-of-living/city_result.jsp?country=Finland&city=Helsinki	city_result.jsp?country=Finland&city=Helsinki	https://www.numbeo.com/cost-of-living/country_result.jsp?country=Finland	country_result.jsp?country=Finland
222	6488	United States	Fort Lauderdale, FL	Fort%20Lauderdale%2C%20FL	Fort%20Lauderdale%2C%20FL	https://www.numbeo.com/cost-of-living/city_result.jsp?country=United%20States&city=Fort%20Lauderdale%2C%20FL	city_result.jsp?country=United%20States&city=Fort%20Lauderdale%2C%20FL	https://www.numbeo.com/cost-of-living/country_result.jsp?country=United%20States	country_result.jsp?country=United%20States
70	1676	Finland	Oulu	Oulu	Oulu	https://www.numbeo.com/cost-of-living/city_result.jsp?country=Finland&city=Oulu	city_result.jsp?country=Finland&city=Oulu	https://www.numbeo.com/cost-of-living/country_result.jsp?country=Finland	country_result.jsp?country=Finland
221	5812	United Kingdom	Brighton	Brighton	Brighton	https://www.numbeo.com/cost-of-living/city_result.jsp?country=United%20Kingdom&city=Brighton	city_result.jsp?country=United%20Kingdom&city=Brighton	https://www.numbeo.com/cost-of-living/country_result.jsp?country=United%20Kingdom	country_result.jsp?country=United%20Kingdom
221	5948	United Kingdom	Peterborough	Peterborough	Peterborough	https://www.numbeo.com/cost-of-living/city_result.jsp?country=United%20Kingdom&city=Peterborough	city_result.jsp?country=United%20Kingdom&city=Peterborough	https://www.numbeo.com/cost-of-living/country_result.jsp?country=United%20Kingdom	country_result.jsp?country=United%20Kingdom
202	5257	Sweden	Gothenburg	Gothenburg	Gothenburg	https://www.numbeo.com/cost-of-living/city_result.jsp?country=Sweden&city=Gothenburg	city_result.jsp?country=Sweden&city=Gothenburg	https://www.numbeo.com/cost-of-living/country_result.jsp?country=Sweden	country_result.jsp?country=Sweden
222	6856	United States	Milwaukee, WI	Milwaukee%2C%20WI	Milwaukee%2C%20WI	https://www.numbeo.com/cost-of-living/city_result.jsp?country=United%20States&city=Milwaukee%2C%20WI	city_result.jsp?country=United%20States&city=Milwaukee%2C%20WI	https://www.numbeo.com/cost-of-living/country_result.jsp?country=United%20States	country_result.jsp?country=United%20States
147	3800	Netherlands	Haarlem	Haarlem	Haarlem	https://www.numbeo.com/cost-of-living/city_result.jsp?country=Netherlands&city=Haarlem	city_result.jsp?country=Netherlands&city=Haarlem	https://www.numbeo.com/cost-of-living/country_result.jsp?country=Netherlands	country_result.jsp?country=Netherlands
149	3858	New Zealand	Hamilton	Hamilton	Hamilton	https://www.numbeo.com/cost-of-living/city_result.jsp?country=New%20Zealand&city=Hamilton	city_result.jsp?country=New%20Zealand&city=Hamilton	https://www.numbeo.com/cost-of-living/country_result.jsp?country=New%20Zealand	country_result.jsp?country=New%20Zealand
147	3809	Netherlands	Leiden	Leiden	Leiden	https://www.numbeo.com/cost-of-living/city_result.jsp?country=Netherlands&city=Leiden	city_result.jsp?country=Netherlands&city=Leiden	https://www.numbeo.com/cost-of-living/country_result.jsp?country=Netherlands	country_result.jsp?country=Netherlands
71	1794	France	Rennes	Rennes	Rennes	https://www.numbeo.com/cost-of-living/city_result.jsp?country=France&city=Rennes	city_result.jsp?country=France&city=Rennes	https://www.numbeo.com/cost-of-living/country_result.jsp?country=France	country_result.jsp?country=France
15	313	Austria	Linz	Linz	Linz	https://www.numbeo.com/cost-of-living/city_result.jsp?country=Austria&city=Linz	city_result.jsp?country=Austria&city=Linz	https://www.numbeo.com/cost-of-living/country_result.jsp?country=Austria	country_result.jsp?country=Austria
149	3849	New Zealand	Christchurch	Christchurch	Christchurch	https://www.numbeo.com/cost-of-living/city_result.jsp?country=New%20Zealand&city=Christchurch	city_result.jsp?country=New%20Zealand&city=Christchurch	https://www.numbeo.com/cost-of-living/country_result.jsp?country=New%20Zealand	country_result.jsp?country=New%20Zealand
147	3799	Netherlands	Groningen	Groningen	Groningen	https://www.numbeo.com/cost-of-living/city_result.jsp?country=Netherlands&city=Groningen	city_result.jsp?country=Netherlands&city=Groningen	https://www.numbeo.com/cost-of-living/country_result.jsp?country=Netherlands	country_result.jsp?country=Netherlands
14	162	Australia	Adelaide	Adelaide	Adelaide	https://www.numbeo.com/cost-of-living/city_result.jsp?country=Australia&city=Adelaide	city_result.jsp?country=Australia&city=Adelaide	https://www.numbeo.com/cost-of-living/country_result.jsp?country=Australia	country_result.jsp?country=Australia
202	5279	Sweden	Lund	Lund	Lund	https://www.numbeo.com/cost-of-living/city_result.jsp?country=Sweden&city=Lund	city_result.jsp?country=Sweden&city=Lund	https://www.numbeo.com/cost-of-living/country_result.jsp?country=Sweden	country_result.jsp?country=Sweden
222	6306	United States	Chicago, IL	Chicago%2C%20IL	Chicago%2C%20IL	https://www.numbeo.com/cost-of-living/city_result.jsp?country=United%20States&city=Chicago%2C%20IL	city_result.jsp?country=United%20States&city=Chicago%2C%20IL	https://www.numbeo.com/cost-of-living/country_result.jsp?country=United%20States	country_result.jsp?country=United%20States
222	6293	United States	Charleston, SC	Charleston%2C%20SC	Charleston%2C%20SC	https://www.numbeo.com/cost-of-living/city_result.jsp?country=United%20States&city=Charleston%2C%20SC	city_result.jsp?country=United%20States&city=Charleston%2C%20SC	https://www.numbeo.com/cost-of-living/country_result.jsp?country=United%20States	country_result.jsp?country=United%20States
222	7151	United States	San Diego, CA	San%20Diego%2C%20CA	San%20Diego%2C%20CA	https://www.numbeo.com/cost-of-living/city_result.jsp?country=United%20States&city=San%20Diego%2C%20CA	city_result.jsp?country=United%20States&city=San%20Diego%2C%20CA	https://www.numbeo.com/cost-of-living/country_result.jsp?country=United%20States	country_result.jsp?country=United%20States
93	2178	Hong Kong	Hong Kong	Hong%20Kong	Hong%20Kong	https://www.numbeo.com/cost-of-living/city_result.jsp?country=Hong%20Kong&city=Hong%20Kong	city_result.jsp?country=Hong%20Kong&city=Hong%20Kong	https://www.numbeo.com/cost-of-living/country_result.jsp?country=Hong%20Kong	country_result.jsp?country=Hong%20Kong
71	1777	France	Montpellier	Montpellier	Montpellier	https://www.numbeo.com/cost-of-living/city_result.jsp?country=France&city=Montpellier	city_result.jsp?country=France&city=Montpellier	https://www.numbeo.com/cost-of-living/country_result.jsp?country=France	country_result.jsp?country=France
103	2850	Italy	Genoa	Genoa	Genoa	https://www.numbeo.com/cost-of-living/city_result.jsp?country=Italy&city=Genoa	city_result.jsp?country=Italy&city=Genoa	https://www.numbeo.com/cost-of-living/country_result.jsp?country=Italy	country_result.jsp?country=Italy
222	7029	United States	Pittsburgh, PA	Pittsburgh%2C%20PA	Pittsburgh%2C%20PA	https://www.numbeo.com/cost-of-living/city_result.jsp?country=United%20States&city=Pittsburgh%2C%20PA	city_result.jsp?country=United%20States&city=Pittsburgh%2C%20PA	https://www.numbeo.com/cost-of-living/country_result.jsp?country=United%20States	country_result.jsp?country=United%20States
222	7143	United States	Salem, OR	Salem%2C%20OR	Salem%2C%20OR	https://www.numbeo.com/cost-of-living/city_result.jsp?country=United%20States&city=Salem%2C%20OR	city_result.jsp?country=United%20States&city=Salem%2C%20OR	https://www.numbeo.com/cost-of-living/country_result.jsp?country=United%20States	country_result.jsp?country=United%20States
222	7140	United States	Saint Paul, MN	Saint%20Paul%2C%20MN	Saint%20Paul%2C%20MN	https://www.numbeo.com/cost-of-living/city_result.jsp?country=United%20States&city=Saint%20Paul%2C%20MN	city_result.jsp?country=United%20States&city=Saint%20Paul%2C%20MN	https://www.numbeo.com/cost-of-living/country_result.jsp?country=United%20States	country_result.jsp?country=United%20States
70	1687	Finland	Turku	Turku	Turku	https://www.numbeo.com/cost-of-living/city_result.jsp?country=Finland&city=Turku	city_result.jsp?country=Finland&city=Turku	https://www.numbeo.com/cost-of-living/country_result.jsp?country=Finland	country_result.jsp?country=Finland
222	7285	United States	Tampa, FL	Tampa%2C%20FL	Tampa%2C%20FL	https://www.numbeo.com/cost-of-living/city_result.jsp?country=United%20States&city=Tampa%2C%20FL	city_result.jsp?country=United%20States&city=Tampa%2C%20FL	https://www.numbeo.com/cost-of-living/country_result.jsp?country=United%20States	country_result.jsp?country=United%20States
15	303	Austria	Graz	Graz	Graz	https://www.numbeo.com/cost-of-living/city_result.jsp?country=Austria&city=Graz	city_result.jsp?country=Austria&city=Graz	https://www.numbeo.com/cost-of-living/country_result.jsp?country=Austria	country_result.jsp?country=Austria
22	443	Belgium	Antwerp	Antwerp	Antwerp	https://www.numbeo.com/cost-of-living/city_result.jsp?country=Belgium&city=Antwerp	city_result.jsp?country=Belgium&city=Antwerp	https://www.numbeo.com/cost-of-living/country_result.jsp?country=Belgium	country_result.jsp?country=Belgium
71	1755	France	Grenoble	Grenoble	Grenoble	https://www.numbeo.com/cost-of-living/city_result.jsp?country=France&city=Grenoble	city_result.jsp?country=France&city=Grenoble	https://www.numbeo.com/cost-of-living/country_result.jsp?country=France	country_result.jsp?country=France
222	6646	United States	Irvine, CA	Irvine%2C%20CA	Irvine%2C%20CA	https://www.numbeo.com/cost-of-living/city_result.jsp?country=United%20States&city=Irvine%2C%20CA	city_result.jsp?country=United%20States&city=Irvine%2C%20CA	https://www.numbeo.com/cost-of-living/country_result.jsp?country=United%20States	country_result.jsp?country=United%20States
222	7022	United States	Philadelphia, PA	Philadelphia%2C%20PA	Philadelphia%2C%20PA	https://www.numbeo.com/cost-of-living/city_result.jsp?country=United%20States&city=Philadelphia%2C%20PA	city_result.jsp?country=United%20States&city=Philadelphia%2C%20PA	https://www.numbeo.com/cost-of-living/country_result.jsp?country=United%20States	country_result.jsp?country=United%20States
147	3812	Netherlands	Maastricht	Maastricht	Maastricht	https://www.numbeo.com/cost-of-living/city_result.jsp?country=Netherlands&city=Maastricht	city_result.jsp?country=Netherlands&city=Maastricht	https://www.numbeo.com/cost-of-living/country_result.jsp?country=Netherlands	country_result.jsp?country=Netherlands
103	2784	Italy	Bergamo	Bergamo	Bergamo	https://www.numbeo.com/cost-of-living/city_result.jsp?country=Italy&city=Bergamo	city_result.jsp?country=Italy&city=Bergamo	https://www.numbeo.com/cost-of-living/country_result.jsp?country=Italy	country_result.jsp?country=Italy
103	2790	Italy	Brescia	Brescia	Brescia	https://www.numbeo.com/cost-of-living/city_result.jsp?country=Italy&city=Brescia	city_result.jsp?country=Italy&city=Brescia	https://www.numbeo.com/cost-of-living/country_result.jsp?country=Italy	country_result.jsp?country=Italy
22	449	Belgium	Brussels	Brussels	Brussels	https://www.numbeo.com/cost-of-living/city_result.jsp?country=Belgium&city=Brussels	city_result.jsp?country=Belgium&city=Brussels	https://www.numbeo.com/cost-of-living/country_result.jsp?country=Belgium	country_result.jsp?country=Belgium
22	464	Belgium	Leuven	Leuven	Leuven	https://www.numbeo.com/cost-of-living/city_result.jsp?country=Belgium&city=Leuven	city_result.jsp?country=Belgium&city=Leuven	https://www.numbeo.com/cost-of-living/country_result.jsp?country=Belgium	country_result.jsp?country=Belgium
147	3814	Netherlands	Nijmegen	Nijmegen	Nijmegen	https://www.numbeo.com/cost-of-living/city_result.jsp?country=Netherlands&city=Nijmegen	city_result.jsp?country=Netherlands&city=Nijmegen	https://www.numbeo.com/cost-of-living/country_result.jsp?country=Netherlands	country_result.jsp?country=Netherlands
129	3480	Malta	Sliema	Sliema	Sliema	https://www.numbeo.com/cost-of-living/city_result.jsp?country=Malta&city=Sliema	city_result.jsp?country=Malta&city=Sliema	https://www.numbeo.com/cost-of-living/country_result.jsp?country=Malta	country_result.jsp?country=Malta
103	2922	Italy	Rome	Rome	Rome	https://www.numbeo.com/cost-of-living/city_result.jsp?country=Italy&city=Rome	city_result.jsp?country=Italy&city=Rome	https://www.numbeo.com/cost-of-living/country_result.jsp?country=Italy	country_result.jsp?country=Italy
71	1806	France	Toulouse	Toulouse	Toulouse	https://www.numbeo.com/cost-of-living/city_result.jsp?country=France&city=Toulouse	city_result.jsp?country=France&city=Toulouse	https://www.numbeo.com/cost-of-living/country_result.jsp?country=France	country_result.jsp?country=France
222	7050	United States	Portland, OR	Portland%2C%20OR	Portland%2C%20OR	https://www.numbeo.com/cost-of-living/city_result.jsp?country=United%20States&city=Portland%2C%20OR	city_result.jsp?country=United%20States&city=Portland%2C%20OR	https://www.numbeo.com/cost-of-living/country_result.jsp?country=United%20States	country_result.jsp?country=United%20States
15	316	Austria	Salzburg	Salzburg	Salzburg	https://www.numbeo.com/cost-of-living/city_result.jsp?country=Austria&city=Salzburg	city_result.jsp?country=Austria&city=Salzburg	https://www.numbeo.com/cost-of-living/country_result.jsp?country=Austria	country_result.jsp?country=Austria
222	7154	United States	San Jose, CA	San%20Jose%2C%20CA	San%20Jose%2C%20CA	https://www.numbeo.com/cost-of-living/city_result.jsp?country=United%20States&city=San%20Jose%2C%20CA	city_result.jsp?country=United%20States&city=San%20Jose%2C%20CA	https://www.numbeo.com/cost-of-living/country_result.jsp?country=United%20States	country_result.jsp?country=United%20States
14	223	Australia	Hobart	Hobart	Hobart	https://www.numbeo.com/cost-of-living/city_result.jsp?country=Australia&city=Hobart	city_result.jsp?country=Australia&city=Hobart	https://www.numbeo.com/cost-of-living/country_result.jsp?country=Australia	country_result.jsp?country=Australia
202	5280	Sweden	Malmo	Malmo	Malmo	https://www.numbeo.com/cost-of-living/city_result.jsp?country=Sweden&city=Malmo	city_result.jsp?country=Sweden&city=Malmo	https://www.numbeo.com/cost-of-living/country_result.jsp?country=Sweden	country_result.jsp?country=Sweden
149	3885	New Zealand	Wellington	Wellington	Wellington	https://www.numbeo.com/cost-of-living/city_result.jsp?country=New%20Zealand&city=Wellington	city_result.jsp?country=New%20Zealand&city=Wellington	https://www.numbeo.com/cost-of-living/country_result.jsp?country=New%20Zealand	country_result.jsp?country=New%20Zealand
147	3819	Netherlands	Rotterdam	Rotterdam	Rotterdam	https://www.numbeo.com/cost-of-living/city_result.jsp?country=Netherlands&city=Rotterdam	city_result.jsp?country=Netherlands&city=Rotterdam	https://www.numbeo.com/cost-of-living/country_result.jsp?country=Netherlands	country_result.jsp?country=Netherlands
222	6846	United States	Miami, FL	Miami%2C%20FL	Miami%2C%20FL	https://www.numbeo.com/cost-of-living/city_result.jsp?country=United%20States&city=Miami%2C%20FL	city_result.jsp?country=United%20States&city=Miami%2C%20FL	https://www.numbeo.com/cost-of-living/country_result.jsp?country=United%20States	country_result.jsp?country=United%20States
100	2677	Ireland	Limerick	Limerick	Limerick	https://www.numbeo.com/cost-of-living/city_result.jsp?country=Ireland&city=Limerick	city_result.jsp?country=Ireland&city=Limerick	https://www.numbeo.com/cost-of-living/country_result.jsp?country=Ireland	country_result.jsp?country=Ireland
70	1653	Finland	Espoo	Espoo	Espoo	https://www.numbeo.com/cost-of-living/city_result.jsp?country=Finland&city=Espoo	city_result.jsp?country=Finland&city=Espoo	https://www.numbeo.com/cost-of-living/country_result.jsp?country=Finland	country_result.jsp?country=Finland
70	1685	Finland	Tampere	Tampere	Tampere	https://www.numbeo.com/cost-of-living/city_result.jsp?country=Finland&city=Tampere	city_result.jsp?country=Finland&city=Tampere	https://www.numbeo.com/cost-of-living/country_result.jsp?country=Finland	country_result.jsp?country=Finland
22	456	Belgium	Gent	Gent	Gent	https://www.numbeo.com/cost-of-living/city_result.jsp?country=Belgium&city=Gent	city_result.jsp?country=Belgium&city=Gent	https://www.numbeo.com/cost-of-living/country_result.jsp?country=Belgium	country_result.jsp?country=Belgium
103	2899	Italy	Parma	Parma	Parma	https://www.numbeo.com/cost-of-living/city_result.jsp?country=Italy&city=Parma	city_result.jsp?country=Italy&city=Parma	https://www.numbeo.com/cost-of-living/country_result.jsp?country=Italy	country_result.jsp?country=Italy
103	2787	Italy	Bologna	Bologna	Bologna	https://www.numbeo.com/cost-of-living/city_result.jsp?country=Italy&city=Bologna	city_result.jsp?country=Italy&city=Bologna	https://www.numbeo.com/cost-of-living/country_result.jsp?country=Italy	country_result.jsp?country=Italy
39	921	Canada	Kingston	Kingston	Kingston	https://www.numbeo.com/cost-of-living/city_result.jsp?country=Canada&city=Kingston	city_result.jsp?country=Canada&city=Kingston	https://www.numbeo.com/cost-of-living/country_result.jsp?country=Canada	country_result.jsp?country=Canada
222	7127	United States	Sacramento, CA	Sacramento%2C%20CA	Sacramento%2C%20CA	https://www.numbeo.com/cost-of-living/city_result.jsp?country=United%20States&city=Sacramento%2C%20CA	city_result.jsp?country=United%20States&city=Sacramento%2C%20CA	https://www.numbeo.com/cost-of-living/country_result.jsp?country=United%20States	country_result.jsp?country=United%20States
39	1022	Canada	Surrey	Surrey	Surrey	https://www.numbeo.com/cost-of-living/city_result.jsp?country=Canada&city=Surrey	city_result.jsp?country=Canada&city=Surrey	https://www.numbeo.com/cost-of-living/country_result.jsp?country=Canada	country_result.jsp?country=Canada
39	859	Canada	Burnaby	Burnaby	Burnaby	https://www.numbeo.com/cost-of-living/city_result.jsp?country=Canada&city=Burnaby	city_result.jsp?country=Canada&city=Burnaby	https://www.numbeo.com/cost-of-living/country_result.jsp?country=Canada	country_result.jsp?country=Canada
221	5878	United Kingdom	Guildford	Guildford	Guildford	https://www.numbeo.com/cost-of-living/city_result.jsp?country=United%20Kingdom&city=Guildford	city_result.jsp?country=United%20Kingdom&city=Guildford	https://www.numbeo.com/cost-of-living/country_result.jsp?country=United%20Kingdom	country_result.jsp?country=United%20Kingdom
222	6169	United States	Bellingham, WA	Bellingham%2C%20WA	Bellingham%2C%20WA	https://www.numbeo.com/cost-of-living/city_result.jsp?country=United%20States&city=Bellingham%2C%20WA	city_result.jsp?country=United%20States&city=Bellingham%2C%20WA	https://www.numbeo.com/cost-of-living/country_result.jsp?country=United%20States	country_result.jsp?country=United%20States
71	1781	France	Nantes	Nantes	Nantes	https://www.numbeo.com/cost-of-living/city_result.jsp?country=France&city=Nantes	city_result.jsp?country=France&city=Nantes	https://www.numbeo.com/cost-of-living/country_result.jsp?country=France	country_result.jsp?country=France
39	1032	Canada	Vancouver	Vancouver	Vancouver	https://www.numbeo.com/cost-of-living/city_result.jsp?country=Canada&city=Vancouver	city_result.jsp?country=Canada&city=Vancouver	https://www.numbeo.com/cost-of-living/country_result.jsp?country=Canada	country_result.jsp?country=Canada
222	6125	United States	Atlanta, GA	Atlanta%2C%20GA	Atlanta%2C%20GA	https://www.numbeo.com/cost-of-living/city_result.jsp?country=United%20States&city=Atlanta%2C%20GA	city_result.jsp?country=United%20States&city=Atlanta%2C%20GA	https://www.numbeo.com/cost-of-living/country_result.jsp?country=United%20States	country_result.jsp?country=United%20States
222	6190	United States	Birmingham, AL	Birmingham%2C%20AL	Birmingham%2C%20AL	https://www.numbeo.com/cost-of-living/city_result.jsp?country=United%20States&city=Birmingham%2C%20AL	city_result.jsp?country=United%20States&city=Birmingham%2C%20AL	https://www.numbeo.com/cost-of-living/country_result.jsp?country=United%20States	country_result.jsp?country=United%20States
39	907	Canada	Halifax	Halifax	Halifax	https://www.numbeo.com/cost-of-living/city_result.jsp?country=Canada&city=Halifax	city_result.jsp?country=Canada&city=Halifax	https://www.numbeo.com/cost-of-living/country_result.jsp?country=Canada	country_result.jsp?country=Canada
39	993	Canada	Saint John's	Saint%20John%27s	Saint%20John%27s	https://www.numbeo.com/cost-of-living/city_result.jsp?country=Canada&city=Saint%20John%27s	city_result.jsp?country=Canada&city=Saint%20John%27s	https://www.numbeo.com/cost-of-living/country_result.jsp?country=Canada	country_result.jsp?country=Canada
221	5859	United Kingdom	Edinburgh	Edinburgh	Edinburgh	https://www.numbeo.com/cost-of-living/city_result.jsp?country=United%20Kingdom&city=Edinburgh	city_result.jsp?country=United%20Kingdom&city=Edinburgh	https://www.numbeo.com/cost-of-living/country_result.jsp?country=United%20Kingdom	country_result.jsp?country=United%20Kingdom
222	6458	United States	Everett, WA	Everett%2C%20WA	Everett%2C%20WA	https://www.numbeo.com/cost-of-living/city_result.jsp?country=United%20States&city=Everett%2C%20WA	city_result.jsp?country=United%20States&city=Everett%2C%20WA	https://www.numbeo.com/cost-of-living/country_result.jsp?country=United%20States	country_result.jsp?country=United%20States
103	2841	Italy	Florence	Florence	Florence	https://www.numbeo.com/cost-of-living/city_result.jsp?country=Italy&city=Florence	city_result.jsp?country=Italy&city=Florence	https://www.numbeo.com/cost-of-living/country_result.jsp?country=Italy	country_result.jsp?country=Italy
39	896	Canada	Fredericton	Fredericton	Fredericton	https://www.numbeo.com/cost-of-living/city_result.jsp?country=Canada&city=Fredericton	city_result.jsp?country=Canada&city=Fredericton	https://www.numbeo.com/cost-of-living/country_result.jsp?country=Canada	country_result.jsp?country=Canada
221	5958	United Kingdom	Reading	Reading	Reading	https://www.numbeo.com/cost-of-living/city_result.jsp?country=United%20Kingdom&city=Reading	city_result.jsp?country=United%20Kingdom&city=Reading	https://www.numbeo.com/cost-of-living/country_result.jsp?country=United%20Kingdom	country_result.jsp?country=United%20Kingdom
39	1028	Canada	Toronto	Toronto	Toronto	https://www.numbeo.com/cost-of-living/city_result.jsp?country=Canada&city=Toronto	city_result.jsp?country=Canada&city=Toronto	https://www.numbeo.com/cost-of-living/country_result.jsp?country=Canada	country_result.jsp?country=Canada
222	6318	United States	Cleveland, OH	Cleveland%2C%20OH	Cleveland%2C%20OH	https://www.numbeo.com/cost-of-living/city_result.jsp?country=United%20States&city=Cleveland%2C%20OH	city_result.jsp?country=United%20States&city=Cleveland%2C%20OH	https://www.numbeo.com/cost-of-living/country_result.jsp?country=United%20States	country_result.jsp?country=United%20States
78	1894	Germany	Frankfurt	Frankfurt	Frankfurt	https://www.numbeo.com/cost-of-living/city_result.jsp?country=Germany&city=Frankfurt	city_result.jsp?country=Germany&city=Frankfurt	https://www.numbeo.com/cost-of-living/country_result.jsp?country=Germany	country_result.jsp?country=Germany
71	1765	France	Lille	Lille	Lille	https://www.numbeo.com/cost-of-living/city_result.jsp?country=France&city=Lille	city_result.jsp?country=France&city=Lille	https://www.numbeo.com/cost-of-living/country_result.jsp?country=France	country_result.jsp?country=France
221	6043	United Kingdom	York	York	York	https://www.numbeo.com/cost-of-living/city_result.jsp?country=United%20Kingdom&city=York	city_result.jsp?country=United%20Kingdom&city=York	https://www.numbeo.com/cost-of-living/country_result.jsp?country=United%20Kingdom	country_result.jsp?country=United%20Kingdom
221	5822	United Kingdom	Cambridge	Cambridge	Cambridge	https://www.numbeo.com/cost-of-living/city_result.jsp?country=United%20Kingdom&city=Cambridge	city_result.jsp?country=United%20Kingdom&city=Cambridge	https://www.numbeo.com/cost-of-living/country_result.jsp?country=United%20Kingdom	country_result.jsp?country=United%20Kingdom
222	6918	United States	New Orleans, LA	New%20Orleans%2C%20LA	New%20Orleans%2C%20LA	https://www.numbeo.com/cost-of-living/city_result.jsp?country=United%20States&city=New%20Orleans%2C%20LA	city_result.jsp?country=United%20States&city=New%20Orleans%2C%20LA	https://www.numbeo.com/cost-of-living/country_result.jsp?country=United%20States	country_result.jsp?country=United%20States
78	1911	Germany	Heidelberg	Heidelberg	Heidelberg	https://www.numbeo.com/cost-of-living/city_result.jsp?country=Germany&city=Heidelberg	city_result.jsp?country=Germany&city=Heidelberg	https://www.numbeo.com/cost-of-living/country_result.jsp?country=Germany	country_result.jsp?country=Germany
221	5813	United Kingdom	Bristol	Bristol	Bristol	https://www.numbeo.com/cost-of-living/city_result.jsp?country=United%20Kingdom&city=Bristol	city_result.jsp?country=United%20Kingdom&city=Bristol	https://www.numbeo.com/cost-of-living/country_result.jsp?country=United%20Kingdom	country_result.jsp?country=United%20Kingdom
147	3785	Netherlands	Delft	Delft	Delft	https://www.numbeo.com/cost-of-living/city_result.jsp?country=Netherlands&city=Delft	city_result.jsp?country=Netherlands&city=Delft	https://www.numbeo.com/cost-of-living/country_result.jsp?country=Netherlands	country_result.jsp?country=Netherlands
103	2951	Italy	Trieste	Trieste	Trieste	https://www.numbeo.com/cost-of-living/city_result.jsp?country=Italy&city=Trieste	city_result.jsp?country=Italy&city=Trieste	https://www.numbeo.com/cost-of-living/country_result.jsp?country=Italy	country_result.jsp?country=Italy
147	3794	Netherlands	Enschede	Enschede	Enschede	https://www.numbeo.com/cost-of-living/city_result.jsp?country=Netherlands&city=Enschede	city_result.jsp?country=Netherlands&city=Enschede	https://www.numbeo.com/cost-of-living/country_result.jsp?country=Netherlands	country_result.jsp?country=Netherlands
71	1769	France	Marseille	Marseille	Marseille	https://www.numbeo.com/cost-of-living/city_result.jsp?country=France&city=Marseille	city_result.jsp?country=France&city=Marseille	https://www.numbeo.com/cost-of-living/country_result.jsp?country=France	country_result.jsp?country=France
221	5930	United Kingdom	Milton Keynes	Milton%20Keynes	Milton%20Keynes	https://www.numbeo.com/cost-of-living/city_result.jsp?country=United%20Kingdom&city=Milton%20Keynes	city_result.jsp?country=United%20Kingdom&city=Milton%20Keynes	https://www.numbeo.com/cost-of-living/country_result.jsp?country=United%20Kingdom	country_result.jsp?country=United%20Kingdom
221	5768	United Kingdom	Aberdeen	Aberdeen	Aberdeen	https://www.numbeo.com/cost-of-living/city_result.jsp?country=United%20Kingdom&city=Aberdeen	city_result.jsp?country=United%20Kingdom&city=Aberdeen	https://www.numbeo.com/cost-of-living/country_result.jsp?country=United%20Kingdom	country_result.jsp?country=United%20Kingdom
78	1871	Germany	Bonn	Bonn	Bonn	https://www.numbeo.com/cost-of-living/city_result.jsp?country=Germany&city=Bonn	city_result.jsp?country=Germany&city=Bonn	https://www.numbeo.com/cost-of-living/country_result.jsp?country=Germany	country_result.jsp?country=Germany
78	1909	Germany	Hamburg	Hamburg	Hamburg	https://www.numbeo.com/cost-of-living/city_result.jsp?country=Germany&city=Hamburg	city_result.jsp?country=Germany&city=Hamburg	https://www.numbeo.com/cost-of-living/country_result.jsp?country=Germany	country_result.jsp?country=Germany
78	1857	Germany	Augsburg	Augsburg	Augsburg	https://www.numbeo.com/cost-of-living/city_result.jsp?country=Germany&city=Augsburg	city_result.jsp?country=Germany&city=Augsburg	https://www.numbeo.com/cost-of-living/country_result.jsp?country=Germany	country_result.jsp?country=Germany
221	5997	United Kingdom	Swansea	Swansea	Swansea	https://www.numbeo.com/cost-of-living/city_result.jsp?country=United%20Kingdom&city=Swansea	city_result.jsp?country=United%20Kingdom&city=Swansea	https://www.numbeo.com/cost-of-living/country_result.jsp?country=United%20Kingdom	country_result.jsp?country=United%20Kingdom
222	6096	United States	Ann Arbor, MI	Ann%20Arbor%2C%20MI	Ann%20Arbor%2C%20MI	https://www.numbeo.com/cost-of-living/city_result.jsp?country=United%20States&city=Ann%20Arbor%2C%20MI	city_result.jsp?country=United%20States&city=Ann%20Arbor%2C%20MI	https://www.numbeo.com/cost-of-living/country_result.jsp?country=United%20States	country_result.jsp?country=United%20States
103	2961	Italy	Verona	Verona	Verona	https://www.numbeo.com/cost-of-living/city_result.jsp?country=Italy&city=Verona	city_result.jsp?country=Italy&city=Verona	https://www.numbeo.com/cost-of-living/country_result.jsp?country=Italy	country_result.jsp?country=Italy
222	6394	United States	Denver, CO	Denver%2C%20CO	Denver%2C%20CO	https://www.numbeo.com/cost-of-living/city_result.jsp?country=United%20States&city=Denver%2C%20CO	city_result.jsp?country=United%20States&city=Denver%2C%20CO	https://www.numbeo.com/cost-of-living/country_result.jsp?country=United%20States	country_result.jsp?country=United%20States
222	6331	United States	Colorado Springs, CO	Colorado%20Springs%2C%20CO	Colorado%20Springs%2C%20CO	https://www.numbeo.com/cost-of-living/city_result.jsp?country=United%20States&city=Colorado%20Springs%2C%20CO	city_result.jsp?country=United%20States&city=Colorado%20Springs%2C%20CO	https://www.numbeo.com/cost-of-living/country_result.jsp?country=United%20States	country_result.jsp?country=United%20States
78	1940	Germany	Mannheim	Mannheim	Mannheim	https://www.numbeo.com/cost-of-living/city_result.jsp?country=Germany&city=Mannheim	city_result.jsp?country=Germany&city=Mannheim	https://www.numbeo.com/cost-of-living/country_result.jsp?country=Germany	country_result.jsp?country=Germany
39	981	Canada	Red Deer	Red%20Deer	Red%20Deer	https://www.numbeo.com/cost-of-living/city_result.jsp?country=Canada&city=Red%20Deer	city_result.jsp?country=Canada&city=Red%20Deer	https://www.numbeo.com/cost-of-living/country_result.jsp?country=Canada	country_result.jsp?country=Canada
39	860	Canada	Calgary	Calgary	Calgary	https://www.numbeo.com/cost-of-living/city_result.jsp?country=Canada&city=Calgary	city_result.jsp?country=Canada&city=Calgary	https://www.numbeo.com/cost-of-living/country_result.jsp?country=Canada	country_result.jsp?country=Canada
222	7237	United States	Spokane, WA	Spokane%2C%20WA	Spokane%2C%20WA	https://www.numbeo.com/cost-of-living/city_result.jsp?country=United%20States&city=Spokane%2C%20WA	city_result.jsp?country=United%20States&city=Spokane%2C%20WA	https://www.numbeo.com/cost-of-living/country_result.jsp?country=United%20States	country_result.jsp?country=United%20States
222	6772	United States	Long Beach, CA	Long%20Beach%2C%20CA	Long%20Beach%2C%20CA	https://www.numbeo.com/cost-of-living/city_result.jsp?country=United%20States&city=Long%20Beach%2C%20CA	city_result.jsp?country=United%20States&city=Long%20Beach%2C%20CA	https://www.numbeo.com/cost-of-living/country_result.jsp?country=United%20States	country_result.jsp?country=United%20States
103	2953	Italy	Turin	Turin	Turin	https://www.numbeo.com/cost-of-living/city_result.jsp?country=Italy&city=Turin	city_result.jsp?country=Italy&city=Turin	https://www.numbeo.com/cost-of-living/country_result.jsp?country=Italy	country_result.jsp?country=Italy
221	5998	United Kingdom	Swindon	Swindon	Swindon	https://www.numbeo.com/cost-of-living/city_result.jsp?country=United%20Kingdom&city=Swindon	city_result.jsp?country=United%20Kingdom&city=Swindon	https://www.numbeo.com/cost-of-living/country_result.jsp?country=United%20Kingdom	country_result.jsp?country=United%20Kingdom
221	5946	United Kingdom	Oxford	Oxford	Oxford	https://www.numbeo.com/cost-of-living/city_result.jsp?country=United%20Kingdom&city=Oxford	city_result.jsp?country=United%20Kingdom&city=Oxford	https://www.numbeo.com/cost-of-living/country_result.jsp?country=United%20Kingdom	country_result.jsp?country=United%20Kingdom
222	6144	United States	Baltimore, MD	Baltimore%2C%20MD	Baltimore%2C%20MD	https://www.numbeo.com/cost-of-living/city_result.jsp?country=United%20States&city=Baltimore%2C%20MD	city_result.jsp?country=United%20States&city=Baltimore%2C%20MD	https://www.numbeo.com/cost-of-living/country_result.jsp?country=United%20States	country_result.jsp?country=United%20States
222	6340	United States	Columbus, OH	Columbus%2C%20OH	Columbus%2C%20OH	https://www.numbeo.com/cost-of-living/city_result.jsp?country=United%20States&city=Columbus%2C%20OH	city_result.jsp?country=United%20States&city=Columbus%2C%20OH	https://www.numbeo.com/cost-of-living/country_result.jsp?country=United%20States	country_result.jsp?country=United%20States
221	5954	United Kingdom	Portsmouth	Portsmouth	Portsmouth	https://www.numbeo.com/cost-of-living/city_result.jsp?country=United%20Kingdom&city=Portsmouth	city_result.jsp?country=United%20Kingdom&city=Portsmouth	https://www.numbeo.com/cost-of-living/country_result.jsp?country=United%20Kingdom	country_result.jsp?country=United%20Kingdom
78	1891	Germany	Erlangen	Erlangen	Erlangen	https://www.numbeo.com/cost-of-living/city_result.jsp?country=Germany&city=Erlangen	city_result.jsp?country=Germany&city=Erlangen	https://www.numbeo.com/cost-of-living/country_result.jsp?country=Germany	country_result.jsp?country=Germany
222	6245	United States	Buffalo, NY	Buffalo%2C%20NY	Buffalo%2C%20NY	https://www.numbeo.com/cost-of-living/city_result.jsp?country=United%20States&city=Buffalo%2C%20NY	city_result.jsp?country=United%20States&city=Buffalo%2C%20NY	https://www.numbeo.com/cost-of-living/country_result.jsp?country=United%20States	country_result.jsp?country=United%20States
78	1952	Germany	Nuremberg	Nuremberg	Nuremberg	https://www.numbeo.com/cost-of-living/city_result.jsp?country=Germany&city=Nuremberg	city_result.jsp?country=Germany&city=Nuremberg	https://www.numbeo.com/cost-of-living/country_result.jsp?country=Germany	country_result.jsp?country=Germany
39	885	Canada	Edmonton	Edmonton	Edmonton	https://www.numbeo.com/cost-of-living/city_result.jsp?country=Canada&city=Edmonton	city_result.jsp?country=Canada&city=Edmonton	https://www.numbeo.com/cost-of-living/country_result.jsp?country=Canada	country_result.jsp?country=Canada
78	1879	Germany	Cologne	Cologne	Cologne	https://www.numbeo.com/cost-of-living/city_result.jsp?country=Germany&city=Cologne	city_result.jsp?country=Germany&city=Cologne	https://www.numbeo.com/cost-of-living/country_result.jsp?country=Germany	country_result.jsp?country=Germany
222	6295	United States	Charlotte, NC	Charlotte%2C%20NC	Charlotte%2C%20NC	https://www.numbeo.com/cost-of-living/city_result.jsp?country=United%20States&city=Charlotte%2C%20NC	city_result.jsp?country=United%20States&city=Charlotte%2C%20NC	https://www.numbeo.com/cost-of-living/country_result.jsp?country=United%20States	country_result.jsp?country=United%20States
39	1036	Canada	Victoria	Victoria	Victoria	https://www.numbeo.com/cost-of-living/city_result.jsp?country=Canada&city=Victoria	city_result.jsp?country=Canada&city=Victoria	https://www.numbeo.com/cost-of-living/country_result.jsp?country=Canada	country_result.jsp?country=Canada
147	3822	Netherlands	The Hague (Den Haag)	The%20Hague%20%28Den%20Haag%29	The%20Hague%20%28Den%20Haag%29	https://www.numbeo.com/cost-of-living/city_result.jsp?country=Netherlands&city=The%20Hague%20%28Den%20Haag%29	city_result.jsp?country=Netherlands&city=The%20Hague%20%28Den%20Haag%29	https://www.numbeo.com/cost-of-living/country_result.jsp?country=Netherlands	country_result.jsp?country=Netherlands
78	1868	Germany	Berlin	Berlin	Berlin	https://www.numbeo.com/cost-of-living/city_result.jsp?country=Germany&city=Berlin	city_result.jsp?country=Germany&city=Berlin	https://www.numbeo.com/cost-of-living/country_result.jsp?country=Germany	country_result.jsp?country=Germany
221	5924	United Kingdom	Manchester	Manchester	Manchester	https://www.numbeo.com/cost-of-living/city_result.jsp?country=United%20Kingdom&city=Manchester	city_result.jsp?country=United%20Kingdom&city=Manchester	https://www.numbeo.com/cost-of-living/country_result.jsp?country=United%20Kingdom	country_result.jsp?country=United%20Kingdom
222	6060	United States	Albany, NY	Albany%2C%20NY	Albany%2C%20NY	https://www.numbeo.com/cost-of-living/city_result.jsp?country=United%20States&city=Albany%2C%20NY	city_result.jsp?country=United%20States&city=Albany%2C%20NY	https://www.numbeo.com/cost-of-living/country_result.jsp?country=United%20States	country_result.jsp?country=United%20States
78	1977	Germany	Stuttgart	Stuttgart	Stuttgart	https://www.numbeo.com/cost-of-living/city_result.jsp?country=Germany&city=Stuttgart	city_result.jsp?country=Germany&city=Stuttgart	https://www.numbeo.com/cost-of-living/country_result.jsp?country=Germany	country_result.jsp?country=Germany
221	5911	United Kingdom	Lincoln	Lincoln	Lincoln	https://www.numbeo.com/cost-of-living/city_result.jsp?country=United%20Kingdom&city=Lincoln	city_result.jsp?country=United%20Kingdom&city=Lincoln	https://www.numbeo.com/cost-of-living/country_result.jsp?country=United%20Kingdom	country_result.jsp?country=United%20Kingdom
78	1889	Germany	Dusseldorf	Dusseldorf	Dusseldorf	https://www.numbeo.com/cost-of-living/city_result.jsp?country=Germany&city=Dusseldorf	city_result.jsp?country=Germany&city=Dusseldorf	https://www.numbeo.com/cost-of-living/country_result.jsp?country=Germany	country_result.jsp?country=Germany
221	5941	United Kingdom	Nottingham	Nottingham	Nottingham	https://www.numbeo.com/cost-of-living/city_result.jsp?country=United%20Kingdom&city=Nottingham	city_result.jsp?country=United%20Kingdom&city=Nottingham	https://www.numbeo.com/cost-of-living/country_result.jsp?country=United%20Kingdom	country_result.jsp?country=United%20Kingdom
222	6967	United States	Olympia, WA	Olympia%2C%20WA	Olympia%2C%20WA	https://www.numbeo.com/cost-of-living/city_result.jsp?country=United%20States&city=Olympia%2C%20WA	city_result.jsp?country=United%20States&city=Olympia%2C%20WA	https://www.numbeo.com/cost-of-living/country_result.jsp?country=United%20States	country_result.jsp?country=United%20States
39	941	Canada	Mississauga	Mississauga	Mississauga	https://www.numbeo.com/cost-of-living/city_result.jsp?country=Canada&city=Mississauga	city_result.jsp?country=Canada&city=Mississauga	https://www.numbeo.com/cost-of-living/country_result.jsp?country=Canada	country_result.jsp?country=Canada
222	6904	United States	Nashville, TN	Nashville%2C%20TN	Nashville%2C%20TN	https://www.numbeo.com/cost-of-living/city_result.jsp?country=United%20States&city=Nashville%2C%20TN	city_result.jsp?country=United%20States&city=Nashville%2C%20TN	https://www.numbeo.com/cost-of-living/country_result.jsp?country=United%20States	country_result.jsp?country=United%20States
39	961	Canada	Ottawa	Ottawa	Ottawa	https://www.numbeo.com/cost-of-living/city_result.jsp?country=Canada&city=Ottawa	city_result.jsp?country=Canada&city=Ottawa	https://www.numbeo.com/cost-of-living/country_result.jsp?country=Canada	country_result.jsp?country=Canada
222	7104	United States	Rochester, NY	Rochester%2C%20NY	Rochester%2C%20NY	https://www.numbeo.com/cost-of-living/city_result.jsp?country=United%20States&city=Rochester%2C%20NY	city_result.jsp?country=United%20States&city=Rochester%2C%20NY	https://www.numbeo.com/cost-of-living/country_result.jsp?country=United%20States	country_result.jsp?country=United%20States
221	5949	United Kingdom	Plymouth	Plymouth	Plymouth	https://www.numbeo.com/cost-of-living/city_result.jsp?country=United%20Kingdom&city=Plymouth	city_result.jsp?country=United%20Kingdom&city=Plymouth	https://www.numbeo.com/cost-of-living/country_result.jsp?country=United%20Kingdom	country_result.jsp?country=United%20Kingdom
221	5980	United Kingdom	Southampton	Southampton	Southampton	https://www.numbeo.com/cost-of-living/city_result.jsp?country=United%20Kingdom&city=Southampton	city_result.jsp?country=United%20Kingdom&city=Southampton	https://www.numbeo.com/cost-of-living/country_result.jsp?country=United%20Kingdom	country_result.jsp?country=United%20Kingdom
221	5839	United Kingdom	Coventry	Coventry	Coventry	https://www.numbeo.com/cost-of-living/city_result.jsp?country=United%20Kingdom&city=Coventry	city_result.jsp?country=United%20Kingdom&city=Coventry	https://www.numbeo.com/cost-of-living/country_result.jsp?country=United%20Kingdom	country_result.jsp?country=United%20Kingdom
39	982	Canada	Regina	Regina	Regina	https://www.numbeo.com/cost-of-living/city_result.jsp?country=Canada&city=Regina	city_result.jsp?country=Canada&city=Regina	https://www.numbeo.com/cost-of-living/country_result.jsp?country=Canada	country_result.jsp?country=Canada
222	6865	United States	Mobile, AL	Mobile%2C%20AL	Mobile%2C%20AL	https://www.numbeo.com/cost-of-living/city_result.jsp?country=United%20States&city=Mobile%2C%20AL	city_result.jsp?country=United%20States&city=Mobile%2C%20AL	https://www.numbeo.com/cost-of-living/country_result.jsp?country=United%20States	country_result.jsp?country=United%20States
169	4472	Puerto Rico	San Juan	San%20Juan	San%20Juan	https://www.numbeo.com/cost-of-living/city_result.jsp?country=Puerto%20Rico&city=San%20Juan	city_result.jsp?country=Puerto%20Rico&city=San%20Juan	https://www.numbeo.com/cost-of-living/country_result.jsp?country=Puerto%20Rico	country_result.jsp?country=Puerto%20Rico
39	1001	Canada	Saskatoon	Saskatoon	Saskatoon	https://www.numbeo.com/cost-of-living/city_result.jsp?country=Canada&city=Saskatoon	city_result.jsp?country=Canada&city=Saskatoon	https://www.numbeo.com/cost-of-living/country_result.jsp?country=Canada	country_result.jsp?country=Canada
221	5848	United Kingdom	Derby	Derby	Derby	https://www.numbeo.com/cost-of-living/city_result.jsp?country=United%20Kingdom&city=Derby	city_result.jsp?country=United%20Kingdom&city=Derby	https://www.numbeo.com/cost-of-living/country_result.jsp?country=United%20Kingdom	country_result.jsp?country=United%20Kingdom
78	1886	Germany	Dortmund	Dortmund	Dortmund	https://www.numbeo.com/cost-of-living/city_result.jsp?country=Germany&city=Dortmund	city_result.jsp?country=Germany&city=Dortmund	https://www.numbeo.com/cost-of-living/country_result.jsp?country=Germany	country_result.jsp?country=Germany
39	1048	Canada	Winnipeg	Winnipeg	Winnipeg	https://www.numbeo.com/cost-of-living/city_result.jsp?country=Canada&city=Winnipeg	city_result.jsp?country=Canada&city=Winnipeg	https://www.numbeo.com/cost-of-living/country_result.jsp?country=Canada	country_result.jsp?country=Canada
222	7099	United States	Riverside, CA	Riverside%2C%20CA	Riverside%2C%20CA	https://www.numbeo.com/cost-of-living/city_result.jsp?country=United%20States&city=Riverside%2C%20CA	city_result.jsp?country=United%20States&city=Riverside%2C%20CA	https://www.numbeo.com/cost-of-living/country_result.jsp?country=United%20States	country_result.jsp?country=United%20States
221	5862	United Kingdom	Exeter	Exeter	Exeter	https://www.numbeo.com/cost-of-living/city_result.jsp?country=United%20Kingdom&city=Exeter	city_result.jsp?country=United%20Kingdom&city=Exeter	https://www.numbeo.com/cost-of-living/country_result.jsp?country=United%20Kingdom	country_result.jsp?country=United%20Kingdom
123	3357	Macao	Macao	Macao	Macao	https://www.numbeo.com/cost-of-living/city_result.jsp?country=Macao&city=Macao	city_result.jsp?country=Macao&city=Macao	https://www.numbeo.com/cost-of-living/country_result.jsp?country=Macao	country_result.jsp?country=Macao
15	320	Austria	Vienna	Vienna	Vienna	https://www.numbeo.com/cost-of-living/city_result.jsp?country=Austria&city=Vienna	city_result.jsp?country=Austria&city=Vienna	https://www.numbeo.com/cost-of-living/country_result.jsp?country=Austria	country_result.jsp?country=Austria
222	7072	United States	Raleigh, NC	Raleigh%2C%20NC	Raleigh%2C%20NC	https://www.numbeo.com/cost-of-living/city_result.jsp?country=United%20States&city=Raleigh%2C%20NC	city_result.jsp?country=United%20States&city=Raleigh%2C%20NC	https://www.numbeo.com/cost-of-living/country_result.jsp?country=United%20States	country_result.jsp?country=United%20States
222	6968	United States	Omaha, NE	Omaha%2C%20NE	Omaha%2C%20NE	https://www.numbeo.com/cost-of-living/city_result.jsp?country=United%20States&city=Omaha%2C%20NE	city_result.jsp?country=United%20States&city=Omaha%2C%20NE	https://www.numbeo.com/cost-of-living/country_result.jsp?country=United%20States	country_result.jsp?country=United%20States
39	905	Canada	Guelph	Guelph	Guelph	https://www.numbeo.com/cost-of-living/city_result.jsp?country=Canada&city=Guelph	city_result.jsp?country=Canada&city=Guelph	https://www.numbeo.com/cost-of-living/country_result.jsp?country=Canada	country_result.jsp?country=Canada
221	5797	United Kingdom	Birmingham	Birmingham	Birmingham	https://www.numbeo.com/cost-of-living/city_result.jsp?country=United%20Kingdom&city=Birmingham	city_result.jsp?country=United%20Kingdom&city=Birmingham	https://www.numbeo.com/cost-of-living/country_result.jsp?country=United%20Kingdom	country_result.jsp?country=United%20Kingdom
39	948	Canada	Nanaimo, BC	Nanaimo%2C%20BC	Nanaimo%2C%20BC	https://www.numbeo.com/cost-of-living/city_result.jsp?country=Canada&city=Nanaimo%2C%20BC	city_result.jsp?country=Canada&city=Nanaimo%2C%20BC	https://www.numbeo.com/cost-of-living/country_result.jsp?country=Canada	country_result.jsp?country=Canada
39	853	Canada	Brampton	Brampton	Brampton	https://www.numbeo.com/cost-of-living/city_result.jsp?country=Canada&city=Brampton	city_result.jsp?country=Canada&city=Brampton	https://www.numbeo.com/cost-of-living/country_result.jsp?country=Canada	country_result.jsp?country=Canada
78	1896	Germany	Freiburg im Breisgau	Freiburg%20im%20Breisgau	Freiburg%20im%20Breisgau	https://www.numbeo.com/cost-of-living/city_result.jsp?country=Germany&city=Freiburg%20im%20Breisgau	city_result.jsp?country=Germany&city=Freiburg%20im%20Breisgau	https://www.numbeo.com/cost-of-living/country_result.jsp?country=Germany	country_result.jsp?country=Germany
221	5940	United Kingdom	Norwich	Norwich	Norwich	https://www.numbeo.com/cost-of-living/city_result.jsp?country=United%20Kingdom&city=Norwich	city_result.jsp?country=United%20Kingdom&city=Norwich	https://www.numbeo.com/cost-of-living/country_result.jsp?country=United%20Kingdom	country_result.jsp?country=United%20Kingdom
221	5853	United Kingdom	Dundee	Dundee	Dundee	https://www.numbeo.com/cost-of-living/city_result.jsp?country=United%20Kingdom&city=Dundee	city_result.jsp?country=United%20Kingdom&city=Dundee	https://www.numbeo.com/cost-of-living/country_result.jsp?country=United%20Kingdom	country_result.jsp?country=United%20Kingdom
39	875	Canada	Coquitlam	Coquitlam	Coquitlam	https://www.numbeo.com/cost-of-living/city_result.jsp?country=Canada&city=Coquitlam	city_result.jsp?country=Canada&city=Coquitlam	https://www.numbeo.com/cost-of-living/country_result.jsp?country=Canada	country_result.jsp?country=Canada
222	7345	United States	Vancouver, WA	Vancouver%2C%20WA	Vancouver%2C%20WA	https://www.numbeo.com/cost-of-living/city_result.jsp?country=United%20States&city=Vancouver%2C%20WA	city_result.jsp?country=United%20States&city=Vancouver%2C%20WA	https://www.numbeo.com/cost-of-living/country_result.jsp?country=United%20States	country_result.jsp?country=United%20States
54	1356	Cyprus	Limassol	Limassol	Limassol	https://www.numbeo.com/cost-of-living/city_result.jsp?country=Cyprus&city=Limassol	city_result.jsp?country=Cyprus&city=Limassol	https://www.numbeo.com/cost-of-living/country_result.jsp?country=Cyprus	country_result.jsp?country=Cyprus
39	955	Canada	North Vancouver	North%20Vancouver	North%20Vancouver	https://www.numbeo.com/cost-of-living/city_result.jsp?country=Canada&city=North%20Vancouver	city_result.jsp?country=Canada&city=North%20Vancouver	https://www.numbeo.com/cost-of-living/country_result.jsp?country=Canada	country_result.jsp?country=Canada
221	5913	United Kingdom	Liverpool	Liverpool	Liverpool	https://www.numbeo.com/cost-of-living/city_result.jsp?country=United%20Kingdom&city=Liverpool	city_result.jsp?country=United%20Kingdom&city=Liverpool	https://www.numbeo.com/cost-of-living/country_result.jsp?country=United%20Kingdom	country_result.jsp?country=United%20Kingdom
103	2896	Italy	Padova	Padova	Padova	https://www.numbeo.com/cost-of-living/city_result.jsp?country=Italy&city=Padova	city_result.jsp?country=Italy&city=Padova	https://www.numbeo.com/cost-of-living/country_result.jsp?country=Italy	country_result.jsp?country=Italy
222	6399	United States	Detroit, MI	Detroit%2C%20MI	Detroit%2C%20MI	https://www.numbeo.com/cost-of-living/city_result.jsp?country=United%20States&city=Detroit%2C%20MI	city_result.jsp?country=United%20States&city=Detroit%2C%20MI	https://www.numbeo.com/cost-of-living/country_result.jsp?country=United%20States	country_result.jsp?country=United%20States
221	5824	United Kingdom	Cardiff	Cardiff	Cardiff	https://www.numbeo.com/cost-of-living/city_result.jsp?country=United%20Kingdom&city=Cardiff	city_result.jsp?country=United%20Kingdom&city=Cardiff	https://www.numbeo.com/cost-of-living/country_result.jsp?country=United%20Kingdom	country_result.jsp?country=United%20Kingdom
222	6658	United States	Jacksonville, FL	Jacksonville%2C%20FL	Jacksonville%2C%20FL	https://www.numbeo.com/cost-of-living/city_result.jsp?country=United%20States&city=Jacksonville%2C%20FL	city_result.jsp?country=United%20States&city=Jacksonville%2C%20FL	https://www.numbeo.com/cost-of-living/country_result.jsp?country=United%20States	country_result.jsp?country=United%20States
222	6972	United States	Orlando, FL	Orlando%2C%20FL	Orlando%2C%20FL	https://www.numbeo.com/cost-of-living/city_result.jsp?country=United%20States&city=Orlando%2C%20FL	city_result.jsp?country=United%20States&city=Orlando%2C%20FL	https://www.numbeo.com/cost-of-living/country_result.jsp?country=United%20States	country_result.jsp?country=United%20States
78	1887	Germany	Dresden	Dresden	Dresden	https://www.numbeo.com/cost-of-living/city_result.jsp?country=Germany&city=Dresden	city_result.jsp?country=Germany&city=Dresden	https://www.numbeo.com/cost-of-living/country_result.jsp?country=Germany	country_result.jsp?country=Germany
221	5868	United Kingdom	Glasgow	Glasgow	Glasgow	https://www.numbeo.com/cost-of-living/city_result.jsp?country=United%20Kingdom&city=Glasgow	city_result.jsp?country=United%20Kingdom&city=Glasgow	https://www.numbeo.com/cost-of-living/country_result.jsp?country=United%20Kingdom	country_result.jsp?country=United%20Kingdom
222	6733	United States	Las Vegas, NV	Las%20Vegas%2C%20NV	Las%20Vegas%2C%20NV	https://www.numbeo.com/cost-of-living/city_result.jsp?country=United%20States&city=Las%20Vegas%2C%20NV	city_result.jsp?country=United%20States&city=Las%20Vegas%2C%20NV	https://www.numbeo.com/cost-of-living/country_result.jsp?country=United%20States	country_result.jsp?country=United%20States
222	6678	United States	Kansas City, MO	Kansas%20City%2C%20MO	Kansas%20City%2C%20MO	https://www.numbeo.com/cost-of-living/city_result.jsp?country=United%20States&city=Kansas%20City%2C%20MO	city_result.jsp?country=United%20States&city=Kansas%20City%2C%20MO	https://www.numbeo.com/cost-of-living/country_result.jsp?country=United%20States	country_result.jsp?country=United%20States
54	1357	Cyprus	Nicosia	Nicosia	Nicosia	https://www.numbeo.com/cost-of-living/city_result.jsp?country=Cyprus&city=Nicosia	city_result.jsp?country=Cyprus&city=Nicosia	https://www.numbeo.com/cost-of-living/country_result.jsp?country=Cyprus	country_result.jsp?country=Cyprus
222	6795	United States	Madison, WI	Madison%2C%20WI	Madison%2C%20WI	https://www.numbeo.com/cost-of-living/city_result.jsp?country=United%20States&city=Madison%2C%20WI	city_result.jsp?country=United%20States&city=Madison%2C%20WI	https://www.numbeo.com/cost-of-living/country_result.jsp?country=United%20States	country_result.jsp?country=United%20States
78	1922	Germany	Karlsruhe	Karlsruhe	Karlsruhe	https://www.numbeo.com/cost-of-living/city_result.jsp?country=Germany&city=Karlsruhe	city_result.jsp?country=Germany&city=Karlsruhe	https://www.numbeo.com/cost-of-living/country_result.jsp?country=Germany	country_result.jsp?country=Germany
39	944	Canada	Montreal	Montreal	Montreal	https://www.numbeo.com/cost-of-living/city_result.jsp?country=Canada&city=Montreal	city_result.jsp?country=Canada&city=Montreal	https://www.numbeo.com/cost-of-living/country_result.jsp?country=Canada	country_result.jsp?country=Canada
222	6495	United States	Fort Worth, TX	Fort%20Worth%2C%20TX	Fort%20Worth%2C%20TX	https://www.numbeo.com/cost-of-living/city_result.jsp?country=United%20States&city=Fort%20Worth%2C%20TX	city_result.jsp?country=United%20States&city=Fort%20Worth%2C%20TX	https://www.numbeo.com/cost-of-living/country_result.jsp?country=United%20States	country_result.jsp?country=United%20States
103	2796	Italy	Cagliari	Cagliari	Cagliari	https://www.numbeo.com/cost-of-living/city_result.jsp?country=Italy&city=Cagliari	city_result.jsp?country=Italy&city=Cagliari	https://www.numbeo.com/cost-of-living/country_result.jsp?country=Italy	country_result.jsp?country=Italy
221	5906	United Kingdom	Leicester	Leicester	Leicester	https://www.numbeo.com/cost-of-living/city_result.jsp?country=United%20Kingdom&city=Leicester	city_result.jsp?country=United%20Kingdom&city=Leicester	https://www.numbeo.com/cost-of-living/country_result.jsp?country=United%20Kingdom	country_result.jsp?country=United%20Kingdom
39	908	Canada	Hamilton	Hamilton	Hamilton	https://www.numbeo.com/cost-of-living/city_result.jsp?country=Canada&city=Hamilton	city_result.jsp?country=Canada&city=Hamilton	https://www.numbeo.com/cost-of-living/country_result.jsp?country=Canada	country_result.jsp?country=Canada
78	1882	Germany	Darmstadt	Darmstadt	Darmstadt	https://www.numbeo.com/cost-of-living/city_result.jsp?country=Germany&city=Darmstadt	city_result.jsp?country=Germany&city=Darmstadt	https://www.numbeo.com/cost-of-living/country_result.jsp?country=Germany	country_result.jsp?country=Germany
78	1910	Germany	Hanover	Hanover	Hanover	https://www.numbeo.com/cost-of-living/city_result.jsp?country=Germany&city=Hanover	city_result.jsp?country=Germany&city=Hanover	https://www.numbeo.com/cost-of-living/country_result.jsp?country=Germany	country_result.jsp?country=Germany
222	7092	United States	Richmond, VA	Richmond%2C%20VA	Richmond%2C%20VA	https://www.numbeo.com/cost-of-living/city_result.jsp?country=United%20States&city=Richmond%2C%20VA	city_result.jsp?country=United%20States&city=Richmond%2C%20VA	https://www.numbeo.com/cost-of-living/country_result.jsp?country=United%20States	country_result.jsp?country=United%20States
222	7139	United States	Saint Louis, MO	Saint%20Louis%2C%20MO	Saint%20Louis%2C%20MO	https://www.numbeo.com/cost-of-living/city_result.jsp?country=United%20States&city=Saint%20Louis%2C%20MO	city_result.jsp?country=United%20States&city=Saint%20Louis%2C%20MO	https://www.numbeo.com/cost-of-living/country_result.jsp?country=United%20States	country_result.jsp?country=United%20States
103	2888	Italy	Naples	Naples	Naples	https://www.numbeo.com/cost-of-living/city_result.jsp?country=Italy&city=Naples	city_result.jsp?country=Italy&city=Naples	https://www.numbeo.com/cost-of-living/country_result.jsp?country=Italy	country_result.jsp?country=Italy
222	6508	United States	Fresno, CA	Fresno%2C%20CA	Fresno%2C%20CA	https://www.numbeo.com/cost-of-living/city_result.jsp?country=United%20States&city=Fresno%2C%20CA	city_result.jsp?country=United%20States&city=Fresno%2C%20CA	https://www.numbeo.com/cost-of-living/country_result.jsp?country=United%20States	country_result.jsp?country=United%20States
221	5991	United Kingdom	Stoke-on-Trent	Stoke-on-Trent	Stoke-on-Trent	https://www.numbeo.com/cost-of-living/city_result.jsp?country=United%20Kingdom&city=Stoke-on-Trent	city_result.jsp?country=United%20Kingdom&city=Stoke-on-Trent	https://www.numbeo.com/cost-of-living/country_result.jsp?country=United%20Kingdom	country_result.jsp?country=United%20Kingdom
222	6784	United States	Louisville, KY	Louisville%2C%20KY	Louisville%2C%20KY	https://www.numbeo.com/cost-of-living/city_result.jsp?country=United%20States&city=Louisville%2C%20KY	city_result.jsp?country=United%20States&city=Louisville%2C%20KY	https://www.numbeo.com/cost-of-living/country_result.jsp?country=United%20States	country_result.jsp?country=United%20States
222	6396	United States	Des Moines, IA	Des%20Moines%2C%20IA	Des%20Moines%2C%20IA	https://www.numbeo.com/cost-of-living/city_result.jsp?country=United%20States&city=Des%20Moines%2C%20IA	city_result.jsp?country=United%20States&city=Des%20Moines%2C%20IA	https://www.numbeo.com/cost-of-living/country_result.jsp?country=United%20States	country_result.jsp?country=United%20States
221	5975	United Kingdom	Sheffield	Sheffield	Sheffield	https://www.numbeo.com/cost-of-living/city_result.jsp?country=United%20Kingdom&city=Sheffield	city_result.jsp?country=United%20Kingdom&city=Sheffield	https://www.numbeo.com/cost-of-living/country_result.jsp?country=United%20Kingdom	country_result.jsp?country=United%20Kingdom
222	6761	United States	Lincoln, NE	Lincoln%2C%20NE	Lincoln%2C%20NE	https://www.numbeo.com/cost-of-living/city_result.jsp?country=United%20States&city=Lincoln%2C%20NE	city_result.jsp?country=United%20States&city=Lincoln%2C%20NE	https://www.numbeo.com/cost-of-living/country_result.jsp?country=United%20States	country_result.jsp?country=United%20States
78	1874	Germany	Bremen	Bremen	Bremen	https://www.numbeo.com/cost-of-living/city_result.jsp?country=Germany&city=Bremen	city_result.jsp?country=Germany&city=Bremen	https://www.numbeo.com/cost-of-living/country_result.jsp?country=Germany	country_result.jsp?country=Germany
197	5071	Spain	Bilbao	Bilbao	Bilbao	https://www.numbeo.com/cost-of-living/city_result.jsp?country=Spain&city=Bilbao	city_result.jsp?country=Spain&city=Bilbao	https://www.numbeo.com/cost-of-living/country_result.jsp?country=Spain	country_result.jsp?country=Spain
221	5933	United Kingdom	Newcastle upon Tyne	Newcastle%20upon%20Tyne	Newcastle%20upon%20Tyne	https://www.numbeo.com/cost-of-living/city_result.jsp?country=United%20Kingdom&city=Newcastle%20upon%20Tyne	city_result.jsp?country=United%20Kingdom&city=Newcastle%20upon%20Tyne	https://www.numbeo.com/cost-of-living/country_result.jsp?country=United%20Kingdom	country_result.jsp?country=United%20Kingdom
222	7085	United States	Reno, NV	Reno%2C%20NV	Reno%2C%20NV	https://www.numbeo.com/cost-of-living/city_result.jsp?country=United%20States&city=Reno%2C%20NV	city_result.jsp?country=United%20States&city=Reno%2C%20NV	https://www.numbeo.com/cost-of-living/country_result.jsp?country=United%20States	country_result.jsp?country=United%20States
39	979	Canada	Quebec City	Quebec%20City	Quebec%20City	https://www.numbeo.com/cost-of-living/city_result.jsp?country=Canada&city=Quebec%20City	city_result.jsp?country=Canada&city=Quebec%20City	https://www.numbeo.com/cost-of-living/country_result.jsp?country=Canada	country_result.jsp?country=Canada
222	6451	United States	Eugene, OR	Eugene%2C%20OR	Eugene%2C%20OR	https://www.numbeo.com/cost-of-living/city_result.jsp?country=United%20States&city=Eugene%2C%20OR	city_result.jsp?country=United%20States&city=Eugene%2C%20OR	https://www.numbeo.com/cost-of-living/country_result.jsp?country=United%20States	country_result.jsp?country=United%20States
78	1892	Germany	Essen	Essen	Essen	https://www.numbeo.com/cost-of-living/city_result.jsp?country=Germany&city=Essen	city_result.jsp?country=Germany&city=Essen	https://www.numbeo.com/cost-of-living/country_result.jsp?country=Germany	country_result.jsp?country=Germany
205	5433	Taiwan	Taipei	Taipei	Taipei	https://www.numbeo.com/cost-of-living/city_result.jsp?country=Taiwan&city=Taipei	city_result.jsp?country=Taiwan&city=Taipei	https://www.numbeo.com/cost-of-living/country_result.jsp?country=Taiwan	country_result.jsp?country=Taiwan
222	7325	United States	Tucson, AZ	Tucson%2C%20AZ	Tucson%2C%20AZ	https://www.numbeo.com/cost-of-living/city_result.jsp?country=United%20States&city=Tucson%2C%20AZ	city_result.jsp?country=United%20States&city=Tucson%2C%20AZ	https://www.numbeo.com/cost-of-living/country_result.jsp?country=United%20States	country_result.jsp?country=United%20States
220	5760	United Arab Emirates	Dubai	Dubai	Dubai	https://www.numbeo.com/cost-of-living/city_result.jsp?country=United%20Arab%20Emirates&city=Dubai	city_result.jsp?country=United%20Arab%20Emirates&city=Dubai	https://www.numbeo.com/cost-of-living/country_result.jsp?country=United%20Arab%20Emirates	country_result.jsp?country=United%20Arab%20Emirates
221	5803	United Kingdom	Bournemouth	Bournemouth	Bournemouth	https://www.numbeo.com/cost-of-living/city_result.jsp?country=United%20Kingdom&city=Bournemouth	city_result.jsp?country=United%20Kingdom&city=Bournemouth	https://www.numbeo.com/cost-of-living/country_result.jsp?country=United%20Kingdom	country_result.jsp?country=United%20Kingdom
39	919	Canada	Kelowna	Kelowna	Kelowna	https://www.numbeo.com/cost-of-living/city_result.jsp?country=Canada&city=Kelowna	city_result.jsp?country=Canada&city=Kelowna	https://www.numbeo.com/cost-of-living/country_result.jsp?country=Canada	country_result.jsp?country=Canada
39	933	Canada	London	London	London	https://www.numbeo.com/cost-of-living/city_result.jsp?country=Canada&city=London	city_result.jsp?country=Canada&city=London	https://www.numbeo.com/cost-of-living/country_result.jsp?country=Canada	country_result.jsp?country=Canada
222	7023	United States	Phoenix, AZ	Phoenix%2C%20AZ	Phoenix%2C%20AZ	https://www.numbeo.com/cost-of-living/city_result.jsp?country=United%20States&city=Phoenix%2C%20AZ	city_result.jsp?country=United%20States&city=Phoenix%2C%20AZ	https://www.numbeo.com/cost-of-living/country_result.jsp?country=United%20States	country_result.jsp?country=United%20States
222	6702	United States	Knoxville, TN	Knoxville%2C%20TN	Knoxville%2C%20TN	https://www.numbeo.com/cost-of-living/city_result.jsp?country=United%20States&city=Knoxville%2C%20TN	city_result.jsp?country=United%20States&city=Knoxville%2C%20TN	https://www.numbeo.com/cost-of-living/country_result.jsp?country=United%20States	country_result.jsp?country=United%20States
39	922	Canada	Kitchener	Kitchener	Kitchener	https://www.numbeo.com/cost-of-living/city_result.jsp?country=Canada&city=Kitchener	city_result.jsp?country=Canada&city=Kitchener	https://www.numbeo.com/cost-of-living/country_result.jsp?country=Canada	country_result.jsp?country=Canada
78	1852	Germany	Aachen	Aachen	Aachen	https://www.numbeo.com/cost-of-living/city_result.jsp?country=Germany&city=Aachen	city_result.jsp?country=Germany&city=Aachen	https://www.numbeo.com/cost-of-living/country_result.jsp?country=Germany	country_result.jsp?country=Germany
222	6153	United States	Baton Rouge, LA	Baton%20Rouge%2C%20LA	Baton%20Rouge%2C%20LA	https://www.numbeo.com/cost-of-living/city_result.jsp?country=United%20States&city=Baton%20Rouge%2C%20LA	city_result.jsp?country=United%20States&city=Baton%20Rouge%2C%20LA	https://www.numbeo.com/cost-of-living/country_result.jsp?country=United%20States	country_result.jsp?country=United%20States
197	5068	Spain	Barcelona	Barcelona	Barcelona	https://www.numbeo.com/cost-of-living/city_result.jsp?country=Spain&city=Barcelona	city_result.jsp?country=Spain&city=Barcelona	https://www.numbeo.com/cost-of-living/country_result.jsp?country=Spain	country_result.jsp?country=Spain
222	6628	United States	Houston, TX	Houston%2C%20TX	Houston%2C%20TX	https://www.numbeo.com/cost-of-living/city_result.jsp?country=United%20States&city=Houston%2C%20TX	city_result.jsp?country=United%20States&city=Houston%2C%20TX	https://www.numbeo.com/cost-of-living/country_result.jsp?country=United%20States	country_result.jsp?country=United%20States
221	5794	United Kingdom	Belfast	Belfast	Belfast	https://www.numbeo.com/cost-of-living/city_result.jsp?country=United%20Kingdom&city=Belfast	city_result.jsp?country=United%20Kingdom&city=Belfast	https://www.numbeo.com/cost-of-living/country_result.jsp?country=United%20Kingdom	country_result.jsp?country=United%20Kingdom
78	1933	Germany	Leipzig	Leipzig	Leipzig	https://www.numbeo.com/cost-of-living/city_result.jsp?country=Germany&city=Leipzig	city_result.jsp?country=Germany&city=Leipzig	https://www.numbeo.com/cost-of-living/country_result.jsp?country=Germany	country_result.jsp?country=Germany
221	5905	United Kingdom	Leeds	Leeds	Leeds	https://www.numbeo.com/cost-of-living/city_result.jsp?country=United%20Kingdom&city=Leeds	city_result.jsp?country=United%20Kingdom&city=Leeds	https://www.numbeo.com/cost-of-living/country_result.jsp?country=United%20Kingdom	country_result.jsp?country=United%20Kingdom
39	1047	Canada	Windsor	Windsor	Windsor	https://www.numbeo.com/cost-of-living/city_result.jsp?country=Canada&city=Windsor	city_result.jsp?country=Canada&city=Windsor	https://www.numbeo.com/cost-of-living/country_result.jsp?country=Canada	country_result.jsp?country=Canada
197	5124	Spain	Madrid	Madrid	Madrid	https://www.numbeo.com/cost-of-living/city_result.jsp?country=Spain&city=Madrid	city_result.jsp?country=Spain&city=Madrid	https://www.numbeo.com/cost-of-living/country_result.jsp?country=Spain	country_result.jsp?country=Spain
221	5899	United Kingdom	Kingston upon Hull	Kingston%20upon%20Hull	Kingston%20upon%20Hull	https://www.numbeo.com/cost-of-living/city_result.jsp?country=United%20Kingdom&city=Kingston%20upon%20Hull	city_result.jsp?country=United%20Kingdom&city=Kingston%20upon%20Hull	https://www.numbeo.com/cost-of-living/country_result.jsp?country=United%20Kingdom	country_result.jsp?country=United%20Kingdom
222	6640	United States	Indianapolis, IN	Indianapolis%2C%20IN	Indianapolis%2C%20IN	https://www.numbeo.com/cost-of-living/city_result.jsp?country=United%20States&city=Indianapolis%2C%20IN	city_result.jsp?country=United%20States&city=Indianapolis%2C%20IN	https://www.numbeo.com/cost-of-living/country_result.jsp?country=United%20States	country_result.jsp?country=United%20States
222	6055	United States	Akron, OH	Akron%2C%20OH	Akron%2C%20OH	https://www.numbeo.com/cost-of-living/city_result.jsp?country=United%20States&city=Akron%2C%20OH	city_result.jsp?country=United%20States&city=Akron%2C%20OH	https://www.numbeo.com/cost-of-living/country_result.jsp?country=United%20States	country_result.jsp?country=United%20States
222	6064	United States	Albuquerque, NM	Albuquerque%2C%20NM	Albuquerque%2C%20NM	https://www.numbeo.com/cost-of-living/city_result.jsp?country=United%20States&city=Albuquerque%2C%20NM	city_result.jsp?country=United%20States&city=Albuquerque%2C%20NM	https://www.numbeo.com/cost-of-living/country_result.jsp?country=United%20States	country_result.jsp?country=United%20States
51	1329	Croatia	Zadar	Zadar	Zadar	https://www.numbeo.com/cost-of-living/city_result.jsp?country=Croatia&city=Zadar	city_result.jsp?country=Croatia&city=Zadar	https://www.numbeo.com/cost-of-living/country_result.jsp?country=Croatia	country_result.jsp?country=Croatia
222	6633	United States	Huntsville, AL	Huntsville%2C%20AL	Huntsville%2C%20AL	https://www.numbeo.com/cost-of-living/city_result.jsp?country=United%20States&city=Huntsville%2C%20AL	city_result.jsp?country=United%20States&city=Huntsville%2C%20AL	https://www.numbeo.com/cost-of-living/country_result.jsp?country=United%20States	country_result.jsp?country=United%20States
222	6372	United States	Dallas, TX	Dallas%2C%20TX	Dallas%2C%20TX	https://www.numbeo.com/cost-of-living/city_result.jsp?country=United%20States&city=Dallas%2C%20TX	city_result.jsp?country=United%20States&city=Dallas%2C%20TX	https://www.numbeo.com/cost-of-living/country_result.jsp?country=United%20States	country_result.jsp?country=United%20States
222	6965	United States	Oklahoma City, OK	Oklahoma%20City%2C%20OK	Oklahoma%20City%2C%20OK	https://www.numbeo.com/cost-of-living/city_result.jsp?country=United%20States&city=Oklahoma%20City%2C%20OK	city_result.jsp?country=United%20States&city=Oklahoma%20City%2C%20OK	https://www.numbeo.com/cost-of-living/country_result.jsp?country=United%20States	country_result.jsp?country=United%20States
222	7149	United States	San Antonio, TX	San%20Antonio%2C%20TX	San%20Antonio%2C%20TX	https://www.numbeo.com/cost-of-living/city_result.jsp?country=United%20States&city=San%20Antonio%2C%20TX	city_result.jsp?country=United%20States&city=San%20Antonio%2C%20TX	https://www.numbeo.com/cost-of-living/country_result.jsp?country=United%20States	country_result.jsp?country=United%20States
39	937	Canada	Markham	Markham	Markham	https://www.numbeo.com/cost-of-living/city_result.jsp?country=Canada&city=Markham	city_result.jsp?country=Canada&city=Markham	https://www.numbeo.com/cost-of-living/country_result.jsp?country=Canada	country_result.jsp?country=Canada
170	4484	Qatar	Doha	Doha	Doha	https://www.numbeo.com/cost-of-living/city_result.jsp?country=Qatar&city=Doha	city_result.jsp?country=Qatar&city=Doha	https://www.numbeo.com/cost-of-living/country_result.jsp?country=Qatar	country_result.jsp?country=Qatar
222	7147	United States	Salt Lake City, UT	Salt%20Lake%20City%2C%20UT	Salt%20Lake%20City%2C%20UT	https://www.numbeo.com/cost-of-living/city_result.jsp?country=United%20States&city=Salt%20Lake%20City%2C%20UT	city_result.jsp?country=United%20States&city=Salt%20Lake%20City%2C%20UT	https://www.numbeo.com/cost-of-living/country_result.jsp?country=United%20States	country_result.jsp?country=United%20States
222	6297	United States	Chattanooga, TN	Chattanooga%2C%20TN	Chattanooga%2C%20TN	https://www.numbeo.com/cost-of-living/city_result.jsp?country=United%20States&city=Chattanooga%2C%20TN	city_result.jsp?country=United%20States&city=Chattanooga%2C%20TN	https://www.numbeo.com/cost-of-living/country_result.jsp?country=United%20States	country_result.jsp?country=United%20States
222	6310	United States	Cincinnati, OH	Cincinnati%2C%20OH	Cincinnati%2C%20OH	https://www.numbeo.com/cost-of-living/city_result.jsp?country=United%20States&city=Cincinnati%2C%20OH	city_result.jsp?country=United%20States&city=Cincinnati%2C%20OH	https://www.numbeo.com/cost-of-living/country_result.jsp?country=United%20States	country_result.jsp?country=United%20States
222	6204	United States	Boise, ID	Boise%2C%20ID	Boise%2C%20ID	https://www.numbeo.com/cost-of-living/city_result.jsp?country=United%20States&city=Boise%2C%20ID	city_result.jsp?country=United%20States&city=Boise%2C%20ID	https://www.numbeo.com/cost-of-living/country_result.jsp?country=United%20States	country_result.jsp?country=United%20States
222	7327	United States	Tulsa, OK	Tulsa%2C%20OK	Tulsa%2C%20OK	https://www.numbeo.com/cost-of-living/city_result.jsp?country=United%20States&city=Tulsa%2C%20OK	city_result.jsp?country=United%20States&city=Tulsa%2C%20OK	https://www.numbeo.com/cost-of-living/country_result.jsp?country=United%20States	country_result.jsp?country=United%20States
222	6136	United States	Austin, TX	Austin%2C%20TX	Austin%2C%20TX	https://www.numbeo.com/cost-of-living/city_result.jsp?country=United%20States&city=Austin%2C%20TX	city_result.jsp?country=United%20States&city=Austin%2C%20TX	https://www.numbeo.com/cost-of-living/country_result.jsp?country=United%20States	country_result.jsp?country=United%20States
54	1355	Cyprus	Larnaca	Larnaca	Larnaca	https://www.numbeo.com/cost-of-living/city_result.jsp?country=Cyprus&city=Larnaca	city_result.jsp?country=Cyprus&city=Larnaca	https://www.numbeo.com/cost-of-living/country_result.jsp?country=Cyprus	country_result.jsp?country=Cyprus
103	2809	Italy	Catania	Catania	Catania	https://www.numbeo.com/cost-of-living/city_result.jsp?country=Italy&city=Catania	city_result.jsp?country=Italy&city=Catania	https://www.numbeo.com/cost-of-living/country_result.jsp?country=Italy	country_result.jsp?country=Italy
222	6763	United States	Little Rock, AR	Little%20Rock%2C%20AR	Little%20Rock%2C%20AR	https://www.numbeo.com/cost-of-living/city_result.jsp?country=United%20States&city=Little%20Rock%2C%20AR	city_result.jsp?country=United%20States&city=Little%20Rock%2C%20AR	https://www.numbeo.com/cost-of-living/country_result.jsp?country=United%20States	country_result.jsp?country=United%20States
81	2090	Greece	Thessaloniki	Thessaloniki	Thessaloniki	https://www.numbeo.com/cost-of-living/city_result.jsp?country=Greece&city=Thessaloniki	city_result.jsp?country=Greece&city=Thessaloniki	https://www.numbeo.com/cost-of-living/country_result.jsp?country=Greece	country_result.jsp?country=Greece
205	5425	Taiwan	Kaohsiung	Kaohsiung	Kaohsiung	https://www.numbeo.com/cost-of-living/city_result.jsp?country=Taiwan&city=Kaohsiung	city_result.jsp?country=Taiwan&city=Kaohsiung	https://www.numbeo.com/cost-of-living/country_result.jsp?country=Taiwan	country_result.jsp?country=Taiwan
222	6835	United States	Memphis, TN	Memphis%2C%20TN	Memphis%2C%20TN	https://www.numbeo.com/cost-of-living/city_result.jsp?country=United%20States&city=Memphis%2C%20TN	city_result.jsp?country=United%20States&city=Memphis%2C%20TN	https://www.numbeo.com/cost-of-living/country_result.jsp?country=United%20States	country_result.jsp?country=United%20States
191	4906	Slovenia	Ljubljana	Ljubljana	Ljubljana	https://www.numbeo.com/cost-of-living/city_result.jsp?country=Slovenia&city=Ljubljana	city_result.jsp?country=Slovenia&city=Ljubljana	https://www.numbeo.com/cost-of-living/country_result.jsp?country=Slovenia	country_result.jsp?country=Slovenia
197	5140	Spain	Palma de Mallorca	Palma%20de%20Mallorca	Palma%20de%20Mallorca	https://www.numbeo.com/cost-of-living/city_result.jsp?country=Spain&city=Palma%20de%20Mallorca	city_result.jsp?country=Spain&city=Palma%20de%20Mallorca	https://www.numbeo.com/cost-of-living/country_result.jsp?country=Spain	country_result.jsp?country=Spain
103	2780	Italy	Bari	Bari	Bari	https://www.numbeo.com/cost-of-living/city_result.jsp?country=Italy&city=Bari	city_result.jsp?country=Italy&city=Bari	https://www.numbeo.com/cost-of-living/country_result.jsp?country=Italy	country_result.jsp?country=Italy
222	7420	United States	Wichita, KS	Wichita%2C%20KS	Wichita%2C%20KS	https://www.numbeo.com/cost-of-living/city_result.jsp?country=United%20States&city=Wichita%2C%20KS	city_result.jsp?country=United%20States&city=Wichita%2C%20KS	https://www.numbeo.com/cost-of-living/country_result.jsp?country=United%20States	country_result.jsp?country=United%20States
81	2043	Greece	Heraklion	Heraklion	Heraklion	https://www.numbeo.com/cost-of-living/city_result.jsp?country=Greece&city=Heraklion	city_result.jsp?country=Greece&city=Heraklion	https://www.numbeo.com/cost-of-living/country_result.jsp?country=Greece	country_result.jsp?country=Greece
81	2027	Greece	Athens	Athens	Athens	https://www.numbeo.com/cost-of-living/city_result.jsp?country=Greece&city=Athens	city_result.jsp?country=Greece&city=Athens	https://www.numbeo.com/cost-of-living/country_result.jsp?country=Greece	country_result.jsp?country=Greece
197	5180	Spain	Zaragoza (Saragossa)	Zaragoza%20%28Saragossa%29	Zaragoza%20%28Saragossa%29	https://www.numbeo.com/cost-of-living/city_result.jsp?country=Spain&city=Zaragoza%20%28Saragossa%29	city_result.jsp?country=Spain&city=Zaragoza%20%28Saragossa%29	https://www.numbeo.com/cost-of-living/country_result.jsp?country=Spain	country_result.jsp?country=Spain
103	2898	Italy	Palermo	Palermo	Palermo	https://www.numbeo.com/cost-of-living/city_result.jsp?country=Italy&city=Palermo	city_result.jsp?country=Italy&city=Palermo	https://www.numbeo.com/cost-of-living/country_result.jsp?country=Italy	country_result.jsp?country=Italy
81	2075	Greece	Patras	Patras	Patras	https://www.numbeo.com/cost-of-living/city_result.jsp?country=Greece&city=Patras	city_result.jsp?country=Greece&city=Patras	https://www.numbeo.com/cost-of-living/country_result.jsp?country=Greece	country_result.jsp?country=Greece
222	6755	United States	Lexington, KY	Lexington%2C%20KY	Lexington%2C%20KY	https://www.numbeo.com/cost-of-living/city_result.jsp?country=United%20States&city=Lexington%2C%20KY	city_result.jsp?country=United%20States&city=Lexington%2C%20KY	https://www.numbeo.com/cost-of-living/country_result.jsp?country=United%20States	country_result.jsp?country=United%20States
197	5105	Spain	Granada	Granada	Granada	https://www.numbeo.com/cost-of-living/city_result.jsp?country=Spain&city=Granada	city_result.jsp?country=Spain&city=Granada	https://www.numbeo.com/cost-of-living/country_result.jsp?country=Spain	country_result.jsp?country=Spain
220	5756	United Arab Emirates	Abu Dhabi	Abu%20Dhabi	Abu%20Dhabi	https://www.numbeo.com/cost-of-living/city_result.jsp?country=United%20Arab%20Emirates&city=Abu%20Dhabi	city_result.jsp?country=United%20Arab%20Emirates&city=Abu%20Dhabi	https://www.numbeo.com/cost-of-living/country_result.jsp?country=United%20Arab%20Emirates	country_result.jsp?country=United%20Arab%20Emirates
166	4231	Philippines	Makati	Makati	Makati	https://www.numbeo.com/cost-of-living/city_result.jsp?country=Philippines&city=Makati	city_result.jsp?country=Philippines&city=Makati	https://www.numbeo.com/cost-of-living/country_result.jsp?country=Philippines	country_result.jsp?country=Philippines
212	5538	Trinidad And Tobago	Port of Spain	Port%20of%20Spain	Port%20of%20Spain	https://www.numbeo.com/cost-of-living/city_result.jsp?country=Trinidad%20And%20Tobago&city=Port%20of%20Spain	city_result.jsp?country=Trinidad%20And%20Tobago&city=Port%20of%20Spain	https://www.numbeo.com/cost-of-living/country_result.jsp?country=Trinidad%20And%20Tobago	country_result.jsp?country=Trinidad%20And%20Tobago
65	1616	Estonia	Tallinn	Tallinn	Tallinn	https://www.numbeo.com/cost-of-living/city_result.jsp?country=Estonia&city=Tallinn	city_result.jsp?country=Estonia&city=Tallinn	https://www.numbeo.com/cost-of-living/country_result.jsp?country=Estonia	country_result.jsp?country=Estonia
66	1623	Ethiopia	Addis Ababa	Addis%20Ababa	Addis%20Ababa	https://www.numbeo.com/cost-of-living/city_result.jsp?country=Ethiopia&city=Addis%20Ababa	city_result.jsp?country=Ethiopia&city=Addis%20Ababa	https://www.numbeo.com/cost-of-living/country_result.jsp?country=Ethiopia	country_result.jsp?country=Ethiopia
162	4135	Panama	Panama City	Panama%20City	Panama%20City	https://www.numbeo.com/cost-of-living/city_result.jsp?country=Panama&city=Panama%20City	city_result.jsp?country=Panama&city=Panama%20City	https://www.numbeo.com/cost-of-living/country_result.jsp?country=Panama	country_result.jsp?country=Panama
18	370	Bahrain	Manama	Manama	Manama	https://www.numbeo.com/cost-of-living/city_result.jsp?country=Bahrain&city=Manama	city_result.jsp?country=Bahrain&city=Manama	https://www.numbeo.com/cost-of-living/country_result.jsp?country=Bahrain	country_result.jsp?country=Bahrain
51	1317	Croatia	Split	Split	Split	https://www.numbeo.com/cost-of-living/city_result.jsp?country=Croatia&city=Split	city_result.jsp?country=Croatia&city=Split	https://www.numbeo.com/cost-of-living/country_result.jsp?country=Croatia	country_result.jsp?country=Croatia
197	5164	Spain	Seville (Sevilla)	Seville%20%28Sevilla%29	Seville%20%28Sevilla%29	https://www.numbeo.com/cost-of-living/city_result.jsp?country=Spain&city=Seville%20%28Sevilla%29	city_result.jsp?country=Spain&city=Seville%20%28Sevilla%29	https://www.numbeo.com/cost-of-living/country_result.jsp?country=Spain	country_result.jsp?country=Spain
197	5056	Spain	Alicante	Alicante	Alicante	https://www.numbeo.com/cost-of-living/city_result.jsp?country=Spain&city=Alicante	city_result.jsp?country=Spain&city=Alicante	https://www.numbeo.com/cost-of-living/country_result.jsp?country=Spain	country_result.jsp?country=Spain
197	5126	Spain	Malaga	Malaga	Malaga	https://www.numbeo.com/cost-of-living/city_result.jsp?country=Spain&city=Malaga	city_result.jsp?country=Spain&city=Malaga	https://www.numbeo.com/cost-of-living/country_result.jsp?country=Spain	country_result.jsp?country=Spain
65	1618	Estonia	Tartu	Tartu	Tartu	https://www.numbeo.com/cost-of-living/city_result.jsp?country=Estonia&city=Tartu	city_result.jsp?country=Estonia&city=Tartu	https://www.numbeo.com/cost-of-living/country_result.jsp?country=Estonia	country_result.jsp?country=Estonia
51	1309	Croatia	Rijeka	Rijeka	Rijeka	https://www.numbeo.com/cost-of-living/city_result.jsp?country=Croatia&city=Rijeka	city_result.jsp?country=Croatia&city=Rijeka	https://www.numbeo.com/cost-of-living/country_result.jsp?country=Croatia	country_result.jsp?country=Croatia
197	5160	Spain	Santa Cruz de Tenerife	Santa%20Cruz%20de%20Tenerife	Santa%20Cruz%20de%20Tenerife	https://www.numbeo.com/cost-of-living/city_result.jsp?country=Spain&city=Santa%20Cruz%20de%20Tenerife	city_result.jsp?country=Spain&city=Santa%20Cruz%20de%20Tenerife	https://www.numbeo.com/cost-of-living/country_result.jsp?country=Spain	country_result.jsp?country=Spain
191	4908	Slovenia	Maribor	Maribor	Maribor	https://www.numbeo.com/cost-of-living/city_result.jsp?country=Slovenia&city=Maribor	city_result.jsp?country=Slovenia&city=Maribor	https://www.numbeo.com/cost-of-living/country_result.jsp?country=Slovenia	country_result.jsp?country=Slovenia
197	5133	Spain	Murcia	Murcia	Murcia	https://www.numbeo.com/cost-of-living/city_result.jsp?country=Spain&city=Murcia	city_result.jsp?country=Spain&city=Murcia	https://www.numbeo.com/cost-of-living/country_result.jsp?country=Spain	country_result.jsp?country=Spain
104	2969	Ivory Coast	Abidjan	Abidjan	Abidjan	https://www.numbeo.com/cost-of-living/city_result.jsp?country=Ivory%20Coast&city=Abidjan	city_result.jsp?country=Ivory%20Coast&city=Abidjan	https://www.numbeo.com/cost-of-living/country_result.jsp?country=Ivory%20Coast	country_result.jsp?country=Ivory%20Coast
54	1358	Cyprus	Paphos	Paphos	Paphos	https://www.numbeo.com/cost-of-living/city_result.jsp?country=Cyprus&city=Paphos	city_result.jsp?country=Cyprus&city=Paphos	https://www.numbeo.com/cost-of-living/country_result.jsp?country=Cyprus	country_result.jsp?country=Cyprus
208	5468	Thailand	Bangkok	Bangkok	Bangkok	https://www.numbeo.com/cost-of-living/city_result.jsp?country=Thailand&city=Bangkok	city_result.jsp?country=Thailand&city=Bangkok	https://www.numbeo.com/cost-of-living/country_result.jsp?country=Thailand	country_result.jsp?country=Thailand
115	3226	Latvia	Riga	Riga	Riga	https://www.numbeo.com/cost-of-living/city_result.jsp?country=Latvia&city=Riga	city_result.jsp?country=Latvia&city=Riga	https://www.numbeo.com/cost-of-living/country_result.jsp?country=Latvia	country_result.jsp?country=Latvia
197	5172	Spain	Valencia	Valencia	Valencia	https://www.numbeo.com/cost-of-living/city_result.jsp?country=Spain&city=Valencia	city_result.jsp?country=Spain&city=Valencia	https://www.numbeo.com/cost-of-living/country_result.jsp?country=Spain	country_result.jsp?country=Spain
52	1338	Cuba	Havana	Havana	Havana	https://www.numbeo.com/cost-of-living/city_result.jsp?country=Cuba&city=Havana	city_result.jsp?country=Cuba&city=Havana	https://www.numbeo.com/cost-of-living/country_result.jsp?country=Cuba	country_result.jsp?country=Cuba
168	4401	Portugal	Funchal	Funchal	Funchal	https://www.numbeo.com/cost-of-living/city_result.jsp?country=Portugal&city=Funchal	city_result.jsp?country=Portugal&city=Funchal	https://www.numbeo.com/cost-of-living/country_result.jsp?country=Portugal	country_result.jsp?country=Portugal
105	2991	Jamaica	Kingston	Kingston	Kingston	https://www.numbeo.com/cost-of-living/city_result.jsp?country=Jamaica&city=Kingston	city_result.jsp?country=Jamaica&city=Kingston	https://www.numbeo.com/cost-of-living/country_result.jsp?country=Jamaica	country_result.jsp?country=Jamaica
220	5757	United Arab Emirates	Ajman	Ajman	Ajman	https://www.numbeo.com/cost-of-living/city_result.jsp?country=United%20Arab%20Emirates&city=Ajman	city_result.jsp?country=United%20Arab%20Emirates&city=Ajman	https://www.numbeo.com/cost-of-living/country_result.jsp?country=United%20Arab%20Emirates	country_result.jsp?country=United%20Arab%20Emirates
168	4407	Portugal	Lisbon	Lisbon	Lisbon	https://www.numbeo.com/cost-of-living/city_result.jsp?country=Portugal&city=Lisbon	city_result.jsp?country=Portugal&city=Lisbon	https://www.numbeo.com/cost-of-living/country_result.jsp?country=Portugal	country_result.jsp?country=Portugal
108	3100	Jordan	Amman	Amman	Amman	https://www.numbeo.com/cost-of-living/city_result.jsp?country=Jordan&city=Amman	city_result.jsp?country=Jordan&city=Amman	https://www.numbeo.com/cost-of-living/country_result.jsp?country=Jordan	country_result.jsp?country=Jordan
222	6433	United States	El Paso, TX	El%20Paso%2C%20TX	El%20Paso%2C%20TX	https://www.numbeo.com/cost-of-living/city_result.jsp?country=United%20States&city=El%20Paso%2C%20TX	city_result.jsp?country=United%20States&city=El%20Paso%2C%20TX	https://www.numbeo.com/cost-of-living/country_result.jsp?country=United%20States	country_result.jsp?country=United%20States
168	4422	Portugal	Porto	Porto	Porto	https://www.numbeo.com/cost-of-living/city_result.jsp?country=Portugal&city=Porto	city_result.jsp?country=Portugal&city=Porto	https://www.numbeo.com/cost-of-living/country_result.jsp?country=Portugal	country_result.jsp?country=Portugal
51	1330	Croatia	Zagreb	Zagreb	Zagreb	https://www.numbeo.com/cost-of-living/city_result.jsp?country=Croatia&city=Zagreb	city_result.jsp?country=Croatia&city=Zagreb	https://www.numbeo.com/cost-of-living/country_result.jsp?country=Croatia	country_result.jsp?country=Croatia
168	4387	Portugal	Braga	Braga	Braga	https://www.numbeo.com/cost-of-living/city_result.jsp?country=Portugal&city=Braga	city_result.jsp?country=Portugal&city=Braga	https://www.numbeo.com/cost-of-living/country_result.jsp?country=Portugal	country_result.jsp?country=Portugal
183	4791	Saudi Arabia	Riyadh	Riyadh	Riyadh	https://www.numbeo.com/cost-of-living/city_result.jsp?country=Saudi%20Arabia&city=Riyadh	city_result.jsp?country=Saudi%20Arabia&city=Riyadh	https://www.numbeo.com/cost-of-living/country_result.jsp?country=Saudi%20Arabia	country_result.jsp?country=Saudi%20Arabia
190	4855	Slovakia	Bratislava	Bratislava	Bratislava	https://www.numbeo.com/cost-of-living/city_result.jsp?country=Slovakia&city=Bratislava	city_result.jsp?country=Slovakia&city=Bratislava	https://www.numbeo.com/cost-of-living/country_result.jsp?country=Slovakia	country_result.jsp?country=Slovakia
220	5766	United Arab Emirates	Sharjah	Sharjah	Sharjah	https://www.numbeo.com/cost-of-living/city_result.jsp?country=United%20Arab%20Emirates&city=Sharjah	city_result.jsp?country=United%20Arab%20Emirates&city=Sharjah	https://www.numbeo.com/cost-of-living/country_result.jsp?country=United%20Arab%20Emirates	country_result.jsp?country=United%20Arab%20Emirates
168	4393	Portugal	Coimbra	Coimbra	Coimbra	https://www.numbeo.com/cost-of-living/city_result.jsp?country=Portugal&city=Coimbra	city_result.jsp?country=Portugal&city=Coimbra	https://www.numbeo.com/cost-of-living/country_result.jsp?country=Portugal	country_result.jsp?country=Portugal
55	1397	Czech Republic	Prague	Prague	Prague	https://www.numbeo.com/cost-of-living/city_result.jsp?country=Czech%20Republic&city=Prague	city_result.jsp?country=Czech%20Republic&city=Prague	https://www.numbeo.com/cost-of-living/country_result.jsp?country=Czech%20Republic	country_result.jsp?country=Czech%20Republic
45	1168	China	Shanghai	Shanghai	Shanghai	https://www.numbeo.com/cost-of-living/city_result.jsp?country=China&city=Shanghai	city_result.jsp?country=China&city=Shanghai	https://www.numbeo.com/cost-of-living/country_result.jsp?country=China	country_result.jsp?country=China
233	7606	Zimbabwe	Harare	Harare	Harare	https://www.numbeo.com/cost-of-living/city_result.jsp?country=Zimbabwe&city=Harare	city_result.jsp?country=Zimbabwe&city=Harare	https://www.numbeo.com/cost-of-living/country_result.jsp?country=Zimbabwe	country_result.jsp?country=Zimbabwe
158	4053	Oman	Muscat	Muscat	Muscat	https://www.numbeo.com/cost-of-living/city_result.jsp?country=Oman&city=Muscat	city_result.jsp?country=Oman&city=Muscat	https://www.numbeo.com/cost-of-living/country_result.jsp?country=Oman	country_result.jsp?country=Oman
50	1267	Costa Rica	San Jose	San%20Jose	San%20Jose	https://www.numbeo.com/cost-of-living/city_result.jsp?country=Costa%20Rica&city=San%20Jose	city_result.jsp?country=Costa%20Rica&city=San%20Jose	https://www.numbeo.com/cost-of-living/country_result.jsp?country=Costa%20Rica	country_result.jsp?country=Costa%20Rica
208	5499	Thailand	Pattaya	Pattaya	Pattaya	https://www.numbeo.com/cost-of-living/city_result.jsp?country=Thailand&city=Pattaya	city_result.jsp?country=Thailand&city=Pattaya	https://www.numbeo.com/cost-of-living/country_result.jsp?country=Thailand	country_result.jsp?country=Thailand
183	4781	Saudi Arabia	Jeddah (Jiddah)	Jeddah%20%28Jiddah%29	Jeddah%20%28Jiddah%29	https://www.numbeo.com/cost-of-living/city_result.jsp?country=Saudi%20Arabia&city=Jeddah%20%28Jiddah%29	city_result.jsp?country=Saudi%20Arabia&city=Jeddah%20%28Jiddah%29	https://www.numbeo.com/cost-of-living/country_result.jsp?country=Saudi%20Arabia	country_result.jsp?country=Saudi%20Arabia
121	3317	Lithuania	Klaipeda	Klaipeda	Klaipeda	https://www.numbeo.com/cost-of-living/city_result.jsp?country=Lithuania&city=Klaipeda	city_result.jsp?country=Lithuania&city=Klaipeda	https://www.numbeo.com/cost-of-living/country_result.jsp?country=Lithuania	country_result.jsp?country=Lithuania
200	5238	Suriname	Paramaribo	Paramaribo	Paramaribo	https://www.numbeo.com/cost-of-living/city_result.jsp?country=Suriname&city=Paramaribo	city_result.jsp?country=Suriname&city=Paramaribo	https://www.numbeo.com/cost-of-living/country_result.jsp?country=Suriname	country_result.jsp?country=Suriname
208	5503	Thailand	Phuket	Phuket	Phuket	https://www.numbeo.com/cost-of-living/city_result.jsp?country=Thailand&city=Phuket	city_result.jsp?country=Thailand&city=Phuket	https://www.numbeo.com/cost-of-living/country_result.jsp?country=Thailand	country_result.jsp?country=Thailand
45	1172	China	Shenzhen	Shenzhen	Shenzhen	https://www.numbeo.com/cost-of-living/city_result.jsp?country=China&city=Shenzhen	city_result.jsp?country=China&city=Shenzhen	https://www.numbeo.com/cost-of-living/country_result.jsp?country=China	country_result.jsp?country=China
223	7485	Uruguay	Montevideo	Montevideo	Montevideo	https://www.numbeo.com/cost-of-living/city_result.jsp?country=Uruguay&city=Montevideo	city_result.jsp?country=Uruguay&city=Montevideo	https://www.numbeo.com/cost-of-living/country_result.jsp?country=Uruguay	country_result.jsp?country=Uruguay
44	1084	Chile	Santiago	Santiago	Santiago	https://www.numbeo.com/cost-of-living/city_result.jsp?country=Chile&city=Santiago	city_result.jsp?country=Chile&city=Santiago	https://www.numbeo.com/cost-of-living/country_result.jsp?country=Chile	country_result.jsp?country=Chile
168	4383	Portugal	Aveiro	Aveiro	Aveiro	https://www.numbeo.com/cost-of-living/city_result.jsp?country=Portugal&city=Aveiro	city_result.jsp?country=Portugal&city=Aveiro	https://www.numbeo.com/cost-of-living/country_result.jsp?country=Portugal	country_result.jsp?country=Portugal
190	4862	Slovakia	Kosice	Kosice	Kosice	https://www.numbeo.com/cost-of-living/city_result.jsp?country=Slovakia&city=Kosice	city_result.jsp?country=Slovakia&city=Kosice	https://www.numbeo.com/cost-of-living/country_result.jsp?country=Slovakia	country_result.jsp?country=Slovakia
55	1366	Czech Republic	Brno	Brno	Brno	https://www.numbeo.com/cost-of-living/city_result.jsp?country=Czech%20Republic&city=Brno	city_result.jsp?country=Czech%20Republic&city=Brno	https://www.numbeo.com/cost-of-living/country_result.jsp?country=Czech%20Republic	country_result.jsp?country=Czech%20Republic
112	3189	Kuwait	Kuwait City	Kuwait%20City	Kuwait%20City	https://www.numbeo.com/cost-of-living/city_result.jsp?country=Kuwait&city=Kuwait%20City	city_result.jsp?country=Kuwait&city=Kuwait%20City	https://www.numbeo.com/cost-of-living/country_result.jsp?country=Kuwait	country_result.jsp?country=Kuwait
183	4765	Saudi Arabia	Ad Dammam	Ad%20Dammam	Ad%20Dammam	https://www.numbeo.com/cost-of-living/city_result.jsp?country=Saudi%20Arabia&city=Ad%20Dammam	city_result.jsp?country=Saudi%20Arabia&city=Ad%20Dammam	https://www.numbeo.com/cost-of-living/country_result.jsp?country=Saudi%20Arabia	country_result.jsp?country=Saudi%20Arabia
37	824	Cambodia	Phnom Penh	Phnom%20Penh	Phnom%20Penh	https://www.numbeo.com/cost-of-living/city_result.jsp?country=Cambodia&city=Phnom%20Penh	city_result.jsp?country=Cambodia&city=Phnom%20Penh	https://www.numbeo.com/cost-of-living/country_result.jsp?country=Cambodia	country_result.jsp?country=Cambodia
121	3329	Lithuania	Vilnius	Vilnius	Vilnius	https://www.numbeo.com/cost-of-living/city_result.jsp?country=Lithuania&city=Vilnius	city_result.jsp?country=Lithuania&city=Vilnius	https://www.numbeo.com/cost-of-living/country_result.jsp?country=Lithuania	country_result.jsp?country=Lithuania
45	1184	China	Wuhan	Wuhan	Wuhan	https://www.numbeo.com/cost-of-living/city_result.jsp?country=China&city=Wuhan	city_result.jsp?country=China&city=Wuhan	https://www.numbeo.com/cost-of-living/country_result.jsp?country=China	country_result.jsp?country=China
45	1100	China	Beijing	Beijing	Beijing	https://www.numbeo.com/cost-of-living/city_result.jsp?country=China&city=Beijing	city_result.jsp?country=China&city=Beijing	https://www.numbeo.com/cost-of-living/country_result.jsp?country=China	country_result.jsp?country=China
208	5473	Thailand	Chiang Mai	Chiang%20Mai	Chiang%20Mai	https://www.numbeo.com/cost-of-living/city_result.jsp?country=Thailand&city=Chiang%20Mai	city_result.jsp?country=Thailand&city=Chiang%20Mai	https://www.numbeo.com/cost-of-living/country_result.jsp?country=Thailand	country_result.jsp?country=Thailand
121	3315	Lithuania	Kaunas	Kaunas	Kaunas	https://www.numbeo.com/cost-of-living/city_result.jsp?country=Lithuania&city=Kaunas	city_result.jsp?country=Lithuania&city=Kaunas	https://www.numbeo.com/cost-of-living/country_result.jsp?country=Lithuania	country_result.jsp?country=Lithuania
62	1589	El Salvador	San Salvador	San%20Salvador	San%20Salvador	https://www.numbeo.com/cost-of-living/city_result.jsp?country=El%20Salvador&city=San%20Salvador	city_result.jsp?country=El%20Salvador&city=San%20Salvador	https://www.numbeo.com/cost-of-living/country_result.jsp?country=El%20Salvador	country_result.jsp?country=El%20Salvador
167	4361	Poland	Warsaw	Warsaw	Warsaw	https://www.numbeo.com/cost-of-living/city_result.jsp?country=Poland&city=Warsaw	city_result.jsp?country=Poland&city=Warsaw	https://www.numbeo.com/cost-of-living/country_result.jsp?country=Poland	country_result.jsp?country=Poland
51	1304	Croatia	Osijek	Osijek	Osijek	https://www.numbeo.com/cost-of-living/city_result.jsp?country=Croatia&city=Osijek	city_result.jsp?country=Croatia&city=Osijek	https://www.numbeo.com/cost-of-living/country_result.jsp?country=Croatia	country_result.jsp?country=Croatia
55	1391	Czech Republic	Olomouc	Olomouc	Olomouc	https://www.numbeo.com/cost-of-living/city_result.jsp?country=Czech%20Republic&city=Olomouc	city_result.jsp?country=Czech%20Republic&city=Olomouc	https://www.numbeo.com/cost-of-living/country_result.jsp?country=Czech%20Republic	country_result.jsp?country=Czech%20Republic
45	1108	China	Chengdu	Chengdu	Chengdu	https://www.numbeo.com/cost-of-living/city_result.jsp?country=China&city=Chengdu	city_result.jsp?country=China&city=Chengdu	https://www.numbeo.com/cost-of-living/country_result.jsp?country=China	country_result.jsp?country=China
86	2131	Guatemala	Guatemala City	Guatemala%20City	Guatemala%20City	https://www.numbeo.com/cost-of-living/city_result.jsp?country=Guatemala&city=Guatemala%20City	city_result.jsp?country=Guatemala&city=Guatemala%20City	https://www.numbeo.com/cost-of-living/country_result.jsp?country=Guatemala	country_result.jsp?country=Guatemala
69	1652	Fiji	Suva	Suva	Suva	https://www.numbeo.com/cost-of-living/city_result.jsp?country=Fiji&city=Suva	city_result.jsp?country=Fiji&city=Suva	https://www.numbeo.com/cost-of-living/country_result.jsp?country=Fiji	country_result.jsp?country=Fiji
97	2533	Indonesia	Bali	Bali	Bali	https://www.numbeo.com/cost-of-living/city_result.jsp?country=Indonesia&city=Bali	city_result.jsp?country=Indonesia&city=Bali	https://www.numbeo.com/cost-of-living/country_result.jsp?country=Indonesia	country_result.jsp?country=Indonesia
194	4962	South Africa	Johannesburg	Johannesburg	Johannesburg	https://www.numbeo.com/cost-of-living/city_result.jsp?country=South%20Africa&city=Johannesburg	city_result.jsp?country=South%20Africa&city=Johannesburg	https://www.numbeo.com/cost-of-living/country_result.jsp?country=South%20Africa	country_result.jsp?country=South%20Africa
55	1393	Czech Republic	Ostrava	Ostrava	Ostrava	https://www.numbeo.com/cost-of-living/city_result.jsp?country=Czech%20Republic&city=Ostrava	city_result.jsp?country=Czech%20Republic&city=Ostrava	https://www.numbeo.com/cost-of-living/country_result.jsp?country=Czech%20Republic	country_result.jsp?country=Czech%20Republic
94	2183	Hungary	Budapest	Budapest	Budapest	https://www.numbeo.com/cost-of-living/city_result.jsp?country=Hungary&city=Budapest	city_result.jsp?country=Hungary&city=Budapest	https://www.numbeo.com/cost-of-living/country_result.jsp?country=Hungary	country_result.jsp?country=Hungary
167	4292	Poland	Gdansk	Gdansk	Gdansk	https://www.numbeo.com/cost-of-living/city_result.jsp?country=Poland&city=Gdansk	city_result.jsp?country=Poland&city=Gdansk	https://www.numbeo.com/cost-of-living/country_result.jsp?country=Poland	country_result.jsp?country=Poland
194	4985	South Africa	Pretoria	Pretoria	Pretoria	https://www.numbeo.com/cost-of-living/city_result.jsp?country=South%20Africa&city=Pretoria	city_result.jsp?country=South%20Africa&city=Pretoria	https://www.numbeo.com/cost-of-living/country_result.jsp?country=South%20Africa	country_result.jsp?country=South%20Africa
126	3417	Malaysia	Petaling Jaya	Petaling%20Jaya	Petaling%20Jaya	https://www.numbeo.com/cost-of-living/city_result.jsp?country=Malaysia&city=Petaling%20Jaya	city_result.jsp?country=Malaysia&city=Petaling%20Jaya	https://www.numbeo.com/cost-of-living/country_result.jsp?country=Malaysia	country_result.jsp?country=Malaysia
166	4211	Philippines	Davao	Davao	Davao	https://www.numbeo.com/cost-of-living/city_result.jsp?country=Philippines&city=Davao	city_result.jsp?country=Philippines&city=Davao	https://www.numbeo.com/cost-of-living/country_result.jsp?country=Philippines	country_result.jsp?country=Philippines
60	1526	Ecuador	Quito	Quito	Quito	https://www.numbeo.com/cost-of-living/city_result.jsp?country=Ecuador&city=Quito	city_result.jsp?country=Ecuador&city=Quito	https://www.numbeo.com/cost-of-living/country_result.jsp?country=Ecuador	country_result.jsp?country=Ecuador
34	804	Bulgaria	Sofia	Sofia	Sofia	https://www.numbeo.com/cost-of-living/city_result.jsp?country=Bulgaria&city=Sofia	city_result.jsp?country=Bulgaria&city=Sofia	https://www.numbeo.com/cost-of-living/country_result.jsp?country=Bulgaria	country_result.jsp?country=Bulgaria
167	4293	Poland	Gdynia	Gdynia	Gdynia	https://www.numbeo.com/cost-of-living/city_result.jsp?country=Poland&city=Gdynia	city_result.jsp?country=Poland&city=Gdynia	https://www.numbeo.com/cost-of-living/country_result.jsp?country=Poland	country_result.jsp?country=Poland
166	4235	Philippines	Manila	Manila	Manila	https://www.numbeo.com/cost-of-living/city_result.jsp?country=Philippines&city=Manila	city_result.jsp?country=Philippines&city=Manila	https://www.numbeo.com/cost-of-living/country_result.jsp?country=Philippines	country_result.jsp?country=Philippines
167	4365	Poland	Wroclaw	Wroclaw	Wroclaw	https://www.numbeo.com/cost-of-living/city_result.jsp?country=Poland&city=Wroclaw	city_result.jsp?country=Poland&city=Wroclaw	https://www.numbeo.com/cost-of-living/country_result.jsp?country=Poland	country_result.jsp?country=Poland
167	4332	Poland	Poznan	Poznan	Poznan	https://www.numbeo.com/cost-of-living/city_result.jsp?country=Poland&city=Poznan	city_result.jsp?country=Poland&city=Poznan	https://www.numbeo.com/cost-of-living/country_result.jsp?country=Poland	country_result.jsp?country=Poland
45	1120	China	Guangzhou	Guangzhou	Guangzhou	https://www.numbeo.com/cost-of-living/city_result.jsp?country=China&city=Guangzhou	city_result.jsp?country=China&city=Guangzhou	https://www.numbeo.com/cost-of-living/country_result.jsp?country=China	country_result.jsp?country=China
97	2549	Indonesia	Jakarta	Jakarta	Jakarta	https://www.numbeo.com/cost-of-living/city_result.jsp?country=Indonesia&city=Jakarta	city_result.jsp?country=Indonesia&city=Jakarta	https://www.numbeo.com/cost-of-living/country_result.jsp?country=Indonesia	country_result.jsp?country=Indonesia
166	4251	Philippines	Quezon City	Quezon%20City	Quezon%20City	https://www.numbeo.com/cost-of-living/city_result.jsp?country=Philippines&city=Quezon%20City	city_result.jsp?country=Philippines&city=Quezon%20City	https://www.numbeo.com/cost-of-living/country_result.jsp?country=Philippines	country_result.jsp?country=Philippines
167	4311	Poland	Krakow (Cracow)	Krakow%20%28Cracow%29	Krakow%20%28Cracow%29	https://www.numbeo.com/cost-of-living/city_result.jsp?country=Poland&city=Krakow%20%28Cracow%29	city_result.jsp?country=Poland&city=Krakow%20%28Cracow%29	https://www.numbeo.com/cost-of-living/country_result.jsp?country=Poland	country_result.jsp?country=Poland
59	1503	Dominican Republic	Santo Domingo	Santo%20Domingo	Santo%20Domingo	https://www.numbeo.com/cost-of-living/city_result.jsp?country=Dominican%20Republic&city=Santo%20Domingo	city_result.jsp?country=Dominican%20Republic&city=Santo%20Domingo	https://www.numbeo.com/cost-of-living/country_result.jsp?country=Dominican%20Republic	country_result.jsp?country=Dominican%20Republic
173	4511	Romania	Bucharest	Bucharest	Bucharest	https://www.numbeo.com/cost-of-living/city_result.jsp?country=Romania&city=Bucharest	city_result.jsp?country=Romania&city=Bucharest	https://www.numbeo.com/cost-of-living/country_result.jsp?country=Romania	country_result.jsp?country=Romania
30	570	Botswana	Gaborone	Gaborone	Gaborone	https://www.numbeo.com/cost-of-living/city_result.jsp?country=Botswana&city=Gaborone	city_result.jsp?country=Botswana&city=Gaborone	https://www.numbeo.com/cost-of-living/country_result.jsp?country=Botswana	country_result.jsp?country=Botswana
166	4207	Philippines	Cebu	Cebu	Cebu	https://www.numbeo.com/cost-of-living/city_result.jsp?country=Philippines&city=Cebu	city_result.jsp?country=Philippines&city=Cebu	https://www.numbeo.com/cost-of-living/country_result.jsp?country=Philippines	country_result.jsp?country=Philippines
140	3669	Montenegro	Podgorica	Podgorica	Podgorica	https://www.numbeo.com/cost-of-living/city_result.jsp?country=Montenegro&city=Podgorica	city_result.jsp?country=Montenegro&city=Podgorica	https://www.numbeo.com/cost-of-living/country_result.jsp?country=Montenegro	country_result.jsp?country=Montenegro
185	4803	Serbia	Belgrade	Belgrade	Belgrade	https://www.numbeo.com/cost-of-living/city_result.jsp?country=Serbia&city=Belgrade	city_result.jsp?country=Serbia&city=Belgrade	https://www.numbeo.com/cost-of-living/country_result.jsp?country=Serbia	country_result.jsp?country=Serbia
126	3393	Malaysia	Johor Bahru	Johor%20Bahru	Johor%20Bahru	https://www.numbeo.com/cost-of-living/city_result.jsp?country=Malaysia&city=Johor%20Bahru	city_result.jsp?country=Malaysia&city=Johor%20Bahru	https://www.numbeo.com/cost-of-living/country_result.jsp?country=Malaysia	country_result.jsp?country=Malaysia
60	1516	Ecuador	Guayaquil	Guayaquil	Guayaquil	https://www.numbeo.com/cost-of-living/city_result.jsp?country=Ecuador&city=Guayaquil	city_result.jsp?country=Ecuador&city=Guayaquil	https://www.numbeo.com/cost-of-living/country_result.jsp?country=Ecuador	country_result.jsp?country=Ecuador
194	4949	South Africa	Cape Town	Cape%20Town	Cape%20Town	https://www.numbeo.com/cost-of-living/city_result.jsp?country=South%20Africa&city=Cape%20Town	city_result.jsp?country=South%20Africa&city=Cape%20Town	https://www.numbeo.com/cost-of-living/country_result.jsp?country=South%20Africa	country_result.jsp?country=South%20Africa
45	1125	China	Hangzhou	Hangzhou	Hangzhou	https://www.numbeo.com/cost-of-living/city_result.jsp?country=China&city=Hangzhou	city_result.jsp?country=China&city=Hangzhou	https://www.numbeo.com/cost-of-living/country_result.jsp?country=China	country_result.jsp?country=China
79	1999	Ghana	Accra	Accra	Accra	https://www.numbeo.com/cost-of-living/city_result.jsp?country=Ghana&city=Accra	city_result.jsp?country=Ghana&city=Accra	https://www.numbeo.com/cost-of-living/country_result.jsp?country=Ghana	country_result.jsp?country=Ghana
3	37	Albania	Tirana	Tirana	Tirana	https://www.numbeo.com/cost-of-living/city_result.jsp?country=Albania&city=Tirana	city_result.jsp?country=Albania&city=Tirana	https://www.numbeo.com/cost-of-living/country_result.jsp?country=Albania	country_result.jsp?country=Albania
126	3403	Malaysia	Kuala Lumpur	Kuala%20Lumpur	Kuala%20Lumpur	https://www.numbeo.com/cost-of-living/city_result.jsp?country=Malaysia&city=Kuala%20Lumpur	city_result.jsp?country=Malaysia&city=Kuala%20Lumpur	https://www.numbeo.com/cost-of-living/country_result.jsp?country=Malaysia	country_result.jsp?country=Malaysia
142	3692	Morocco	Marrakech	Marrakech	Marrakech	https://www.numbeo.com/cost-of-living/city_result.jsp?country=Morocco&city=Marrakech	city_result.jsp?country=Morocco&city=Marrakech	https://www.numbeo.com/cost-of-living/country_result.jsp?country=Morocco	country_result.jsp?country=Morocco
27	526	Bolivia	Santa Cruz	Santa%20Cruz	Santa%20Cruz	https://www.numbeo.com/cost-of-living/city_result.jsp?country=Bolivia&city=Santa%20Cruz	city_result.jsp?country=Bolivia&city=Santa%20Cruz	https://www.numbeo.com/cost-of-living/country_result.jsp?country=Bolivia	country_result.jsp?country=Bolivia
174	4635	Russia	Moscow	Moscow	Moscow	https://www.numbeo.com/cost-of-living/city_result.jsp?country=Russia&city=Moscow	city_result.jsp?country=Russia&city=Moscow	https://www.numbeo.com/cost-of-living/country_result.jsp?country=Russia	country_result.jsp?country=Russia
94	2187	Hungary	Debrecen	Debrecen	Debrecen	https://www.numbeo.com/cost-of-living/city_result.jsp?country=Hungary&city=Debrecen	city_result.jsp?country=Hungary&city=Debrecen	https://www.numbeo.com/cost-of-living/country_result.jsp?country=Hungary	country_result.jsp?country=Hungary
34	810	Bulgaria	Varna	Varna	Varna	https://www.numbeo.com/cost-of-living/city_result.jsp?country=Bulgaria&city=Varna	city_result.jsp?country=Bulgaria&city=Varna	https://www.numbeo.com/cost-of-living/country_result.jsp?country=Bulgaria	country_result.jsp?country=Bulgaria
167	4317	Poland	Lodz	Lodz	Lodz	https://www.numbeo.com/cost-of-living/city_result.jsp?country=Poland&city=Lodz	city_result.jsp?country=Poland&city=Lodz	https://www.numbeo.com/cost-of-living/country_result.jsp?country=Poland	country_result.jsp?country=Poland
173	4517	Romania	Cluj-Napoca	Cluj-Napoca	Cluj-Napoca	https://www.numbeo.com/cost-of-living/city_result.jsp?country=Romania&city=Cluj-Napoca	city_result.jsp?country=Romania&city=Cluj-Napoca	https://www.numbeo.com/cost-of-living/country_result.jsp?country=Romania	country_result.jsp?country=Romania
94	2221	Hungary	Szeged	Szeged	Szeged	https://www.numbeo.com/cost-of-living/city_result.jsp?country=Hungary&city=Szeged	city_result.jsp?country=Hungary&city=Szeged	https://www.numbeo.com/cost-of-living/country_result.jsp?country=Hungary	country_result.jsp?country=Hungary
145	3740	Namibia	Windhoek	Windhoek	Windhoek	https://www.numbeo.com/cost-of-living/city_result.jsp?country=Namibia&city=Windhoek	city_result.jsp?country=Namibia&city=Windhoek	https://www.numbeo.com/cost-of-living/country_result.jsp?country=Namibia	country_result.jsp?country=Namibia
34	795	Bulgaria	Plovdiv	Plovdiv	Plovdiv	https://www.numbeo.com/cost-of-living/city_result.jsp?country=Bulgaria&city=Plovdiv	city_result.jsp?country=Bulgaria&city=Plovdiv	https://www.numbeo.com/cost-of-living/country_result.jsp?country=Bulgaria	country_result.jsp?country=Bulgaria
126	3402	Malaysia	Kota Kinabalu	Kota%20Kinabalu	Kota%20Kinabalu	https://www.numbeo.com/cost-of-living/city_result.jsp?country=Malaysia&city=Kota%20Kinabalu	city_result.jsp?country=Malaysia&city=Kota%20Kinabalu	https://www.numbeo.com/cost-of-living/country_result.jsp?country=Malaysia	country_result.jsp?country=Malaysia
173	4518	Romania	Constanta	Constanta	Constanta	https://www.numbeo.com/cost-of-living/city_result.jsp?country=Romania&city=Constanta	city_result.jsp?country=Romania&city=Constanta	https://www.numbeo.com/cost-of-living/country_result.jsp?country=Romania	country_result.jsp?country=Romania
29	531	Bosnia And Herzegovina	Banja Luka	Banja%20Luka	Banja%20Luka	https://www.numbeo.com/cost-of-living/city_result.jsp?country=Bosnia%20And%20Herzegovina&city=Banja%20Luka	city_result.jsp?country=Bosnia%20And%20Herzegovina&city=Banja%20Luka	https://www.numbeo.com/cost-of-living/country_result.jsp?country=Bosnia%20And%20Herzegovina	country_result.jsp?country=Bosnia%20And%20Herzegovina
144	3728	Myanmar	Yangon	Yangon	Yangon	https://www.numbeo.com/cost-of-living/city_result.jsp?country=Myanmar&city=Yangon	city_result.jsp?country=Myanmar&city=Yangon	https://www.numbeo.com/cost-of-living/country_result.jsp?country=Myanmar	country_result.jsp?country=Myanmar
135	3582	Mexico	Mexico City	Mexico%20City	Mexico%20City	https://www.numbeo.com/cost-of-living/city_result.jsp?country=Mexico&city=Mexico%20City	city_result.jsp?country=Mexico&city=Mexico%20City	https://www.numbeo.com/cost-of-living/country_result.jsp?country=Mexico	country_result.jsp?country=Mexico
126	3416	Malaysia	Penang	Penang	Penang	https://www.numbeo.com/cost-of-living/city_result.jsp?country=Malaysia&city=Penang	city_result.jsp?country=Malaysia&city=Penang	https://www.numbeo.com/cost-of-living/country_result.jsp?country=Malaysia	country_result.jsp?country=Malaysia
173	4510	Romania	Brasov	Brasov	Brasov	https://www.numbeo.com/cost-of-living/city_result.jsp?country=Romania&city=Brasov	city_result.jsp?country=Romania&city=Brasov	https://www.numbeo.com/cost-of-living/country_result.jsp?country=Romania	country_result.jsp?country=Romania
29	554	Bosnia And Herzegovina	Sarajevo	Sarajevo	Sarajevo	https://www.numbeo.com/cost-of-living/city_result.jsp?country=Bosnia%20And%20Herzegovina&city=Sarajevo	city_result.jsp?country=Bosnia%20And%20Herzegovina&city=Sarajevo	https://www.numbeo.com/cost-of-living/country_result.jsp?country=Bosnia%20And%20Herzegovina	country_result.jsp?country=Bosnia%20And%20Herzegovina
167	4319	Poland	Lublin	Lublin	Lublin	https://www.numbeo.com/cost-of-living/city_result.jsp?country=Poland&city=Lublin	city_result.jsp?country=Poland&city=Lublin	https://www.numbeo.com/cost-of-living/country_result.jsp?country=Poland	country_result.jsp?country=Poland
142	3704	Morocco	Tangier	Tangier	Tangier	https://www.numbeo.com/cost-of-living/city_result.jsp?country=Morocco&city=Tangier	city_result.jsp?country=Morocco&city=Tangier	https://www.numbeo.com/cost-of-living/country_result.jsp?country=Morocco	country_result.jsp?country=Morocco
34	777	Bulgaria	Burgas	Burgas	Burgas	https://www.numbeo.com/cost-of-living/city_result.jsp?country=Bulgaria&city=Burgas	city_result.jsp?country=Bulgaria&city=Burgas	https://www.numbeo.com/cost-of-living/country_result.jsp?country=Bulgaria	country_result.jsp?country=Bulgaria
135	3585	Mexico	Monterrey	Monterrey	Monterrey	https://www.numbeo.com/cost-of-living/city_result.jsp?country=Mexico&city=Monterrey	city_result.jsp?country=Mexico&city=Monterrey	https://www.numbeo.com/cost-of-living/country_result.jsp?country=Mexico	country_result.jsp?country=Mexico
98	2616	Iran	Tehran	Tehran	Tehran	https://www.numbeo.com/cost-of-living/city_result.jsp?country=Iran&city=Tehran	city_result.jsp?country=Iran&city=Tehran	https://www.numbeo.com/cost-of-living/country_result.jsp?country=Iran	country_result.jsp?country=Iran
167	4351	Poland	Szczecin	Szczecin	Szczecin	https://www.numbeo.com/cost-of-living/city_result.jsp?country=Poland&city=Szczecin	city_result.jsp?country=Poland&city=Szczecin	https://www.numbeo.com/cost-of-living/country_result.jsp?country=Poland	country_result.jsp?country=Poland
194	4952	South Africa	Durban	Durban	Durban	https://www.numbeo.com/cost-of-living/city_result.jsp?country=South%20Africa&city=Durban	city_result.jsp?country=South%20Africa&city=Durban	https://www.numbeo.com/cost-of-living/country_result.jsp?country=South%20Africa	country_result.jsp?country=South%20Africa
142	3679	Morocco	Casablanca	Casablanca	Casablanca	https://www.numbeo.com/cost-of-living/city_result.jsp?country=Morocco&city=Casablanca	city_result.jsp?country=Morocco&city=Casablanca	https://www.numbeo.com/cost-of-living/country_result.jsp?country=Morocco	country_result.jsp?country=Morocco
185	4819	Serbia	Novi Sad	Novi%20Sad	Novi%20Sad	https://www.numbeo.com/cost-of-living/city_result.jsp?country=Serbia&city=Novi%20Sad	city_result.jsp?country=Serbia&city=Novi%20Sad	https://www.numbeo.com/cost-of-living/country_result.jsp?country=Serbia	country_result.jsp?country=Serbia
167	4305	Poland	Katowice	Katowice	Katowice	https://www.numbeo.com/cost-of-living/city_result.jsp?country=Poland&city=Katowice	city_result.jsp?country=Poland&city=Katowice	https://www.numbeo.com/cost-of-living/country_result.jsp?country=Poland	country_result.jsp?country=Poland
167	4276	Poland	Bialystok	Bialystok	Bialystok	https://www.numbeo.com/cost-of-living/city_result.jsp?country=Poland&city=Bialystok	city_result.jsp?country=Poland&city=Bialystok	https://www.numbeo.com/cost-of-living/country_result.jsp?country=Poland	country_result.jsp?country=Poland
167	4340	Poland	Rzeszow	Rzeszow	Rzeszow	https://www.numbeo.com/cost-of-living/city_result.jsp?country=Poland&city=Rzeszow	city_result.jsp?country=Poland&city=Rzeszow	https://www.numbeo.com/cost-of-living/country_result.jsp?country=Poland	country_result.jsp?country=Poland
11	105	Argentina	Buenos Aires	Buenos%20Aires	Buenos%20Aires	https://www.numbeo.com/cost-of-living/city_result.jsp?country=Argentina&city=Buenos%20Aires	city_result.jsp?country=Argentina&city=Buenos%20Aires	https://www.numbeo.com/cost-of-living/country_result.jsp?country=Argentina	country_result.jsp?country=Argentina
174	4720	Russia	Vladivostok	Vladivostok	Vladivostok	https://www.numbeo.com/cost-of-living/city_result.jsp?country=Russia&city=Vladivostok	city_result.jsp?country=Russia&city=Vladivostok	https://www.numbeo.com/cost-of-living/country_result.jsp?country=Russia	country_result.jsp?country=Russia
165	4172	Peru	Lima	Lima	Lima	https://www.numbeo.com/cost-of-living/city_result.jsp?country=Peru&city=Lima	city_result.jsp?country=Peru&city=Lima	https://www.numbeo.com/cost-of-living/country_result.jsp?country=Peru	country_result.jsp?country=Peru
173	4550	Romania	Sibiu	Sibiu	Sibiu	https://www.numbeo.com/cost-of-living/city_result.jsp?country=Romania&city=Sibiu	city_result.jsp?country=Romania&city=Sibiu	https://www.numbeo.com/cost-of-living/country_result.jsp?country=Romania	country_result.jsp?country=Romania
173	4528	Romania	Iasi	Iasi	Iasi	https://www.numbeo.com/cost-of-living/city_result.jsp?country=Romania&city=Iasi	city_result.jsp?country=Romania&city=Iasi	https://www.numbeo.com/cost-of-living/country_result.jsp?country=Romania	country_result.jsp?country=Romania
229	7560	Vietnam	Ho Chi Minh City	Ho%20Chi%20Minh%20City	Ho%20Chi%20Minh%20City	https://www.numbeo.com/cost-of-living/city_result.jsp?country=Vietnam&city=Ho%20Chi%20Minh%20City	city_result.jsp?country=Vietnam&city=Ho%20Chi%20Minh%20City	https://www.numbeo.com/cost-of-living/country_result.jsp?country=Vietnam	country_result.jsp?country=Vietnam
27	524	Bolivia	La Paz	La%20Paz	La%20Paz	https://www.numbeo.com/cost-of-living/city_result.jsp?country=Bolivia&city=La%20Paz	city_result.jsp?country=Bolivia&city=La%20Paz	https://www.numbeo.com/cost-of-living/country_result.jsp?country=Bolivia	country_result.jsp?country=Bolivia
110	3156	Kenya	Nairobi	Nairobi	Nairobi	https://www.numbeo.com/cost-of-living/city_result.jsp?country=Kenya&city=Nairobi	city_result.jsp?country=Kenya&city=Nairobi	https://www.numbeo.com/cost-of-living/country_result.jsp?country=Kenya	country_result.jsp?country=Kenya
173	4538	Romania	Oradea	Oradea	Oradea	https://www.numbeo.com/cost-of-living/city_result.jsp?country=Romania&city=Oradea	city_result.jsp?country=Romania&city=Oradea	https://www.numbeo.com/cost-of-living/country_result.jsp?country=Romania	country_result.jsp?country=Romania
173	4559	Romania	Timisoara	Timisoara	Timisoara	https://www.numbeo.com/cost-of-living/city_result.jsp?country=Romania&city=Timisoara	city_result.jsp?country=Romania&city=Timisoara	https://www.numbeo.com/cost-of-living/country_result.jsp?country=Romania	country_result.jsp?country=Romania
142	3699	Morocco	Rabat	Rabat	Rabat	https://www.numbeo.com/cost-of-living/city_result.jsp?country=Morocco&city=Rabat	city_result.jsp?country=Morocco&city=Rabat	https://www.numbeo.com/cost-of-living/country_result.jsp?country=Morocco	country_result.jsp?country=Morocco
229	7551	Vietnam	Da Nang	Da%20Nang	Da%20Nang	https://www.numbeo.com/cost-of-living/city_result.jsp?country=Vietnam&city=Da%20Nang	city_result.jsp?country=Vietnam&city=Da%20Nang	https://www.numbeo.com/cost-of-living/country_result.jsp?country=Vietnam	country_result.jsp?country=Vietnam
173	4542	Romania	Ploiesti	Ploiesti	Ploiesti	https://www.numbeo.com/cost-of-living/city_result.jsp?country=Romania&city=Ploiesti	city_result.jsp?country=Romania&city=Ploiesti	https://www.numbeo.com/cost-of-living/country_result.jsp?country=Romania	country_result.jsp?country=Romania
135	3618	Mexico	Tijuana	Tijuana	Tijuana	https://www.numbeo.com/cost-of-living/city_result.jsp?country=Mexico&city=Tijuana	city_result.jsp?country=Mexico&city=Tijuana	https://www.numbeo.com/cost-of-living/country_result.jsp?country=Mexico	country_result.jsp?country=Mexico
143	3714	Mozambique	Maputo	Maputo	Maputo	https://www.numbeo.com/cost-of-living/city_result.jsp?country=Mozambique&city=Maputo	city_result.jsp?country=Mozambique&city=Maputo	https://www.numbeo.com/cost-of-living/country_result.jsp?country=Mozambique	country_result.jsp?country=Mozambique
229	7559	Vietnam	Hanoi	Hanoi	Hanoi	https://www.numbeo.com/cost-of-living/city_result.jsp?country=Vietnam&city=Hanoi	city_result.jsp?country=Vietnam&city=Hanoi	https://www.numbeo.com/cost-of-living/country_result.jsp?country=Vietnam	country_result.jsp?country=Vietnam
97	2574	Indonesia	Surabaya	Surabaya	Surabaya	https://www.numbeo.com/cost-of-living/city_result.jsp?country=Indonesia&city=Surabaya	city_result.jsp?country=Indonesia&city=Surabaya	https://www.numbeo.com/cost-of-living/country_result.jsp?country=Indonesia	country_result.jsp?country=Indonesia
135	3539	Mexico	Cancun	Cancun	Cancun	https://www.numbeo.com/cost-of-living/city_result.jsp?country=Mexico&city=Cancun	city_result.jsp?country=Mexico&city=Cancun	https://www.numbeo.com/cost-of-living/country_result.jsp?country=Mexico	country_result.jsp?country=Mexico
173	4501	Romania	Arad	Arad	Arad	https://www.numbeo.com/cost-of-living/city_result.jsp?country=Romania&city=Arad	city_result.jsp?country=Romania&city=Arad	https://www.numbeo.com/cost-of-living/country_result.jsp?country=Romania	country_result.jsp?country=Romania
155	3970	North Macedonia	Skopje	Skopje	Skopje	https://www.numbeo.com/cost-of-living/city_result.jsp?country=North%20Macedonia&city=Skopje	city_result.jsp?country=North%20Macedonia&city=Skopje	https://www.numbeo.com/cost-of-living/country_result.jsp?country=North%20Macedonia	country_result.jsp?country=North%20Macedonia
97	2537	Indonesia	Bandung	Bandung	Bandung	https://www.numbeo.com/cost-of-living/city_result.jsp?country=Indonesia&city=Bandung	city_result.jsp?country=Indonesia&city=Bandung	https://www.numbeo.com/cost-of-living/country_result.jsp?country=Indonesia	country_result.jsp?country=Indonesia
173	4519	Romania	Craiova	Craiova	Craiova	https://www.numbeo.com/cost-of-living/city_result.jsp?country=Romania&city=Craiova	city_result.jsp?country=Romania&city=Craiova	https://www.numbeo.com/cost-of-living/country_result.jsp?country=Romania	country_result.jsp?country=Romania
135	3580	Mexico	Merida	Merida	Merida	https://www.numbeo.com/cost-of-living/city_result.jsp?country=Mexico&city=Merida	city_result.jsp?country=Mexico&city=Merida	https://www.numbeo.com/cost-of-living/country_result.jsp?country=Mexico	country_result.jsp?country=Mexico
142	3676	Morocco	Agadir	Agadir	Agadir	https://www.numbeo.com/cost-of-living/city_result.jsp?country=Morocco&city=Agadir	city_result.jsp?country=Morocco&city=Agadir	https://www.numbeo.com/cost-of-living/country_result.jsp?country=Morocco	country_result.jsp?country=Morocco
31	738	Brazil	Sao Paulo	Sao%20Paulo	Sao%20Paulo	https://www.numbeo.com/cost-of-living/city_result.jsp?country=Brazil&city=Sao%20Paulo	city_result.jsp?country=Brazil&city=Sao%20Paulo	https://www.numbeo.com/cost-of-living/country_result.jsp?country=Brazil	country_result.jsp?country=Brazil
174	4677	Russia	Saint Petersburg	Saint%20Petersburg	Saint%20Petersburg	https://www.numbeo.com/cost-of-living/city_result.jsp?country=Russia&city=Saint%20Petersburg	city_result.jsp?country=Russia&city=Saint%20Petersburg	https://www.numbeo.com/cost-of-living/country_result.jsp?country=Russia	country_result.jsp?country=Russia
135	3598	Mexico	Queretaro	Queretaro	Queretaro	https://www.numbeo.com/cost-of-living/city_result.jsp?country=Mexico&city=Queretaro	city_result.jsp?country=Mexico&city=Queretaro	https://www.numbeo.com/cost-of-living/country_result.jsp?country=Mexico	country_result.jsp?country=Mexico
135	3597	Mexico	Puerto Vallarta	Puerto%20Vallarta	Puerto%20Vallarta	https://www.numbeo.com/cost-of-living/city_result.jsp?country=Mexico&city=Puerto%20Vallarta	city_result.jsp?country=Mexico&city=Puerto%20Vallarta	https://www.numbeo.com/cost-of-living/country_result.jsp?country=Mexico	country_result.jsp?country=Mexico
207	5452	Tanzania	Dar es Salaam	Dar%20es%20Salaam	Dar%20es%20Salaam	https://www.numbeo.com/cost-of-living/city_result.jsp?country=Tanzania&city=Dar%20es%20Salaam	city_result.jsp?country=Tanzania&city=Dar%20es%20Salaam	https://www.numbeo.com/cost-of-living/country_result.jsp?country=Tanzania	country_result.jsp?country=Tanzania
135	3532	Mexico	Aguascalientes	Aguascalientes	Aguascalientes	https://www.numbeo.com/cost-of-living/city_result.jsp?country=Mexico&city=Aguascalientes	city_result.jsp?country=Mexico&city=Aguascalientes	https://www.numbeo.com/cost-of-living/country_result.jsp?country=Mexico	country_result.jsp?country=Mexico
152	3934	Nigeria	Lagos	Lagos	Lagos	https://www.numbeo.com/cost-of-living/city_result.jsp?country=Nigeria&city=Lagos	city_result.jsp?country=Nigeria&city=Lagos	https://www.numbeo.com/cost-of-living/country_result.jsp?country=Nigeria	country_result.jsp?country=Nigeria
99	2641	Iraq	Erbil (Irbil)	Erbil%20%28Irbil%29	Erbil%20%28Irbil%29	https://www.numbeo.com/cost-of-living/city_result.jsp?country=Iraq&city=Erbil%20%28Irbil%29	city_result.jsp?country=Iraq&city=Erbil%20%28Irbil%29	https://www.numbeo.com/cost-of-living/country_result.jsp?country=Iraq	country_result.jsp?country=Iraq
60	1513	Ecuador	Cuenca	Cuenca	Cuenca	https://www.numbeo.com/cost-of-living/city_result.jsp?country=Ecuador&city=Cuenca	city_result.jsp?country=Ecuador&city=Cuenca	https://www.numbeo.com/cost-of-living/country_result.jsp?country=Ecuador	country_result.jsp?country=Ecuador
135	3564	Mexico	Guadalajara	Guadalajara	Guadalajara	https://www.numbeo.com/cost-of-living/city_result.jsp?country=Mexico&city=Guadalajara	city_result.jsp?country=Mexico&city=Guadalajara	https://www.numbeo.com/cost-of-living/country_result.jsp?country=Mexico	country_result.jsp?country=Mexico
218	5686	Uganda	Kampala	Kampala	Kampala	https://www.numbeo.com/cost-of-living/city_result.jsp?country=Uganda&city=Kampala	city_result.jsp?country=Uganda&city=Kampala	https://www.numbeo.com/cost-of-living/country_result.jsp?country=Uganda	country_result.jsp?country=Uganda
19	386	Bangladesh	Dhaka	Dhaka	Dhaka	https://www.numbeo.com/cost-of-living/city_result.jsp?country=Bangladesh&city=Dhaka	city_result.jsp?country=Bangladesh&city=Dhaka	https://www.numbeo.com/cost-of-living/country_result.jsp?country=Bangladesh	country_result.jsp?country=Bangladesh
185	4817	Serbia	Nis	Nis	Nis	https://www.numbeo.com/cost-of-living/city_result.jsp?country=Serbia&city=Nis	city_result.jsp?country=Serbia&city=Nis	https://www.numbeo.com/cost-of-living/country_result.jsp?country=Serbia	country_result.jsp?country=Serbia
31	610	Brazil	Campinas	Campinas	Campinas	https://www.numbeo.com/cost-of-living/city_result.jsp?country=Brazil&city=Campinas	city_result.jsp?country=Brazil&city=Campinas	https://www.numbeo.com/cost-of-living/country_result.jsp?country=Brazil	country_result.jsp?country=Brazil
97	2584	Indonesia	Yogyakarta	Yogyakarta	Yogyakarta	https://www.numbeo.com/cost-of-living/city_result.jsp?country=Indonesia&city=Yogyakarta	city_result.jsp?country=Indonesia&city=Yogyakarta	https://www.numbeo.com/cost-of-living/country_result.jsp?country=Indonesia	country_result.jsp?country=Indonesia
214	5622	Turkey	Istanbul	Istanbul	Istanbul	https://www.numbeo.com/cost-of-living/city_result.jsp?country=Turkey&city=Istanbul	city_result.jsp?country=Turkey&city=Istanbul	https://www.numbeo.com/cost-of-living/country_result.jsp?country=Turkey	country_result.jsp?country=Turkey
198	5190	Sri Lanka	Colombo	Colombo	Colombo	https://www.numbeo.com/cost-of-living/city_result.jsp?country=Sri%20Lanka&city=Colombo	city_result.jsp?country=Sri%20Lanka&city=Colombo	https://www.numbeo.com/cost-of-living/country_result.jsp?country=Sri%20Lanka	country_result.jsp?country=Sri%20Lanka
175	4741	Rwanda	Kigali	Kigali	Kigali	https://www.numbeo.com/cost-of-living/city_result.jsp?country=Rwanda&city=Kigali	city_result.jsp?country=Rwanda&city=Kigali	https://www.numbeo.com/cost-of-living/country_result.jsp?country=Rwanda	country_result.jsp?country=Rwanda
204	5408	Syria	Damascus	Damascus	Damascus	https://www.numbeo.com/cost-of-living/city_result.jsp?country=Syria&city=Damascus	city_result.jsp?country=Syria&city=Damascus	https://www.numbeo.com/cost-of-living/country_result.jsp?country=Syria	country_result.jsp?country=Syria
137	3639	Moldova	Chisinau	Chisinau	Chisinau	https://www.numbeo.com/cost-of-living/city_result.jsp?country=Moldova&city=Chisinau	city_result.jsp?country=Moldova&city=Chisinau	https://www.numbeo.com/cost-of-living/country_result.jsp?country=Moldova	country_result.jsp?country=Moldova
31	604	Brazil	Brasilia	Brasilia	Brasilia	https://www.numbeo.com/cost-of-living/city_result.jsp?country=Brazil&city=Brasilia	city_result.jsp?country=Brazil&city=Brasilia	https://www.numbeo.com/cost-of-living/country_result.jsp?country=Brazil	country_result.jsp?country=Brazil
213	5552	Tunisia	Al Marsa	Al%20Marsa	Al%20Marsa	https://www.numbeo.com/cost-of-living/city_result.jsp?country=Tunisia&city=Al%20Marsa	city_result.jsp?country=Tunisia&city=Al%20Marsa	https://www.numbeo.com/cost-of-living/country_result.jsp?country=Tunisia	country_result.jsp?country=Tunisia
174	4648	Russia	Nizhny Novgorod	Nizhny%20Novgorod	Nizhny%20Novgorod	https://www.numbeo.com/cost-of-living/city_result.jsp?country=Russia&city=Nizhny%20Novgorod	city_result.jsp?country=Russia&city=Nizhny%20Novgorod	https://www.numbeo.com/cost-of-living/country_result.jsp?country=Russia	country_result.jsp?country=Russia
99	2637	Iraq	Baghdad	Baghdad	Baghdad	https://www.numbeo.com/cost-of-living/city_result.jsp?country=Iraq&city=Baghdad	city_result.jsp?country=Iraq&city=Baghdad	https://www.numbeo.com/cost-of-living/country_result.jsp?country=Iraq	country_result.jsp?country=Iraq
174	4709	Russia	Tyumen	Tyumen	Tyumen	https://www.numbeo.com/cost-of-living/city_result.jsp?country=Russia&city=Tyumen	city_result.jsp?country=Russia&city=Tyumen	https://www.numbeo.com/cost-of-living/country_result.jsp?country=Russia	country_result.jsp?country=Russia
31	722	Brazil	Rio de Janeiro	Rio%20de%20Janeiro	Rio%20de%20Janeiro	https://www.numbeo.com/cost-of-living/city_result.jsp?country=Brazil&city=Rio%20de%20Janeiro	city_result.jsp?country=Brazil&city=Rio%20de%20Janeiro	https://www.numbeo.com/cost-of-living/country_result.jsp?country=Brazil	country_result.jsp?country=Brazil
139	3656	Mongolia	Ulaanbaatar	Ulaanbaatar	Ulaanbaatar	https://www.numbeo.com/cost-of-living/city_result.jsp?country=Mongolia&city=Ulaanbaatar	city_result.jsp?country=Mongolia&city=Ulaanbaatar	https://www.numbeo.com/cost-of-living/country_result.jsp?country=Mongolia	country_result.jsp?country=Mongolia
174	4678	Russia	Samara	Samara	Samara	https://www.numbeo.com/cost-of-living/city_result.jsp?country=Russia&city=Samara	city_result.jsp?country=Russia&city=Samara	https://www.numbeo.com/cost-of-living/country_result.jsp?country=Russia	country_result.jsp?country=Russia
135	3594	Mexico	Puebla	Puebla	Puebla	https://www.numbeo.com/cost-of-living/city_result.jsp?country=Mexico&city=Puebla	city_result.jsp?country=Mexico&city=Puebla	https://www.numbeo.com/cost-of-living/country_result.jsp?country=Mexico	country_result.jsp?country=Mexico
46	1211	Colombia	Bogota	Bogota	Bogota	https://www.numbeo.com/cost-of-living/city_result.jsp?country=Colombia&city=Bogota	city_result.jsp?country=Colombia&city=Bogota	https://www.numbeo.com/cost-of-living/country_result.jsp?country=Colombia	country_result.jsp?country=Colombia
135	3631	Mexico	Zapopan	Zapopan	Zapopan	https://www.numbeo.com/cost-of-living/city_result.jsp?country=Mexico&city=Zapopan	city_result.jsp?country=Mexico&city=Zapopan	https://www.numbeo.com/cost-of-living/country_result.jsp?country=Mexico	country_result.jsp?country=Mexico
174	4603	Russia	Irkutsk	Irkutsk	Irkutsk	https://www.numbeo.com/cost-of-living/city_result.jsp?country=Russia&city=Irkutsk	city_result.jsp?country=Russia&city=Irkutsk	https://www.numbeo.com/cost-of-living/country_result.jsp?country=Russia	country_result.jsp?country=Russia
96	2349	India	Gurgaon	Gurgaon	Gurgaon	https://www.numbeo.com/cost-of-living/city_result.jsp?country=India&city=Gurgaon	city_result.jsp?country=India&city=Gurgaon	https://www.numbeo.com/cost-of-living/country_result.jsp?country=India	country_result.jsp?country=India
174	4674	Russia	Rostov-na-donu	Rostov-na-donu	Rostov-na-donu	https://www.numbeo.com/cost-of-living/city_result.jsp?country=Russia&city=Rostov-na-donu	city_result.jsp?country=Russia&city=Rostov-na-donu	https://www.numbeo.com/cost-of-living/country_result.jsp?country=Russia	country_result.jsp?country=Russia
16	329	Azerbaijan	Baku	Baku	Baku	https://www.numbeo.com/cost-of-living/city_result.jsp?country=Azerbaijan&city=Baku	city_result.jsp?country=Azerbaijan&city=Baku	https://www.numbeo.com/cost-of-living/country_result.jsp?country=Azerbaijan	country_result.jsp?country=Azerbaijan
174	4607	Russia	Kaliningrad	Kaliningrad	Kaliningrad	https://www.numbeo.com/cost-of-living/city_result.jsp?country=Russia&city=Kaliningrad	city_result.jsp?country=Russia&city=Kaliningrad	https://www.numbeo.com/cost-of-living/country_result.jsp?country=Russia	country_result.jsp?country=Russia
31	639	Brazil	Florianopolis	Florianopolis	Florianopolis	https://www.numbeo.com/cost-of-living/city_result.jsp?country=Brazil&city=Florianopolis	city_result.jsp?country=Brazil&city=Florianopolis	https://www.numbeo.com/cost-of-living/country_result.jsp?country=Brazil	country_result.jsp?country=Brazil
19	383	Bangladesh	Chittagong	Chittagong	Chittagong	https://www.numbeo.com/cost-of-living/city_result.jsp?country=Bangladesh&city=Chittagong	city_result.jsp?country=Bangladesh&city=Chittagong	https://www.numbeo.com/cost-of-living/country_result.jsp?country=Bangladesh	country_result.jsp?country=Bangladesh
61	1549	Egypt	Cairo	Cairo	Cairo	https://www.numbeo.com/cost-of-living/city_result.jsp?country=Egypt&city=Cairo	city_result.jsp?country=Egypt&city=Cairo	https://www.numbeo.com/cost-of-living/country_result.jsp?country=Egypt	country_result.jsp?country=Egypt
174	4625	Russia	Krasnoyarsk	Krasnoyarsk	Krasnoyarsk	https://www.numbeo.com/cost-of-living/city_result.jsp?country=Russia&city=Krasnoyarsk	city_result.jsp?country=Russia&city=Krasnoyarsk	https://www.numbeo.com/cost-of-living/country_result.jsp?country=Russia	country_result.jsp?country=Russia
109	3121	Kazakhstan	Astana (Nur-Sultan)	Astana%20%28Nur-Sultan%29	Astana%20%28Nur-Sultan%29	https://www.numbeo.com/cost-of-living/city_result.jsp?country=Kazakhstan&city=Astana%20%28Nur-Sultan%29	city_result.jsp?country=Kazakhstan&city=Astana%20%28Nur-Sultan%29	https://www.numbeo.com/cost-of-living/country_result.jsp?country=Kazakhstan	country_result.jsp?country=Kazakhstan
31	599	Brazil	Belo Horizonte	Belo%20Horizonte	Belo%20Horizonte	https://www.numbeo.com/cost-of-living/city_result.jsp?country=Brazil&city=Belo%20Horizonte	city_result.jsp?country=Brazil&city=Belo%20Horizonte	https://www.numbeo.com/cost-of-living/country_result.jsp?country=Brazil	country_result.jsp?country=Brazil
21	428	Belarus	Minsk	Minsk	Minsk	https://www.numbeo.com/cost-of-living/city_result.jsp?country=Belarus&city=Minsk	city_result.jsp?country=Belarus&city=Minsk	https://www.numbeo.com/cost-of-living/country_result.jsp?country=Belarus	country_result.jsp?country=Belarus
12	153	Armenia	Yerevan	Yerevan	Yerevan	https://www.numbeo.com/cost-of-living/city_result.jsp?country=Armenia&city=Yerevan	city_result.jsp?country=Armenia&city=Yerevan	https://www.numbeo.com/cost-of-living/country_result.jsp?country=Armenia	country_result.jsp?country=Armenia
213	5582	Tunisia	Tunis	Tunis	Tunis	https://www.numbeo.com/cost-of-living/city_result.jsp?country=Tunisia&city=Tunis	city_result.jsp?country=Tunisia&city=Tunis	https://www.numbeo.com/cost-of-living/country_result.jsp?country=Tunisia	country_result.jsp?country=Tunisia
174	4656	Russia	Novosibirsk	Novosibirsk	Novosibirsk	https://www.numbeo.com/cost-of-living/city_result.jsp?country=Russia&city=Novosibirsk	city_result.jsp?country=Russia&city=Novosibirsk	https://www.numbeo.com/cost-of-living/country_result.jsp?country=Russia	country_result.jsp?country=Russia
219	5720	Ukraine	Kiev (Kyiv)	Kiev%20%28Kyiv%29	Kiev%20%28Kyiv%29	https://www.numbeo.com/cost-of-living/city_result.jsp?country=Ukraine&city=Kiev%20%28Kyiv%29	city_result.jsp?country=Ukraine&city=Kiev%20%28Kyiv%29	https://www.numbeo.com/cost-of-living/country_result.jsp?country=Ukraine	country_result.jsp?country=Ukraine
31	708	Brazil	Porto Alegre	Porto%20Alegre	Porto%20Alegre	https://www.numbeo.com/cost-of-living/city_result.jsp?country=Brazil&city=Porto%20Alegre	city_result.jsp?country=Brazil&city=Porto%20Alegre	https://www.numbeo.com/cost-of-living/country_result.jsp?country=Brazil	country_result.jsp?country=Brazil
174	4732	Russia	Yekaterinburg	Yekaterinburg	Yekaterinburg	https://www.numbeo.com/cost-of-living/city_result.jsp?country=Russia&city=Yekaterinburg	city_result.jsp?country=Russia&city=Yekaterinburg	https://www.numbeo.com/cost-of-living/country_result.jsp?country=Russia	country_result.jsp?country=Russia
46	1226	Colombia	Medellin	Medellin	Medellin	https://www.numbeo.com/cost-of-living/city_result.jsp?country=Colombia&city=Medellin	city_result.jsp?country=Colombia&city=Medellin	https://www.numbeo.com/cost-of-living/country_result.jsp?country=Colombia	country_result.jsp?country=Colombia
46	1209	Colombia	Barranquilla	Barranquilla	Barranquilla	https://www.numbeo.com/cost-of-living/city_result.jsp?country=Colombia&city=Barranquilla	city_result.jsp?country=Colombia&city=Barranquilla	https://www.numbeo.com/cost-of-living/country_result.jsp?country=Colombia	country_result.jsp?country=Colombia
214	5592	Turkey	Ankara	Ankara	Ankara	https://www.numbeo.com/cost-of-living/city_result.jsp?country=Turkey&city=Ankara	city_result.jsp?country=Turkey&city=Ankara	https://www.numbeo.com/cost-of-living/country_result.jsp?country=Turkey	country_result.jsp?country=Turkey
31	640	Brazil	Fortaleza	Fortaleza	Fortaleza	https://www.numbeo.com/cost-of-living/city_result.jsp?country=Brazil&city=Fortaleza	city_result.jsp?country=Brazil&city=Fortaleza	https://www.numbeo.com/cost-of-living/country_result.jsp?country=Brazil	country_result.jsp?country=Brazil
174	4710	Russia	Ufa	Ufa	Ufa	https://www.numbeo.com/cost-of-living/city_result.jsp?country=Russia&city=Ufa	city_result.jsp?country=Russia&city=Ufa	https://www.numbeo.com/cost-of-living/country_result.jsp?country=Russia	country_result.jsp?country=Russia
174	4666	Russia	Perm	Perm	Perm	https://www.numbeo.com/cost-of-living/city_result.jsp?country=Russia&city=Perm	city_result.jsp?country=Russia&city=Perm	https://www.numbeo.com/cost-of-living/country_result.jsp?country=Russia	country_result.jsp?country=Russia
31	715	Brazil	Recife	Recife	Recife	https://www.numbeo.com/cost-of-living/city_result.jsp?country=Brazil&city=Recife	city_result.jsp?country=Brazil&city=Recife	https://www.numbeo.com/cost-of-living/country_result.jsp?country=Brazil	country_result.jsp?country=Brazil
174	4726	Russia	Voronezh	Voronezh	Voronezh	https://www.numbeo.com/cost-of-living/city_result.jsp?country=Russia&city=Voronezh	city_result.jsp?country=Russia&city=Voronezh	https://www.numbeo.com/cost-of-living/country_result.jsp?country=Russia	country_result.jsp?country=Russia
214	5603	Turkey	Bursa	Bursa	Bursa	https://www.numbeo.com/cost-of-living/city_result.jsp?country=Turkey&city=Bursa	city_result.jsp?country=Turkey&city=Bursa	https://www.numbeo.com/cost-of-living/country_result.jsp?country=Turkey	country_result.jsp?country=Turkey
164	4149	Paraguay	Asuncion	Asuncion	Asuncion	https://www.numbeo.com/cost-of-living/city_result.jsp?country=Paraguay&city=Asuncion	city_result.jsp?country=Paraguay&city=Asuncion	https://www.numbeo.com/cost-of-living/country_result.jsp?country=Paraguay	country_result.jsp?country=Paraguay
174	4661	Russia	Omsk	Omsk	Omsk	https://www.numbeo.com/cost-of-living/city_result.jsp?country=Russia&city=Omsk	city_result.jsp?country=Russia&city=Omsk	https://www.numbeo.com/cost-of-living/country_result.jsp?country=Russia	country_result.jsp?country=Russia
214	5623	Turkey	Izmir	Izmir	Izmir	https://www.numbeo.com/cost-of-living/city_result.jsp?country=Turkey&city=Izmir	city_result.jsp?country=Turkey&city=Izmir	https://www.numbeo.com/cost-of-living/country_result.jsp?country=Turkey	country_result.jsp?country=Turkey
146	3760	Nepal	Kathmandu	Kathmandu	Kathmandu	https://www.numbeo.com/cost-of-living/city_result.jsp?country=Nepal&city=Kathmandu	city_result.jsp?country=Nepal&city=Kathmandu	https://www.numbeo.com/cost-of-living/country_result.jsp?country=Nepal	country_result.jsp?country=Nepal
174	4623	Russia	Krasnodar	Krasnodar	Krasnodar	https://www.numbeo.com/cost-of-living/city_result.jsp?country=Russia&city=Krasnodar	city_result.jsp?country=Russia&city=Krasnodar	https://www.numbeo.com/cost-of-living/country_result.jsp?country=Russia	country_result.jsp?country=Russia
219	5741	Ukraine	Odessa (Odesa)	Odessa%20%28Odesa%29	Odessa%20%28Odesa%29	https://www.numbeo.com/cost-of-living/city_result.jsp?country=Ukraine&city=Odessa%20%28Odesa%29	city_result.jsp?country=Ukraine&city=Odessa%20%28Odesa%29	https://www.numbeo.com/cost-of-living/country_result.jsp?country=Ukraine	country_result.jsp?country=Ukraine
174	4610	Russia	Kazan	Kazan	Kazan	https://www.numbeo.com/cost-of-living/city_result.jsp?country=Russia&city=Kazan	city_result.jsp?country=Russia&city=Kazan	https://www.numbeo.com/cost-of-living/country_result.jsp?country=Russia	country_result.jsp?country=Russia
174	4705	Russia	Tomsk	Tomsk	Tomsk	https://www.numbeo.com/cost-of-living/city_result.jsp?country=Russia&city=Tomsk	city_result.jsp?country=Russia&city=Tomsk	https://www.numbeo.com/cost-of-living/country_result.jsp?country=Russia	country_result.jsp?country=Russia
31	630	Brazil	Curitiba	Curitiba	Curitiba	https://www.numbeo.com/cost-of-living/city_result.jsp?country=Brazil&city=Curitiba	city_result.jsp?country=Brazil&city=Curitiba	https://www.numbeo.com/cost-of-living/country_result.jsp?country=Brazil	country_result.jsp?country=Brazil
174	4722	Russia	Volgograd	Volgograd	Volgograd	https://www.numbeo.com/cost-of-living/city_result.jsp?country=Russia&city=Volgograd	city_result.jsp?country=Russia&city=Volgograd	https://www.numbeo.com/cost-of-living/country_result.jsp?country=Russia	country_result.jsp?country=Russia
174	4681	Russia	Saratov	Saratov	Saratov	https://www.numbeo.com/cost-of-living/city_result.jsp?country=Russia&city=Saratov	city_result.jsp?country=Russia&city=Saratov	https://www.numbeo.com/cost-of-living/country_result.jsp?country=Russia	country_result.jsp?country=Russia
96	2312	India	Chandigarh	Chandigarh	Chandigarh	https://www.numbeo.com/cost-of-living/city_result.jsp?country=India&city=Chandigarh	city_result.jsp?country=India&city=Chandigarh	https://www.numbeo.com/cost-of-living/country_result.jsp?country=India	country_result.jsp?country=India
5	42	Algeria	Algiers	Algiers	Algiers	https://www.numbeo.com/cost-of-living/city_result.jsp?country=Algeria&city=Algiers	city_result.jsp?country=Algeria&city=Algiers	https://www.numbeo.com/cost-of-living/country_result.jsp?country=Algeria	country_result.jsp?country=Algeria
174	4586	Russia	Chelyabinsk	Chelyabinsk	Chelyabinsk	https://www.numbeo.com/cost-of-living/city_result.jsp?country=Russia&city=Chelyabinsk	city_result.jsp?country=Russia&city=Chelyabinsk	https://www.numbeo.com/cost-of-living/country_result.jsp?country=Russia	country_result.jsp?country=Russia
232	7596	Zambia	Lusaka	Lusaka	Lusaka	https://www.numbeo.com/cost-of-living/city_result.jsp?country=Zambia&city=Lusaka	city_result.jsp?country=Zambia&city=Lusaka	https://www.numbeo.com/cost-of-living/country_result.jsp?country=Zambia	country_result.jsp?country=Zambia
31	685	Brazil	Natal	Natal	Natal	https://www.numbeo.com/cost-of-living/city_result.jsp?country=Brazil&city=Natal	city_result.jsp?country=Brazil&city=Natal	https://www.numbeo.com/cost-of-living/country_result.jsp?country=Brazil	country_result.jsp?country=Brazil
96	2426	India	Mumbai	Mumbai	Mumbai	https://www.numbeo.com/cost-of-living/city_result.jsp?country=India&city=Mumbai	city_result.jsp?country=India&city=Mumbai	https://www.numbeo.com/cost-of-living/country_result.jsp?country=India	country_result.jsp?country=India
219	5717	Ukraine	Kharkiv	Kharkiv	Kharkiv	https://www.numbeo.com/cost-of-living/city_result.jsp?country=Ukraine&city=Kharkiv	city_result.jsp?country=Ukraine&city=Kharkiv	https://www.numbeo.com/cost-of-living/country_result.jsp?country=Ukraine	country_result.jsp?country=Ukraine
109	3120	Kazakhstan	Almaty	Almaty	Almaty	https://www.numbeo.com/cost-of-living/city_result.jsp?country=Kazakhstan&city=Almaty	city_result.jsp?country=Kazakhstan&city=Almaty	https://www.numbeo.com/cost-of-living/country_result.jsp?country=Kazakhstan	country_result.jsp?country=Kazakhstan
31	644	Brazil	Goiania	Goiania	Goiania	https://www.numbeo.com/cost-of-living/city_result.jsp?country=Brazil&city=Goiania	city_result.jsp?country=Brazil&city=Goiania	https://www.numbeo.com/cost-of-living/country_result.jsp?country=Brazil	country_result.jsp?country=Brazil
214	5594	Turkey	Antalya	Antalya	Antalya	https://www.numbeo.com/cost-of-living/city_result.jsp?country=Turkey&city=Antalya	city_result.jsp?country=Turkey&city=Antalya	https://www.numbeo.com/cost-of-living/country_result.jsp?country=Turkey	country_result.jsp?country=Turkey
46	1214	Colombia	Cali	Cali	Cali	https://www.numbeo.com/cost-of-living/city_result.jsp?country=Colombia&city=Cali	city_result.jsp?country=Colombia&city=Cali	https://www.numbeo.com/cost-of-living/country_result.jsp?country=Colombia	country_result.jsp?country=Colombia
96	2343	India	Goa	Goa	Goa	https://www.numbeo.com/cost-of-living/city_result.jsp?country=India&city=Goa	city_result.jsp?country=India&city=Goa	https://www.numbeo.com/cost-of-living/country_result.jsp?country=India	country_result.jsp?country=India
174	4606	Russia	Izhevsk	Izhevsk	Izhevsk	https://www.numbeo.com/cost-of-living/city_result.jsp?country=Russia&city=Izhevsk	city_result.jsp?country=Russia&city=Izhevsk	https://www.numbeo.com/cost-of-living/country_result.jsp?country=Russia	country_result.jsp?country=Russia
31	723	Brazil	Salvador	Salvador	Salvador	https://www.numbeo.com/cost-of-living/city_result.jsp?country=Brazil&city=Salvador	city_result.jsp?country=Brazil&city=Salvador	https://www.numbeo.com/cost-of-living/country_result.jsp?country=Brazil	country_result.jsp?country=Brazil
219	5708	Ukraine	Dnipro	Dnipro	Dnipro	https://www.numbeo.com/cost-of-living/city_result.jsp?country=Ukraine&city=Dnipro	city_result.jsp?country=Ukraine&city=Dnipro	https://www.numbeo.com/cost-of-living/country_result.jsp?country=Ukraine	country_result.jsp?country=Ukraine
219	5732	Ukraine	Lviv	Lviv	Lviv	https://www.numbeo.com/cost-of-living/city_result.jsp?country=Ukraine&city=Lviv	city_result.jsp?country=Ukraine&city=Lviv	https://www.numbeo.com/cost-of-living/country_result.jsp?country=Ukraine	country_result.jsp?country=Ukraine
219	5737	Ukraine	Mykolaiv	Mykolaiv	Mykolaiv	https://www.numbeo.com/cost-of-living/city_result.jsp?country=Ukraine&city=Mykolaiv	city_result.jsp?country=Ukraine&city=Mykolaiv	https://www.numbeo.com/cost-of-living/country_result.jsp?country=Ukraine	country_result.jsp?country=Ukraine
219	5752	Ukraine	Vinnytsia	Vinnytsia	Vinnytsia	https://www.numbeo.com/cost-of-living/city_result.jsp?country=Ukraine&city=Vinnytsia	city_result.jsp?country=Ukraine&city=Vinnytsia	https://www.numbeo.com/cost-of-living/country_result.jsp?country=Ukraine	country_result.jsp?country=Ukraine
77	1850	Georgia	Tbilisi	Tbilisi	Tbilisi	https://www.numbeo.com/cost-of-living/city_result.jsp?country=Georgia&city=Tbilisi	city_result.jsp?country=Georgia&city=Tbilisi	https://www.numbeo.com/cost-of-living/country_result.jsp?country=Georgia	country_result.jsp?country=Georgia
61	1543	Egypt	Alexandria	Alexandria	Alexandria	https://www.numbeo.com/cost-of-living/city_result.jsp?country=Egypt&city=Alexandria	city_result.jsp?country=Egypt&city=Alexandria	https://www.numbeo.com/cost-of-living/country_result.jsp?country=Egypt	country_result.jsp?country=Egypt
96	2444	India	Noida	Noida	Noida	https://www.numbeo.com/cost-of-living/city_result.jsp?country=India&city=Noida	city_result.jsp?country=India&city=Noida	https://www.numbeo.com/cost-of-living/country_result.jsp?country=India	country_result.jsp?country=India
111	3169	Kosovo (Disputed Territory)	Pristina	Pristina	Pristina	https://www.numbeo.com/cost-of-living/city_result.jsp?country=Kosovo%20%28Disputed%20Territory%29&city=Pristina	city_result.jsp?country=Kosovo%20%28Disputed%20Territory%29&city=Pristina	https://www.numbeo.com/cost-of-living/country_result.jsp?country=Kosovo%20%28Disputed%20Territory%29	country_result.jsp?country=Kosovo%20%28Disputed%20Territory%29
46	1212	Colombia	Bucaramanga	Bucaramanga	Bucaramanga	https://www.numbeo.com/cost-of-living/city_result.jsp?country=Colombia&city=Bucaramanga	city_result.jsp?country=Colombia&city=Bucaramanga	https://www.numbeo.com/cost-of-living/country_result.jsp?country=Colombia	country_result.jsp?country=Colombia
225	7512	Uzbekistan	Tashkent	Tashkent	Tashkent	https://www.numbeo.com/cost-of-living/city_result.jsp?country=Uzbekistan&city=Tashkent	city_result.jsp?country=Uzbekistan&city=Tashkent	https://www.numbeo.com/cost-of-living/country_result.jsp?country=Uzbekistan	country_result.jsp?country=Uzbekistan
96	2288	India	Bangalore	Bangalore	Bangalore	https://www.numbeo.com/cost-of-living/city_result.jsp?country=India&city=Bangalore	city_result.jsp?country=India&city=Bangalore	https://www.numbeo.com/cost-of-living/country_result.jsp?country=India	country_result.jsp?country=India
219	5714	Ukraine	Ivano-Frankivsk	Ivano-Frankivsk	Ivano-Frankivsk	https://www.numbeo.com/cost-of-living/city_result.jsp?country=Ukraine&city=Ivano-Frankivsk	city_result.jsp?country=Ukraine&city=Ivano-Frankivsk	https://www.numbeo.com/cost-of-living/country_result.jsp?country=Ukraine	country_result.jsp?country=Ukraine
219	5753	Ukraine	Zaporizhzhya	Zaporizhzhya	Zaporizhzhya	https://www.numbeo.com/cost-of-living/city_result.jsp?country=Ukraine&city=Zaporizhzhya	city_result.jsp?country=Ukraine&city=Zaporizhzhya	https://www.numbeo.com/cost-of-living/country_result.jsp?country=Ukraine	country_result.jsp?country=Ukraine
96	2328	India	Delhi	Delhi	Delhi	https://www.numbeo.com/cost-of-living/city_result.jsp?country=India&city=Delhi	city_result.jsp?country=India&city=Delhi	https://www.numbeo.com/cost-of-living/country_result.jsp?country=India	country_result.jsp?country=India
77	1839	Georgia	Batumi, Ajara	Batumi%2C%20Ajara	Batumi%2C%20Ajara	https://www.numbeo.com/cost-of-living/city_result.jsp?country=Georgia&city=Batumi%2C%20Ajara	city_result.jsp?country=Georgia&city=Batumi%2C%20Ajara	https://www.numbeo.com/cost-of-living/country_result.jsp?country=Georgia	country_result.jsp?country=Georgia
96	2497	India	Thane	Thane	Thane	https://www.numbeo.com/cost-of-living/city_result.jsp?country=India&city=Thane	city_result.jsp?country=India&city=Thane	https://www.numbeo.com/cost-of-living/country_result.jsp?country=India	country_result.jsp?country=India
96	2465	India	Ranchi	Ranchi	Ranchi	https://www.numbeo.com/cost-of-living/city_result.jsp?country=India&city=Ranchi	city_result.jsp?country=India&city=Ranchi	https://www.numbeo.com/cost-of-living/country_result.jsp?country=India	country_result.jsp?country=India
1	5	Afghanistan	Kabul	Kabul	Kabul	https://www.numbeo.com/cost-of-living/city_result.jsp?country=Afghanistan&city=Kabul	city_result.jsp?country=Afghanistan&city=Kabul	https://www.numbeo.com/cost-of-living/country_result.jsp?country=Afghanistan	country_result.jsp?country=Afghanistan
96	2350	India	Guwahati	Guwahati	Guwahati	https://www.numbeo.com/cost-of-living/city_result.jsp?country=India&city=Guwahati	city_result.jsp?country=India&city=Guwahati	https://www.numbeo.com/cost-of-living/country_result.jsp?country=India	country_result.jsp?country=India
96	2440	India	Navi Mumbai	Navi%20Mumbai	Navi%20Mumbai	https://www.numbeo.com/cost-of-living/city_result.jsp?country=India&city=Navi%20Mumbai	city_result.jsp?country=India&city=Navi%20Mumbai	https://www.numbeo.com/cost-of-living/country_result.jsp?country=India	country_result.jsp?country=India
96	2363	India	Hyderabad	Hyderabad	Hyderabad	https://www.numbeo.com/cost-of-living/city_result.jsp?country=India&city=Hyderabad	city_result.jsp?country=India&city=Hyderabad	https://www.numbeo.com/cost-of-living/country_result.jsp?country=India	country_result.jsp?country=India
96	2264	India	Ahmedabad	Ahmedabad	Ahmedabad	https://www.numbeo.com/cost-of-living/city_result.jsp?country=India&city=Ahmedabad	city_result.jsp?country=India&city=Ahmedabad	https://www.numbeo.com/cost-of-living/country_result.jsp?country=India	country_result.jsp?country=India
96	2341	India	Ghaziabad	Ghaziabad	Ghaziabad	https://www.numbeo.com/cost-of-living/city_result.jsp?country=India&city=Ghaziabad	city_result.jsp?country=India&city=Ghaziabad	https://www.numbeo.com/cost-of-living/country_result.jsp?country=India	country_result.jsp?country=India
96	2458	India	Pune	Pune	Pune	https://www.numbeo.com/cost-of-living/city_result.jsp?country=India&city=Pune	city_result.jsp?country=India&city=Pune	https://www.numbeo.com/cost-of-living/country_result.jsp?country=India	country_result.jsp?country=India
96	2396	India	Kolkata	Kolkata	Kolkata	https://www.numbeo.com/cost-of-living/city_result.jsp?country=India&city=Kolkata	city_result.jsp?country=India&city=Kolkata	https://www.numbeo.com/cost-of-living/country_result.jsp?country=India	country_result.jsp?country=India
219	5748	Ukraine	Sumy	Sumy	Sumy	https://www.numbeo.com/cost-of-living/city_result.jsp?country=Ukraine&city=Sumy	city_result.jsp?country=Ukraine&city=Sumy	https://www.numbeo.com/cost-of-living/country_result.jsp?country=Ukraine	country_result.jsp?country=Ukraine
219	5749	Ukraine	Ternopil	Ternopil	Ternopil	https://www.numbeo.com/cost-of-living/city_result.jsp?country=Ukraine&city=Ternopil	city_result.jsp?country=Ukraine&city=Ternopil	https://www.numbeo.com/cost-of-living/country_result.jsp?country=Ukraine	country_result.jsp?country=Ukraine
96	2316	India	Chennai	Chennai	Chennai	https://www.numbeo.com/cost-of-living/city_result.jsp?country=India&city=Chennai	city_result.jsp?country=India&city=Chennai	https://www.numbeo.com/cost-of-living/country_result.jsp?country=India	country_result.jsp?country=India
96	2454	India	Patna	Patna	Patna	https://www.numbeo.com/cost-of-living/city_result.jsp?country=India&city=Patna	city_result.jsp?country=India&city=Patna	https://www.numbeo.com/cost-of-living/country_result.jsp?country=India	country_result.jsp?country=India
96	2494	India	Surat	Surat	Surat	https://www.numbeo.com/cost-of-living/city_result.jsp?country=India&city=Surat	city_result.jsp?country=India&city=Surat	https://www.numbeo.com/cost-of-living/country_result.jsp?country=India	country_result.jsp?country=India
96	2365	India	Indore	Indore	Indore	https://www.numbeo.com/cost-of-living/city_result.jsp?country=India&city=Indore	city_result.jsp?country=India&city=Indore	https://www.numbeo.com/cost-of-living/country_result.jsp?country=India	country_result.jsp?country=India
96	2518	India	Vadodara	Vadodara	Vadodara	https://www.numbeo.com/cost-of-living/city_result.jsp?country=India&city=Vadodara	city_result.jsp?country=India&city=Vadodara	https://www.numbeo.com/cost-of-living/country_result.jsp?country=India	country_result.jsp?country=India
96	2368	India	Jaipur	Jaipur	Jaipur	https://www.numbeo.com/cost-of-living/city_result.jsp?country=India&city=Jaipur	city_result.jsp?country=India&city=Jaipur	https://www.numbeo.com/cost-of-living/country_result.jsp?country=India	country_result.jsp?country=India
96	2407	India	Lucknow (Lakhnau)	Lucknow%20%28Lakhnau%29	Lucknow%20%28Lakhnau%29	https://www.numbeo.com/cost-of-living/city_result.jsp?country=India&city=Lucknow%20%28Lakhnau%29	city_result.jsp?country=India&city=Lucknow%20%28Lakhnau%29	https://www.numbeo.com/cost-of-living/country_result.jsp?country=India	country_result.jsp?country=India
96	2432	India	Nagpur	Nagpur	Nagpur	https://www.numbeo.com/cost-of-living/city_result.jsp?country=India&city=Nagpur	city_result.jsp?country=India&city=Nagpur	https://www.numbeo.com/cost-of-living/country_result.jsp?country=India	country_result.jsp?country=India
96	2320	India	Coimbatore	Coimbatore	Coimbatore	https://www.numbeo.com/cost-of-living/city_result.jsp?country=India&city=Coimbatore	city_result.jsp?country=India&city=Coimbatore	https://www.numbeo.com/cost-of-living/country_result.jsp?country=India	country_result.jsp?country=India
159	4101	Pakistan	Rawalpindi	Rawalpindi	Rawalpindi	https://www.numbeo.com/cost-of-living/city_result.jsp?country=Pakistan&city=Rawalpindi	city_result.jsp?country=Pakistan&city=Rawalpindi	https://www.numbeo.com/cost-of-living/country_result.jsp?country=Pakistan	country_result.jsp?country=Pakistan
96	2411	India	Madurai	Madurai	Madurai	https://www.numbeo.com/cost-of-living/city_result.jsp?country=India&city=Madurai	city_result.jsp?country=India&city=Madurai	https://www.numbeo.com/cost-of-living/country_result.jsp?country=India	country_result.jsp?country=India
96	2429	India	Mysore	Mysore	Mysore	https://www.numbeo.com/cost-of-living/city_result.jsp?country=India&city=Mysore	city_result.jsp?country=India&city=Mysore	https://www.numbeo.com/cost-of-living/country_result.jsp?country=India	country_result.jsp?country=India
96	2526	India	Vijayawada	Vijayawada	Vijayawada	https://www.numbeo.com/cost-of-living/city_result.jsp?country=India&city=Vijayawada	city_result.jsp?country=India&city=Vijayawada	https://www.numbeo.com/cost-of-living/country_result.jsp?country=India	country_result.jsp?country=India
96	2392	India	Kochi	Kochi	Kochi	https://www.numbeo.com/cost-of-living/city_result.jsp?country=India&city=Kochi	city_result.jsp?country=India&city=Kochi	https://www.numbeo.com/cost-of-living/country_result.jsp?country=India	country_result.jsp?country=India
159	4080	Pakistan	Islamabad	Islamabad	Islamabad	https://www.numbeo.com/cost-of-living/city_result.jsp?country=Pakistan&city=Islamabad	city_result.jsp?country=Pakistan&city=Islamabad	https://www.numbeo.com/cost-of-living/country_result.jsp?country=Pakistan	country_result.jsp?country=Pakistan
96	2464	India	Rajkot	Rajkot	Rajkot	https://www.numbeo.com/cost-of-living/city_result.jsp?country=India&city=Rajkot	city_result.jsp?country=India&city=Rajkot	https://www.numbeo.com/cost-of-living/country_result.jsp?country=India	country_result.jsp?country=India
113	3198	Kyrgyzstan	Bishkek	Bishkek	Bishkek	https://www.numbeo.com/cost-of-living/city_result.jsp?country=Kyrgyzstan&city=Bishkek	city_result.jsp?country=Kyrgyzstan&city=Bishkek	https://www.numbeo.com/cost-of-living/country_result.jsp?country=Kyrgyzstan	country_result.jsp?country=Kyrgyzstan
96	2303	India	Bhopal	Bhopal	Bhopal	https://www.numbeo.com/cost-of-living/city_result.jsp?country=India&city=Bhopal	city_result.jsp?country=India&city=Bhopal	https://www.numbeo.com/cost-of-living/country_result.jsp?country=India	country_result.jsp?country=India
96	2400	India	Kozhikode (Calicut)	Kozhikode%20%28Calicut%29	Kozhikode%20%28Calicut%29	https://www.numbeo.com/cost-of-living/city_result.jsp?country=India&city=Kozhikode%20%28Calicut%29	city_result.jsp?country=India&city=Kozhikode%20%28Calicut%29	https://www.numbeo.com/cost-of-living/country_result.jsp?country=India	country_result.jsp?country=India
96	2461	India	Raipur	Raipur	Raipur	https://www.numbeo.com/cost-of-living/city_result.jsp?country=India&city=Raipur	city_result.jsp?country=India&city=Raipur	https://www.numbeo.com/cost-of-living/country_result.jsp?country=India	country_result.jsp?country=India
96	2304	India	Bhubaneswar	Bhubaneswar	Bhubaneswar	https://www.numbeo.com/cost-of-living/city_result.jsp?country=India&city=Bhubaneswar	city_result.jsp?country=India&city=Bhubaneswar	https://www.numbeo.com/cost-of-living/country_result.jsp?country=India	country_result.jsp?country=India
96	2527	India	Visakhapatnam	Visakhapatnam	Visakhapatnam	https://www.numbeo.com/cost-of-living/city_result.jsp?country=India&city=Visakhapatnam	city_result.jsp?country=India&city=Visakhapatnam	https://www.numbeo.com/cost-of-living/country_result.jsp?country=India	country_result.jsp?country=India
159	4087	Pakistan	Lahore	Lahore	Lahore	https://www.numbeo.com/cost-of-living/city_result.jsp?country=Pakistan&city=Lahore	city_result.jsp?country=Pakistan&city=Lahore	https://www.numbeo.com/cost-of-living/country_result.jsp?country=Pakistan	country_result.jsp?country=Pakistan
159	4084	Pakistan	Karachi	Karachi	Karachi	https://www.numbeo.com/cost-of-living/city_result.jsp?country=Pakistan&city=Karachi	city_result.jsp?country=Pakistan&city=Karachi	https://www.numbeo.com/cost-of-living/country_result.jsp?country=Pakistan	country_result.jsp?country=Pakistan
159	4098	Pakistan	Peshawar	Peshawar	Peshawar	https://www.numbeo.com/cost-of-living/city_result.jsp?country=Pakistan&city=Peshawar	city_result.jsp?country=Pakistan&city=Peshawar	https://www.numbeo.com/cost-of-living/country_result.jsp?country=Pakistan	country_result.jsp?country=Pakistan
96	2499	India	Thiruvananthapuram	Thiruvananthapuram	Thiruvananthapuram	https://www.numbeo.com/cost-of-living/city_result.jsp?country=India&city=Thiruvananthapuram	city_result.jsp?country=India&city=Thiruvananthapuram	https://www.numbeo.com/cost-of-living/country_result.jsp?country=India	country_result.jsp?country=India
